{"type":"FeatureCollection","name":"GAFOR-Bereiche","note":"Vereinigung der Gebiete je Bereich, nur zur Darstellung","features":[{"type":"Feature","properties":{"region":"Nord","name":"Nord","areas":["00","01","02","03","04","05","06","07","08","09","10"]},"geometry":{"type":"Polygon","coordinates":[[[6.4983,54.9959],[7.9897,54.9987],[7.9956,54.365],[8.0001,54.9989],[8.0519,54.9997],[8.0722,55.018],[8.2998,55.0632],[8.4042,55.0646],[8.4375,55.0111],[8.3549,54.9919],[8.3087,54.8898],[8.3799,54.8845],[8.4122,54.8613],[8.494,54.8919],[8.6189,54.8874],[8.7701,54.6916],[8.833,54.6679],[8.8453,54.614],[8.9484,54.5676],[8.9603,54.5841],[8.9272,54.6268],[8.9541,54.7828],[8.9101,54.8843],[9.2224,54.8627],[9.2333,54.8541],[9.2432,54.8277],[9.3165,54.8213],[9.3355,54.8007],[9.3375,54.8094],[9.3785,54.8396],[9.4718,54.8281],[9.5031,54.8462],[9.7005,54.8228],[9.9289,54.8352],[10.0638,54.7633],[10.5079,54.6546],[11.0143,54.6394],[11.6482,54.4649],[11.9354,54.4428],[11.9543,54.4066],[10.9069,53.9455],[10.854,53.8259],[10.9439,53.7773],[10.9939,53.7769],[11.0248,53.7946],[11.4703,53.7841],[11.8964,53.8022],[12.0481,53.7938],[12.1705,53.8097],[12.2512,53.8022],[12.2594,53.7661],[12.1891,53.7794],[12.0668,53.7635],[11.6521,53.7698],[11.4792,53.754],[11.1861,53.7632],[10.9122,53.7416],[10.8018,53.8012],[10.7498,53.7065],[10.7653,53.443],[10.7351,53.4249],[10.7341,53.3773],[10.7007,53.3713],[10.754,53.3712],[10.7636,53.3112],[10.8229,53.2989],[10.8525,53.2686],[11.0504,53.1833],[11.0496,53.1414],[11.1177,53.0808],[11.1167,53.0328],[11.155,52.9846],[11.1337,52.9246],[11.1797,52.7927],[11.0894,52.7335],[11.0868,52.6378],[11.0264,52.5842],[10.9936,52.4409],[10.9445,52.4413],[10.915,52.4594],[10.8282,52.4407],[10.8364,52.4361],[10.7658,52.3287],[10.597,52.156],[10.4891,52.0965],[10.4007,52.019],[10.3628,52.0245],[10.3616,51.9951],[10.3323,51.9773],[10.2737,51.983],[10.177,51.8881],[10.2149,51.768],[10.3206,51.6838],[10.3302,51.648],[10.4838,51.6053],[10.5127,51.5812],[10.5702,51.575],[10.5601,51.5391],[10.5018,51.4914],[10.4538,51.4916],[10.3776,51.5513],[10.3291,51.522],[10.233,51.5221],[10.1172,51.4265],[10.0404,51.4146],[9.8966,51.3546],[9.8104,51.3605],[9.7811,51.3905],[9.647,51.42],[9.6464,51.4678],[9.6079,51.4918],[9.626,51.5404],[9.5588,51.5994],[9.5578,51.6291],[9.5006,51.6351],[9.4811,51.6581],[9.4147,51.5991],[9.4147,51.5688],[9.2811,51.4962],[9.0888,51.4948],[9.0111,51.5301],[9.0001,51.5663],[8.8935,51.6189],[8.8333,51.7082],[8.8498,51.8162],[8.9164,51.8527],[8.9249,51.8767],[8.8871,51.8765],[8.8276,51.912],[8.4854,51.9978],[8.3074,52.0791],[8.2194,52.0839],[8.1794,52.1072],[7.9757,52.0859],[7.9159,52.1149],[7.8182,52.1191],[7.6878,52.1885],[7.6756,52.2302],[7.6153,52.265],[7.623,52.3101],[7.6052,52.2708],[7.53,52.2153],[7.0432,52.186],[6.9643,52.196],[6.9709,52.2365],[7.0481,52.2468],[7.0347,52.3117],[7.0702,52.3603],[6.9962,52.4538],[6.8983,52.4401],[6.8182,52.462],[6.7494,52.4601],[6.7088,52.477],[6.6936,52.5485],[6.7411,52.5688],[6.7258,52.6454],[6.913,52.6504],[7.0225,52.6353],[7.0512,52.6481],[7.0963,52.8648],[7.1911,52.933],[7.2005,52.933],[7.2083,52.9754],[7.2641,53.0244],[7.2312,53.0839],[7.2358,53.1679],[7.2822,53.1934],[7.2216,53.2335],[7.2353,53.3125],[7.1983,53.3327],[7.1657,53.3221],[6.9956,53.318],[6.8968,53.4354],[6.6797,53.5136],[6.6338,53.5843],[6.5067,53.6587],[6.4994,53.9943],[7.9964,54.0022],[6.5091,54.0006],[6.4983,54.9959]],[[10.2728,53.9132],[10.276,53.9417],[10.2607,53.9506],[10.2657,53.9189],[10.2728,53.9132]],[[10.193,53.3913],[10.2237,53.3973],[10.1876,53.3954],[10.193,53.3913]],[[10.0273,52.0975],[10.0315,52.0915],[10.0728,52.0955],[10.0708,52.0975],[10.0273,52.0975]],[[10.0319,53.4733],[10.0041,53.4753],[10.0021,53.4733],[10.03,53.4667],[10.0319,53.4733]],[[9.9031,53.5172],[9.9032,53.4992],[9.9292,53.5013],[9.9116,53.5169],[9.9031,53.5172]],[[9.5289,52.2763],[9.5325,52.2703],[9.5581,52.2722],[9.5517,52.2764],[9.5289,52.2763]],[[9.3857,52.333],[9.3949,52.3317],[9.3977,52.3739],[9.3951,52.3726],[9.3857,52.333]],[[9.231,52.9272],[9.2311,52.9185],[9.2337,52.9268],[9.231,52.9272]],[[9.005,53.9748],[9.0079,53.8427],[8.9862,53.8353],[9.0267,53.8368],[9.028,53.8488],[9.0861,53.8626],[9.0575,53.8909],[9.0168,53.8967],[9.0137,53.9885],[9.005,53.9748]],[[9.0648,54.4365],[9.0653,54.4597],[9.0597,54.4653],[9.058,54.463],[9.0648,54.4365]],[[9.0383,54.3113],[9.0421,54.3039],[9.045,54.3036],[9.0434,54.3151],[9.0383,54.3113]],[[9.0363,52.9228],[8.8801,52.9309],[8.866,52.9259],[8.8679,52.9238],[9.0363,52.9228]],[[8.9136,52.2692],[8.9061,52.2686],[8.91,52.2634],[8.9136,52.2692]],[[8.8062,53.8332],[8.812,53.8291],[8.8137,53.8314],[8.8062,53.8332]],[[8.7864,52.3844],[8.7486,52.3862],[8.7465,52.3843],[8.7568,52.3784],[8.7892,52.379],[8.7864,52.3844]],[[8.7021,52.8871],[8.7096,52.8923],[8.6382,52.8904],[8.6432,52.8865],[8.7021,52.8871]],[[8.4741,52.8964],[8.5207,52.903],[8.4674,52.9003],[8.4741,52.8964]],[[8.2474,52.3572],[8.2581,52.3483],[8.2946,52.3609],[8.2923,52.3626],[8.2474,52.3572]],[[8.1858,52.9503],[8.1572,52.9488],[8.1874,52.948],[8.1858,52.9503]],[[7.37,52.9311],[7.2722,52.9284],[7.4187,52.922],[7.37,52.9311]],[[7.2047,54.576],[7.151,54.5983],[7.1029,54.5619],[7.1046,54.532],[7.1586,54.4973],[7.2182,54.5283],[7.2594,54.5293],[7.3232,54.501],[7.3623,54.532],[7.3595,54.5734],[7.317,54.6022],[7.2563,54.5772],[7.2047,54.576]]]}},{"type":"Feature","properties":{"region":"Ost","name":"Ost","areas":["11","12","13","14","15","16","17","18","19","20","21","22","23","24","25","26","27","28"]},"geometry":{"type":"Polygon","coordinates":[[[9.9926,50.8395],[10.0211,50.9294],[10.1067,51.0012],[10.2493,51.001],[10.2779,50.983],[10.3488,50.9825],[10.3444,51.0068],[10.4021,51.0903],[10.4217,51.162],[10.3274,51.2884],[10.3277,51.3363],[10.3567,51.3425],[10.4729,51.4796],[10.5991,51.5748],[10.6764,51.576],[10.6567,51.5865],[10.4932,51.5813],[10.4548,51.6054],[10.3299,51.6358],[10.3295,51.6601],[10.2243,51.7439],[10.1859,51.8038],[10.1766,51.8997],[10.2449,51.9835],[10.4023,51.9972],[10.4008,52.031],[10.4598,52.0907],[10.5181,52.1235],[10.5189,52.1503],[10.5779,52.1801],[10.7947,52.4104],[10.6599,52.4492],[10.6602,52.4731],[10.7193,52.4788],[10.8173,52.4542],[10.984,52.4772],[10.9864,52.5608],[11.0574,52.65],[11.07,52.7577],[11.1502,52.8113],[11.1328,52.8886],[11.1034,52.9072],[11.1248,52.9786],[11.0863,53.0212],[11.0968,53.0572],[11.0289,53.1176],[11.0215,53.1614],[10.9903,53.1839],[10.8121,53.257],[10.7825,53.2871],[10.7327,53.2935],[10.7241,53.3834],[10.7656,53.4613],[10.7604,53.7366],[10.7922,53.8143],[10.823,53.8152],[10.8866,53.9694],[11.9871,54.448],[12.0283,54.4473],[12.0376,54.1835],[12.1177,54.1824],[12.1615,54.2353],[12.3291,54.3042],[12.38,54.2973],[12.3989,54.2639],[12.4104,54.2907],[12.4728,54.3133],[12.4849,54.3372],[12.642,54.3879],[12.8059,54.3783],[12.8256,54.3544],[12.8774,54.3767],[12.89,54.4063],[12.9426,54.4231],[13.0042,54.4216],[13.0334,54.3969],[13.094,54.3835],[13.108,54.2936],[13.1667,54.2557],[13.1683,54.2404],[13.1989,54.2733],[13.3157,54.5876],[13.3772,54.5872],[13.3725,54.6521],[13.4099,54.6682],[13.3744,54.676],[13.3768,54.7059],[13.4977,54.9125],[14.0187,54.9149],[14.0193,54.057],[13.9481,54.0533],[13.9228,54.0061],[13.8335,53.9912],[13.9162,53.9343],[13.9134,53.9044],[13.8298,53.853],[14.0419,53.7562],[14.1716,53.74],[14.2147,53.7624],[14.2652,53.7606],[14.2848,53.652],[14.3203,53.6027],[14.3064,53.561],[14.3215,53.543],[14.3258,53.5227],[14.3484,53.5011],[14.364,53.4754],[14.3561,53.4574],[14.2934,53.4548],[14.3755,53.4507],[14.4343,53.2385],[14.3691,53.1866],[14.3687,53.0848],[14.3446,53.0437],[14.1371,52.9493],[14.1486,52.8706],[14.1278,52.8664],[14.1446,52.8229],[14.2325,52.8137],[14.4839,52.6545],[14.5892,52.6204],[14.6346,52.5827],[14.6088,52.5237],[14.6233,52.475],[14.539,52.418],[14.5574,52.3167],[14.5772,52.3148],[14.6122,52.2714],[14.6985,52.256],[14.6841,52.1191],[14.7488,52.0859],[14.6911,51.9081],[14.5963,51.8219],[14.6541,51.784],[14.687,51.6876],[14.736,51.6902],[14.7496,51.6356],[14.7308,51.5403],[14.9626,51.4646],[14.9686,51.3442],[14.6149,51.3528],[14.562,51.2851],[14.6232,51.3465],[14.9898,51.3369],[15.0363,51.2909],[14.9773,51.0736],[14.8852,50.9275],[14.8233,50.882],[14.7981,50.8231],[14.621,50.8544],[14.6457,50.918],[14.5708,50.9224],[14.5852,50.9879],[14.5115,50.9968],[14.5028,51.0152],[14.381,51.0259],[14.3634,51.0445],[14.3164,51.0521],[14.2772,51.0356],[14.2642,50.9945],[14.3266,50.956],[14.3919,50.9414],[14.3784,50.8999],[14.2544,50.8925],[14.2225,50.8578],[14.1646,50.8479],[14.0946,50.8084],[13.9915,50.8181],[13.9513,50.7955],[13.914,50.7966],[13.8895,50.7376],[13.8403,50.7153],[13.7751,50.7294],[13.566,50.7121],[13.5022,50.6242],[13.4631,50.6074],[13.3794,50.6218],[13.3103,50.5819],[13.2638,50.589],[13.1818,50.4956],[13.0413,50.4992],[13.0274,50.446],[12.8782,50.4617],[12.8026,50.4517],[12.725,50.4116],[12.6876,50.4125],[12.6615,50.4548],[12.5962,50.4564],[12.5558,50.4095],[12.5084,50.3984],[12.4869,50.3511],[12.4004,50.3108],[12.3309,50.2287],[12.3283,50.1806],[12.2816,50.1816],[12.2833,50.2176],[12.2483,50.2662],[12.2597,50.3267],[12.1525,50.4177],[12.0591,50.4316],[12.08,50.4791],[12.1666,50.5257],[12.1691,50.6091],[12.1045,50.6045],[12.0493,50.6414],[11.9641,50.631],[11.6542,50.6659],[11.6262,50.6902],[11.3441,50.7179],[11.3244,50.7301],[11.3336,50.6824],[11.3615,50.6697],[11.3792,50.6279],[11.4354,50.6149],[11.4154,50.5792],[11.3269,50.5624],[11.3767,50.5437],[11.3836,50.4598],[11.3728,50.412],[11.2772,50.3236],[11.3126,50.2749],[11.3115,50.2389],[11.1809,50.2523],[11.0508,50.2896],[10.9289,50.2786],[10.7614,50.3458],[10.5367,50.365],[10.5467,50.4487],[10.4069,50.5393],[10.4073,50.5991],[10.3514,50.6653],[10.3426,50.7485],[10.3048,50.7612],[10.295,50.7915],[10.2577,50.8153],[10.1537,50.8394],[9.9926,50.8395]],[[14.4924,51.2857],[14.4622,51.2945],[14.492,51.2797],[14.5615,51.2809],[14.4924,51.2857]],[[14.4424,51.2996],[14.4365,51.3058],[14.3326,51.3078],[14.341,51.3035],[14.4424,51.2996]],[[14.3127,52.3187],[14.4,52.3214],[14.2963,52.3233],[14.3127,52.3187]],[[14.2201,51.656],[14.239,51.6612],[14.2109,51.6604],[14.2201,51.656]],[[14.1269,51.3618],[14.0795,51.3788],[14.0612,51.3691],[14.063,51.3669],[14.1269,51.3618]],[[13.9611,52.8498],[13.86,52.8622],[13.7973,52.8575],[13.9379,52.8477],[13.9611,52.8498]],[[13.6442,51.2255],[13.648,51.2194],[13.7102,51.2174],[13.7295,51.2272],[13.4882,51.2555],[13.5026,51.2479],[13.6442,51.2255]],[[13.134,51.3065],[13.1522,51.3],[13.351,51.3077],[13.2969,51.3139],[13.134,51.3065]],[[13.1602,52.7928],[13.0531,52.7787],[13.2431,52.7848],[13.1602,52.7928]],[[13.1254,51.3037],[12.9632,51.3348],[12.9536,51.33],[12.9553,51.3277],[13.1254,51.3037]],[[12.0389,51.1188],[12.1753,51.1066],[12.1787,51.0923],[12.1944,51.1063],[12.3367,51.0975],[12.3493,51.1014],[12.1852,51.1125],[12.1192,51.1317],[12.0389,51.1188]],[[12.2592,50.6531],[12.2942,50.6312],[12.3229,50.6476],[12.321,50.6497],[12.2592,50.6531]],[[12.1809,50.6394],[12.201,50.6507],[12.248,50.6521],[12.1889,50.6601],[12.1809,50.6394]],[[12.1574,50.7243],[12.1658,50.7116],[12.1687,50.7115],[12.1619,50.7311],[12.1574,50.7243]],[[12.0269,53.7762],[12.1617,53.7877],[11.8207,53.7782],[11.8227,53.7763],[12.0269,53.7762]],[[11.726,51.3481],[11.7005,51.356],[11.7239,51.3357],[11.726,51.3481]],[[11.6577,51.5214],[11.6451,51.5294],[11.6393,51.521],[11.6414,51.5191],[11.6577,51.5214]],[[11.6524,51.4149],[11.6355,51.4195],[11.654,51.404],[11.6524,51.4149]],[[11.3557,51.4367],[11.3082,51.4552],[11.1071,51.4753],[11.0148,51.4693],[11.0208,51.4641],[11.107,51.4693],[11.3654,51.4306],[11.6043,51.4391],[11.6159,51.4766],[11.5963,51.4516],[11.3557,51.4367]],[[11.1127,51.7952],[11.1039,51.8012],[11.1018,51.7994],[11.1127,51.7952]],[[10.7302,51.5565],[10.7339,51.5501],[10.8751,51.5453],[10.8297,51.5615],[10.7302,51.5565]]]}},{"type":"Feature","properties":{"region":"West","name":"West","areas":["31","32","33","34","35","36","37","38","39"]},"geometry":{"type":"Polygon","coordinates":[[[5.9614,51.8298],[6.0469,51.8507],[6.1426,51.8482],[6.14,51.8959],[6.2818,51.8851],[6.2979,51.8705],[6.3073,51.8694],[6.3093,51.859],[6.4051,51.8331],[6.4049,51.8623],[6.483,51.8588],[6.6438,51.9114],[6.732,51.9021],[6.7965,51.9456],[6.8223,51.9815],[6.7321,52.0338],[6.6926,52.0388],[6.6904,52.0687],[6.7554,52.1001],[6.755,52.1185],[6.8424,52.1209],[6.8786,52.1638],[6.9635,52.208],[7.14,52.2004],[7.49,52.2264],[7.5842,52.2942],[7.63,52.3552],[7.8125,52.4306],[8.0197,52.4103],[8.1567,52.4185],[8.2572,52.3662],[8.3929,52.404],[8.8248,52.3971],[8.9046,52.344],[8.9162,52.2961],[9.004,52.279],[9.1017,52.2918],[9.2084,52.3404],[9.2575,52.3348],[9.2579,52.3108],[9.1802,52.2743],[9.0438,52.2493],[8.9468,52.2544],[8.9367,52.2304],[8.8682,52.2297],[8.7724,52.1811],[8.7631,52.1508],[8.7074,52.114],[8.775,52.0731],[8.7966,51.9894],[8.7579,51.989],[8.7269,52.0485],[8.6578,52.0838],[8.656,52.1436],[8.7226,52.1802],[8.7221,52.2163],[8.7805,52.2229],[8.8285,52.2594],[8.8761,52.2664],[8.856,52.3196],[8.7864,52.3667],[8.4235,52.3745],[8.3071,52.3369],[8.219,52.3356],[8.1188,52.3879],[8.0014,52.38],[7.8534,52.4013],[7.652,52.3136],[7.6441,52.2836],[7.6941,52.2546],[7.7064,52.2126],[7.8565,52.1319],[7.9543,52.1275],[7.9948,52.1043],[8.2079,52.1257],[8.258,52.0965],[8.3457,52.0918],[8.5239,52.0103],[8.8079,51.9356],[8.7903,51.8936],[8.8192,51.8758],[8.83,51.834],[8.8136,51.8322],[8.8497,51.8222],[8.823,51.7382],[8.8329,51.6853],[8.8629,51.6845],[8.8936,51.6248],[9.0004,51.578],[9.0115,51.5122],[8.8346,51.2888],[8.7033,51.1975],[8.6203,51.1129],[8.6614,50.9993],[8.608,50.8789],[8.5716,50.8676],[8.6368,50.8672],[8.6755,50.8498],[8.7602,50.8627],[8.7715,50.7969],[8.7172,50.7125],[8.7093,50.6524],[8.6438,50.6455],[8.6257,50.6095],[8.533,50.5604],[8.3452,50.5458],[8.2989,50.5272],[8.2445,50.4723],[8.2468,50.4065],[8.1066,50.4101],[8.0972,50.3921],[8.0226,50.3848],[7.9862,50.3542],[7.9488,50.3533],[7.9126,50.3229],[7.8008,50.3088],[7.6967,50.3365],[7.6692,50.3181],[7.6223,50.3171],[7.6197,50.3288],[7.483,50.3081],[7.4594,50.2117],[7.4234,50.2091],[7.3868,50.174],[7.3038,50.1541],[7.1844,50.1565],[7.193,50.1396],[7.2299,50.1403],[7.2317,50.1104],[7.1959,50.0855],[7.1309,50.0833],[7.1095,49.9754],[7.0259,49.9792],[7.0097,49.9679],[7.0653,49.9383],[7.0668,49.9143],[7.0107,49.9187],[6.9477,49.8872],[6.911,49.8859],[6.8949,49.8437],[6.841,49.8298],[6.8518,49.7946],[6.8055,49.7932],[6.72,49.8202],[6.6861,49.7778],[6.6238,49.752],[6.6252,49.722],[6.543,49.7074],[6.5043,49.7302],[6.5061,49.8141],[6.405,49.817],[6.356,49.8513],[6.3188,49.8502],[6.2981,49.8734],[6.233,49.8773],[6.228,49.9369],[6.1701,49.9652],[6.1264,50.0417],[6.1527,50.1746],[6.1882,50.1944],[6.1753,50.2413],[6.2665,50.2684],[6.3003,50.3175],[6.366,50.3136],[6.3999,50.333],[6.3339,50.3666],[6.3508,50.4985],[6.2196,50.5008],[6.1884,50.5357],[6.1859,50.5656],[6.2612,50.6212],[6.1626,50.6188],[6.1266,50.7074],[6.0398,50.7286],[6.0367,50.7645],[6.084,50.7662],[6.1258,50.7838],[6.0163,50.7818],[6.02,50.8479],[6.066,50.8557],[6.0626,50.9034],[6.1164,50.9412],[6.1638,50.9428],[6.1945,50.9198],[6.2518,50.9157],[6.5996,50.9626],[6.7412,50.9975],[6.0069,50.9974],[5.9984,51.0931],[6.1639,51.1593],[6.1518,51.1881],[6.0773,51.1738],[6.0801,51.2519],[6.2233,51.3717],[6.2111,51.5142],[6.108,51.5948],[6.1122,51.649],[6.0338,51.6703],[6.0295,51.7177],[5.9996,51.7291],[5.9614,51.8298]],[[8.3823,50.8241],[8.4203,50.8225],[8.4135,50.786],[8.4984,50.7593],[8.506,50.7993],[8.4676,50.8231],[8.466,50.8438],[8.3823,50.8241]],[[8.444,51.7995],[8.4724,51.7939],[8.4781,51.7978],[8.4763,51.7999],[8.444,51.7995]],[[8.2968,50.8155],[8.3387,50.8173],[8.3405,50.8195],[8.2875,50.8301],[8.2968,50.8155]],[[8.0473,50.9186],[8.0417,50.9065],[8.0969,50.9093],[8.0839,50.9192],[8.0473,50.9186]],[[7.2965,50.7594],[7.2507,50.7523],[7.2513,50.729],[7.3077,50.7241],[7.3245,50.766],[7.4099,50.762],[7.442,50.7033],[7.4875,50.716],[7.4863,50.7518],[7.5334,50.7528],[7.5836,50.7065],[7.6193,50.7306],[7.6179,50.7666],[7.8255,50.7828],[7.9188,50.8084],[7.9926,50.8456],[7.9996,50.8557],[7.9373,50.8508],[7.9361,50.8447],[7.8715,50.8076],[7.7399,50.787],[7.6261,50.7907],[7.6056,50.8083],[7.5315,50.8067],[7.5129,50.7823],[7.3047,50.783],[7.2965,50.7594]],[[7.7275,51.6705],[7.6525,51.6624],[7.6503,51.6576],[7.6578,51.6546],[7.7275,51.6705]],[[7.6062,50.4153],[7.615,50.442],[7.5887,50.4439],[7.5888,50.4245],[7.6062,50.4153]],[[7.5249,50.3693],[7.5438,50.3821],[7.5403,50.4455],[7.4852,50.449],[7.4878,50.3808],[7.5249,50.3693]],[[7.4086,50.4321],[7.4169,50.4523],[7.3712,50.4537],[7.3733,50.4273],[7.4086,50.4321]],[[7.2203,50.7073],[7.2426,50.7044],[7.2489,50.7244],[7.2463,50.7251],[7.2203,50.7073]],[[6.9646,50.6311],[6.9842,50.6196],[7.2089,50.6434],[7.2118,50.5965],[7.2203,50.5954],[7.2048,50.696],[7.1966,50.6902],[7.1991,50.6491],[6.9646,50.6311]],[[6.734,50.666],[6.7549,50.6553],[6.8828,50.6553],[6.8771,50.6587],[6.734,50.666]],[[6.489,50.8026],[6.4643,50.8044],[6.4624,50.8023],[6.4932,50.7935],[6.489,50.8026]],[[6.354,50.829],[6.2404,50.8254],[6.2324,50.8211],[6.3597,50.8239],[6.354,50.829]]]}},{"type":"Feature","properties":{"region":"Mitte","name":"Mitte","areas":["41","42","43","44","45","46","47","50","51","52","53","61"]},"geometry":{"type":"Polygon","coordinates":[[[6.3764,49.5882],[6.4283,49.6318],[6.4515,49.6926],[6.4871,49.7117],[6.5885,49.7149],[6.631,49.7701],[6.7026,49.7962],[6.7021,49.8142],[6.7761,49.8164],[6.841,49.7953],[6.8393,49.8422],[6.8937,49.8499],[6.8921,49.8856],[6.939,49.8752],[6.974,49.9119],[7.0606,49.9202],[7.0088,49.9488],[7.0069,49.9787],[7.1279,49.9645],[7.1299,50.0958],[7.1752,50.1101],[7.1531,50.1744],[7.2841,50.1716],[7.349,50.1853],[7.4483,50.2416],[7.459,50.2935],[7.4528,50.3314],[7.5832,50.3404],[7.6274,50.4012],[7.6843,50.3903],[7.6963,50.3545],[7.8371,50.3276],[7.9107,50.3648],[7.9482,50.3657],[7.9844,50.3961],[8.0676,50.4095],[8.077,50.4277],[8.2089,50.418],[8.227,50.4308],[8.2154,50.4899],[8.2606,50.5385],[8.2888,50.5392],[8.3162,50.5633],[8.4953,50.572],[8.6056,50.6331],[8.6035,50.717],[8.6413,50.7175],[8.671,50.665],[8.6889,50.6755],[8.6884,50.724],[8.734,50.7785],[8.7416,50.8366],[8.6377,50.8373],[8.609,50.8489],[8.6082,50.8729],[8.6176,50.8749],[8.6168,50.9029],[8.6702,51.011],[8.6406,51.059],[8.6384,51.1309],[8.8531,51.313],[9.002,51.5061],[9.0692,51.5126],[9.1374,51.4772],[9.2428,51.484],[9.4239,51.5748],[9.4621,51.629],[9.5007,51.6292],[9.5878,51.5936],[9.6076,51.5277],[9.5897,51.5148],[9.6273,51.4739],[9.6284,51.4376],[9.7334,51.3904],[9.7911,51.3844],[9.8582,51.3428],[9.9827,51.3787],[10.0212,51.4086],[10.1076,51.4206],[10.204,51.5103],[10.2904,51.5101],[10.3484,51.5399],[10.4062,51.5397],[10.4634,51.4916],[10.463,51.4497],[10.3188,51.3125],[10.4127,51.1922],[10.4121,51.1323],[10.3443,50.9828],[10.1354,50.9831],[10.0685,50.9174],[10.0115,50.9111],[9.974,50.8574],[9.9891,50.8302],[10.1158,50.8395],[10.2767,50.8152],[10.352,50.7431],[10.3516,50.6773],[10.4075,50.6052],[10.4438,50.4553],[10.3405,50.4495],[10.3026,50.4138],[10.049,50.3123],[10.0021,50.2822],[9.9089,50.1565],[9.8436,50.1265],[9.7507,50.1144],[9.7133,50.0783],[9.676,50.0782],[9.6671,50.0991],[9.6762,50.0603],[9.5843,49.9884],[9.5934,49.9402],[9.5754,49.9275],[9.6034,49.8563],[9.5783,49.8271],[9.6408,49.8205],[9.6411,49.7786],[9.5866,49.7664],[9.5859,49.7365],[9.53,49.7416],[9.4228,49.5915],[9.5418,49.5446],[9.7352,49.5033],[9.8635,49.4916],[9.8826,49.5095],[10.0022,49.5336],[10.0576,49.5755],[10.1591,49.5875],[10.2797,49.7072],[10.3265,49.8086],[10.318,49.9105],[10.4299,50.0058],[10.4217,50.0839],[10.4589,50.0838],[10.4774,50.0658],[10.4767,50.0006],[10.495,49.9879],[10.7184,49.9866],[10.8107,49.9382],[10.8386,49.9447],[10.8494,50.0276],[10.8958,50.0213],[10.8852,49.9191],[11.0217,49.8165],[11.0667,49.7502],[11.1947,49.695],[11.1941,49.671],[11.1387,49.6716],[11.0379,49.7085],[11.0111,49.7568],[10.8744,49.8717],[10.8192,49.9021],[10.7267,49.9207],[10.6809,49.9568],[10.448,49.9577],[10.3645,49.8924],[10.3539,49.7487],[10.3164,49.6709],[10.2346,49.5882],[10.4535,49.5207],[10.433,49.2812],[10.3314,49.1198],[10.3493,49.0836],[10.4397,49.0175],[10.4303,48.9876],[10.3939,48.9878],[10.2852,49.0899],[10.3041,49.1797],[10.3968,49.3353],[10.4064,49.497],[10.1864,49.5574],[10.0946,49.5455],[10.0483,49.5036],[9.9382,49.4797],[9.9103,49.4557],[9.7911,49.4612],[9.7726,49.4135],[9.6359,49.2754],[9.4451,49.1368],[9.3724,49.1121],[9.3192,49.0102],[9.325,48.9924],[9.4013,48.9928],[9.4564,48.9511],[9.4481,48.8852],[9.3671,48.8367],[9.3245,48.7404],[9.4409,48.7055],[9.4863,48.7176],[9.6402,48.7123],[9.7128,48.6945],[9.722,48.6646],[9.5144,48.6099],[9.3618,48.5492],[9.2368,48.4645],[9.1472,48.4519],[9.1115,48.4216],[9.0046,48.3968],[8.9954,48.3787],[8.7983,48.3467],[8.6027,48.2844],[8.4471,48.1028],[8.4332,47.9705],[8.2303,47.6677],[8.215,47.667],[8.196,47.6372],[8.0125,47.574],[7.9154,47.5721],[7.7794,47.6472],[7.7,47.6396],[7.657,47.6144],[7.6578,47.6003],[7.6755,47.5911],[7.6698,47.5251],[7.6477,47.5246],[7.5991,47.5421],[7.5852,47.5594],[7.5654,47.5706],[7.5632,47.5973],[7.5312,47.6359],[7.4973,47.6609],[7.4872,47.7111],[7.4953,47.7281],[7.5131,47.7431],[7.5014,47.788],[7.521,47.8415],[7.5362,47.8565],[7.5358,47.8919],[7.5552,47.9156],[7.5639,47.9539],[7.5954,47.9795],[7.5943,47.9931],[7.5508,48.0518],[7.5482,48.1003],[7.5649,48.1437],[7.5807,48.1614],[7.5928,48.1934],[7.6657,48.2668],[7.6712,48.263],[7.7137,48.2872],[7.7496,48.288],[7.7691,48.2649],[7.8032,48.2835],[7.7929,48.3187],[7.7381,48.3417],[7.728,48.3654],[7.7526,48.414],[7.7416,48.4608],[7.7343,48.4643],[7.7448,48.4772],[7.7559,48.5125],[7.7813,48.5315],[7.7769,48.5845],[7.7878,48.6261],[7.8379,48.679],[7.8719,48.6915],[7.9385,48.7365],[7.9413,48.7568],[7.9555,48.7775],[8.0023,48.7852],[8.0258,48.8122],[8.0745,48.8273],[8.0911,48.852],[8.2671,48.8728],[8.2602,48.8398],[8.2764,48.8669],[8.3123,48.8795],[8.4284,48.8755],[8.416,48.9259],[8.3664,48.8923],[8.1493,48.8649],[8.1388,48.9006],[8.2073,48.9687],[8.1811,48.9851],[8.1264,48.9843],[7.979,49.0236],[7.9702,49.0535],[7.6402,49.0528],[7.6022,49.082],[7.5287,49.0923],[7.4977,49.1575],[7.4324,49.18],[7.396,49.1791],[7.3078,49.1231],[7.1337,49.1307],[7.1224,49.1664],[7.1842,49.1979],[7.1916,49.2275],[7.1062,49.2853],[7.0097,49.2113],[6.8634,49.2189],[6.8484,49.1589],[6.7198,49.1671],[6.7255,49.209],[6.6977,49.2204],[6.6663,49.2735],[6.5999,49.3074],[6.5954,49.3668],[6.5479,49.3897],[6.5347,49.4559],[6.3764,49.4682],[6.3764,49.5882]],[[9.6876,50.5042],[9.6922,50.508],[9.6898,50.5096],[9.6876,50.5042]],[[9.6541,50.2924],[9.6497,50.2933],[9.6507,50.2906],[9.6541,50.2924]],[[9.6189,50.2202],[9.6101,50.2104],[9.6167,50.2027],[9.619,50.2045],[9.6189,50.2202]],[[9.5133,50.3647],[9.5098,50.3592],[9.5144,50.3604],[9.5133,50.3647]],[[9.318,50.3522],[9.3815,50.3585],[9.3068,50.3561],[9.318,50.3522]],[[9.0045,50.4053],[9.0401,50.4041],[9.0421,50.4061],[9.0047,50.4158],[9.0045,50.4053]],[[8.9908,50.3639],[8.9983,50.3601],[8.998,50.3712],[8.9952,50.3711],[8.9908,50.3639]],[[8.7506,49.1421],[8.7416,49.1426],[8.7496,49.1279],[8.7506,49.1421]],[[8.6867,49.1423],[8.7381,49.1429],[8.74,49.1451],[8.7136,49.1545],[8.6697,49.1482],[8.6701,49.1175],[8.6867,49.1423]],[[8.5871,49.0811],[8.6075,49.1034],[8.6073,49.1062],[8.5873,49.1049],[8.5718,49.0832],[8.5871,49.0811]],[[8.0553,49.2055],[8.0641,49.1694],[8.0718,49.1691],[8.0652,49.2075],[8.0553,49.2055]],[[6.6486,49.4947],[6.6783,49.4897],[6.6846,49.4937],[6.6827,49.4958],[6.6486,49.4947]]]}},{"type":"Feature","properties":{"region":"Sued","name":"Süd","areas":["54","55","56","57","58","62","63","64","71","72","73","74","75","76","81","82","83","84"]},"geometry":{"type":"Polygon","coordinates":[[[8.1853,47.6849],[8.2206,47.6979],[8.4143,47.9937],[8.4196,48.1141],[8.5575,48.2898],[8.789,48.3646],[8.9668,48.3929],[8.9678,48.4084],[9.0752,48.4333],[9.1196,48.4696],[9.2007,48.4763],[9.3255,48.561],[9.6635,48.6756],[9.6041,48.7001],[9.4051,48.6932],[9.3052,48.7166],[9.3217,48.8245],[9.3485,48.8607],[9.4203,48.8969],[9.429,48.9319],[9.365,48.9805],[9.3012,48.9862],[9.3005,49.0341],[9.3538,49.1363],[9.4086,49.1487],[9.6173,49.2993],[9.7539,49.4372],[9.7704,49.486],[9.7354,49.4853],[9.5049,49.5324],[9.3938,49.5738],[9.3934,49.6038],[9.4932,49.754],[9.5479,49.7602],[9.5577,49.7843],[9.6025,49.7952],[9.5576,49.8022],[9.5753,49.8801],[9.5561,49.952],[9.5648,50.0119],[9.6202,50.042],[9.6387,50.0781],[9.6288,50.1441],[9.5817,50.2037],[9.5905,50.2577],[9.6256,50.2879],[9.4772,50.347],[9.2805,50.34],[9.0267,50.3857],[9.0192,50.3734],[9.0646,50.3563],[9.1124,50.3088],[9.113,50.2788],[9.0662,50.2785],[9.009,50.3318],[8.9617,50.3434],[8.9877,50.4395],[9.0253,50.4399],[9.0636,50.4162],[9.308,50.3701],[9.4678,50.3712],[9.57,50.4553],[9.6633,50.5035],[9.6724,50.5874],[9.7471,50.6954],[9.8983,50.7439],[9.9637,50.8271],[9.9357,50.8754],[9.9736,50.8876],[9.9926,50.9354],[10.0401,50.9354],[10.0319,50.8518],[10.1727,50.8574],[10.3146,50.8151],[10.3242,50.7852],[10.3616,50.7731],[10.3803,50.7431],[10.3706,50.6892],[10.4265,50.6231],[10.4355,50.5512],[10.5568,50.4788],[10.5381,50.3824],[10.5837,50.3588],[10.7988,50.3395],[10.9475,50.2786],[11.0508,50.2896],[11.0534,50.2831],[11.2739,50.2394],[11.3169,50.2414],[11.2848,50.2872],[11.2863,50.3411],[11.3827,50.4357],[11.3853,50.519],[11.3577,50.538],[11.3587,50.5739],[11.4153,50.5911],[11.425,50.6134],[11.379,50.6216],[11.3334,50.6761],[11.3346,50.718],[11.9462,50.6553],[12.104,50.5987],[12.161,50.6035],[12.1665,50.5195],[12.1463,50.4899],[12.0701,50.4613],[12.0603,50.4383],[12.1803,50.4113],[12.2521,50.344],[12.2393,50.2723],[12.2019,50.2731],[12.2021,50.2976],[12.1667,50.3216],[12.131,50.3224],[12.1267,50.2685],[12.1009,50.2561],[12.1945,50.1984],[12.2039,50.1176],[12.2536,50.0945],[12.2688,50.064],[12.3215,50.0456],[12.3222,50.0306],[12.4861,49.9855],[12.4759,49.9497],[12.5373,49.9279],[12.5451,49.9184],[12.5165,49.8589],[12.4606,49.8477],[12.4568,49.7823],[12.3841,49.7587],[12.4706,49.6983],[12.4927,49.6976],[12.5145,49.6872],[12.529,49.665],[12.5236,49.6371],[12.5595,49.6171],[12.5919,49.5459],[12.637,49.5265],[12.6601,49.4422],[12.7423,49.4125],[12.7749,49.3614],[12.8287,49.3419],[12.8226,49.3101],[12.8841,49.3465],[12.9574,49.3446],[13.0132,49.316],[13.0363,49.2761],[13.1661,49.1735],[13.1831,49.1498],[13.1834,49.1399],[13.2088,49.1217],[13.2725,49.1198],[13.2803,49.0957],[13.3247,49.0823],[13.3325,49.0579],[13.3851,49.0325],[13.3916,48.9963],[13.3678,48.9786],[13.4532,48.9644],[13.4963,48.9272],[13.5321,48.932],[13.5345,48.9558],[13.6159,48.9472],[13.6834,48.8792],[13.747,48.8768],[13.8078,48.8059],[13.821,48.7783],[13.8162,48.7235],[13.8205,48.7206],[13.82,48.6523],[13.7953,48.5692],[13.7492,48.5528],[13.7375,48.5232],[13.6659,48.5316],[13.5815,48.5752],[13.5785,48.5705],[13.5165,48.5901],[13.4875,48.5615],[13.4416,48.5503],[13.4108,48.372],[13.2798,48.2981],[13.1988,48.3004],[13.026,48.2576],[12.969,48.2111],[12.888,48.2072],[12.7667,48.1205],[12.7643,48.0707],[12.7988,48.0597],[12.993,47.8747],[12.9801,47.8091],[12.9332,47.7684],[12.9141,47.7269],[12.9648,47.7079],[12.9935,47.7368],[13.0289,47.7358],[13.0949,47.6559],[13.093,47.626],[13.0455,47.5732],[13.0307,47.4779],[12.9252,47.4868],[12.8407,47.5489],[12.7963,47.5502],[12.7902,47.5984],[12.8078,47.6167],[12.7413,47.6774],[12.6176,47.6747],[12.5799,47.6396],[12.4908,47.6297],[12.4232,47.697],[12.2543,47.6889],[12.237,47.7185],[12.1929,47.696],[12.198,47.6181],[12.1706,47.6007],[11.9325,47.6173],[11.8515,47.5887],[11.6482,47.592],[11.5943,47.5629],[11.5837,47.5151],[11.4425,47.511],[11.3876,47.4519],[11.3166,47.4347],[11.2891,47.3992],[11.2363,47.3999],[11.2184,47.4355],[11.0952,47.3954],[11.0159,47.3962],[11.0154,47.4203],[10.9637,47.4326],[10.92,47.451],[10.9119,47.493],[11.0443,47.4978],[11.0966,47.538],[11.0198,47.5879],[11.0017,47.6476],[10.8612,47.6252],[10.754,47.5601],[10.6943,47.5686],[10.6129,47.567],[10.5504,47.5374],[10.4886,47.5376],[10.4452,47.5549],[10.4356,47.5144],[10.4703,47.483],[10.4698,47.4239],[10.3368,47.3046],[10.2486,47.2689],[10.1608,47.269],[10.1609,47.305],[10.1874,47.3115],[10.2042,47.3764],[10.1708,47.3827],[10.1611,47.3649],[10.073,47.359],[10.0729,47.4429],[10.0204,47.4846],[9.9849,47.4848],[9.9495,47.5207],[9.9495,47.5447],[9.9672,47.5602],[9.8079,47.5805],[9.8061,47.5916],[9.6664,47.5801],[9.605,47.6056],[9.6044,47.5919],[9.5425,47.5916],[9.4709,47.6571],[9.3203,47.6683],[9.2757,47.686],[9.2125,47.7455],[9.0695,47.8042],[9.072,47.8336],[9.0066,47.8515],[8.8284,47.8557],[8.8253,47.8725],[8.7666,47.8486],[8.7687,47.7532],[8.7156,47.7466],[8.643,47.7995],[8.5454,47.7983],[8.5255,47.8331],[8.2396,47.6559],[8.1865,47.655],[8.1853,47.6849]],[[13.5156,48.7163],[13.3979,48.6933],[13.5198,48.7115],[13.5156,48.7163]],[[13.098,48.8299],[13.0892,48.8183],[13.1036,48.8205],[13.098,48.8299]],[[12.9701,48.6667],[13.0886,48.6522],[12.9271,48.6809],[12.9701,48.6667]],[[12.7941,47.832],[12.7156,47.8281],[12.7989,47.8279],[12.7941,47.832]],[[12.683,49.2132],[12.739,49.23],[12.7447,49.2481],[12.7418,49.2489],[12.683,49.2132]],[[12.4911,49.2225],[12.4924,49.193],[12.528,49.2113],[12.6644,49.2021],[12.6721,49.2061],[12.4911,49.2225]],[[12.553,48.821],[12.4935,48.8242],[12.4914,48.8223],[12.5805,48.8098],[12.553,48.821]],[[12.5185,48.6653],[12.52,48.6744],[12.5118,48.6731],[12.5115,48.6703],[12.5185,48.6653]],[[12.4648,47.7854],[12.4802,47.782],[12.4811,47.7847],[12.4648,47.7854]],[[12.4615,49.1769],[12.4655,49.1827],[12.4434,49.1814],[12.4615,49.1769]],[[12.3719,47.8062],[12.3667,47.8123],[12.3473,47.809],[12.3491,47.8067],[12.3719,47.8062]],[[12.2642,49.3446],[12.2773,49.3307],[12.2999,49.3209],[12.2992,49.3236],[12.2642,49.3446]],[[12.2172,49.9014],[12.2216,49.9045],[12.2191,49.9059],[12.2172,49.9014]],[[12.1835,49.6969],[12.1741,49.7104],[12.1713,49.7107],[12.1734,49.6847],[12.1835,49.6969]],[[12.1578,48.9128],[12.1465,48.9164],[12.1442,48.9148],[12.158,48.9063],[12.1578,48.9128]],[[12.1399,49.1138],[12.1469,49.1114],[12.1483,49.1292],[12.1455,49.1284],[12.1399,49.1138]],[[11.8355,49.5305],[11.8422,49.4647],[11.878,49.4401],[12.0969,49.4428],[12.0809,49.4543],[12.0844,49.5322],[12.0982,49.5459],[12.0301,49.5571],[11.9465,49.5407],[11.7809,49.5374],[11.7622,49.5286],[11.8355,49.5305]],[[12.0416,49.8328],[12.0834,49.8371],[12.0852,49.8393],[12.0326,49.8392],[12.0416,49.8328]],[[12.0756,48.943],[12.0811,48.9392],[12.078,48.9444],[12.0756,48.943]],[[11.997,49.0016],[12.0391,49.008],[11.9695,49.0487],[11.997,49.0016]],[[11.9393,47.7789],[11.9241,47.7601],[12.0147,47.7711],[12.0006,47.7778],[11.9393,47.7789]],[[11.8925,49.8769],[11.9091,49.834],[11.9043,49.865],[11.9465,49.8659],[11.8925,49.8769]],[[11.8411,49.3789],[11.9258,49.1242],[11.857,49.3677],[11.8411,49.3789]],[[11.9125,48.8945],[11.9105,48.8777],[11.9124,48.8757],[11.9196,48.882],[11.9202,48.8939],[11.9125,48.8945]],[[11.9089,47.7586],[11.8586,47.7683],[11.8372,47.7535],[11.8394,47.7517],[11.9089,47.7586]],[[11.7673,48.9384],[11.8033,48.9258],[11.8631,48.9348],[11.8612,48.9369],[11.7673,48.9384]],[[11.6937,49.5028],[11.7344,49.4716],[11.751,49.5231],[11.7486,49.5243],[11.6937,49.5028]],[[11.6949,48.9515],[11.6859,48.9565],[11.6811,48.9331],[11.6839,48.9335],[11.6949,48.9515]],[[11.6647,48.9041],[11.6707,48.9157],[11.6127,48.9168],[11.6082,48.9117],[11.6647,48.9041]],[[11.605,50.0689],[11.6108,50.0675],[11.608,50.0775],[11.6054,50.0763],[11.605,50.0689]],[[11.5637,48.8516],[11.5918,48.8692],[11.5918,48.8888],[11.5645,48.8576],[11.5521,48.8542],[11.5637,48.8516]],[[11.4468,49.1728],[11.465,49.1705],[11.4733,49.1284],[11.5168,49.1045],[11.5539,49.1438],[11.4922,49.1642],[11.4833,49.188],[11.4564,49.1886],[11.4597,49.2957],[11.4528,49.3023],[11.4468,49.1728]],[[11.4997,48.6527],[11.5033,48.6487],[11.5145,48.6542],[11.5124,48.6559],[11.4997,48.6527]],[[11.4221,49.5114],[11.4221,49.5009],[11.504,49.5035],[11.4294,49.5065],[11.4221,49.5114]],[[11.3576,48.8484],[11.4726,48.8349],[11.4908,48.8446],[11.4888,48.8467],[11.3576,48.8484]],[[11.3196,48.8606],[11.3029,48.8488],[11.3455,48.8472],[11.3196,48.8606]],[[11.3119,48.5734],[11.3047,48.5654],[11.3369,48.5742],[11.3348,48.5761],[11.3119,48.5734]],[[11.3259,49.4504],[11.3193,49.4461],[11.3257,49.4426],[11.3259,49.4504]],[[11.2728,48.8404],[11.2194,48.8498],[11.1911,48.8174],[11.1936,48.816],[11.2728,48.8404]],[[11.1422,48.4812],[11.147,48.4684],[11.1613,48.4804],[11.1594,48.4824],[11.1422,48.4812]],[[10.9566,48.7546],[10.9813,48.7506],[11.1407,48.8016],[11.0908,48.7974],[10.9566,48.7546]],[[11.0686,48.5866],[11.0459,48.5847],[11.0442,48.5824],[11.0683,48.5813],[11.0686,48.5866]],[[10.9568,48.451],[10.9483,48.4477],[10.9583,48.4481],[10.9568,48.451]],[[10.8174,48.7522],[10.9174,48.751],[10.9194,48.7529],[10.7942,48.7732],[10.8174,48.7522]],[[10.9191,48.563],[10.9148,48.5632],[10.9176,48.5606],[10.9191,48.563]],[[10.8777,50.0456],[10.8648,50.0885],[10.8749,50.0362],[10.8777,50.0456]],[[10.8559,49.9119],[10.857,49.9197],[10.8274,49.9201],[10.8559,49.9119]],[[10.7482,48.7985],[10.748,48.7931],[10.7519,48.7952],[10.7482,48.7985]],[[10.6014,49.9733],[10.4495,49.982],[10.4388,49.9727],[10.4409,49.9707],[10.6014,49.9733]],[[10.4793,48.5092],[10.548,48.5151],[10.4772,48.5112],[10.4793,48.5092]],[[9.6743,50.3178],[9.6747,50.2579],[9.6379,50.2339],[9.6378,50.1987],[9.6754,50.1681],[9.6957,50.104],[9.7316,50.1383],[9.8249,50.1445],[9.8899,50.1804],[10.0116,50.3243],[10.2649,50.4258],[10.3029,50.4617],[10.4143,50.4792],[10.3884,50.5813],[10.323,50.6594],[10.3325,50.7195],[10.2386,50.8033],[10.078,50.8275],[10.0304,50.8213],[9.9738,50.7736],[9.9549,50.7257],[9.785,50.6594],[9.7197,50.5637],[9.7107,50.4797],[9.5451,50.3784],[9.6743,50.3178]],[[10.3372,49.8872],[10.3382,49.8648],[10.3404,49.863],[10.3438,49.8892],[10.3372,49.8872]],[[10.1559,49.5734],[10.2033,49.5693],[10.2051,49.5791],[10.2028,49.5809],[10.1559,49.5734]],[[9.7511,48.2992],[9.7111,48.2812],[9.7869,48.2753],[9.8296,48.2912],[9.805,48.2933],[9.778,48.3113],[9.7761,48.3194],[9.76,48.3169],[9.7511,48.2992]],[[9.7967,49.4879],[9.8019,49.4902],[9.7969,49.4908],[9.7967,49.4879]],[[9.1641,48.0691],[9.1893,48.0688],[9.2033,48.0822],[9.2009,48.0835],[9.1641,48.0691]],[[9.1014,48.0204],[9.0926,48.0044],[9.0937,48.0017],[9.1161,48.0289],[9.1014,48.0204]]]}}]}