{"type": "FeatureCollection", "name": "GAFOR-Gebiete Deutschland", "source": "digitalisiert aus der DFS-Karte \"GAFOR-Gebiete / GAFOR Areas\", 11 FEB 2021", "note": "Naeherung, nicht fuer navigatorische Zwecke.", "features": [{"type": "Feature", "properties": {"id": "00", "name": "Deutsche Bucht", "region": "Nord", "refAltFt": 0, "center": [54.5008, 7.1018]}, "geometry": {"type": "Polygon", "coordinates": [[[7.9897, 54.9987], [7.9961, 54.004], [6.5091, 54.0006], [6.4983, 54.9959], [7.9897, 54.9987]], [[7.1045, 54.5317], [7.1585, 54.497], [7.2182, 54.5283], [7.2594, 54.5293], [7.3231, 54.5007], [7.3624, 54.5315], [7.3598, 54.5734], [7.3166, 54.6025], [7.2563, 54.5772], [7.2047, 54.576], [7.1516, 54.5988], [7.1025, 54.5617], [7.1045, 54.5317]]]}}, {"type": "Feature", "properties": {"id": "01", "name": "Ostfriesland", "region": "Nord", "refAltFt": 200, "center": [53.6264, 7.8875]}, "geometry": {"type": "Polygon", "coordinates": [[[8.0269, 53.9985], [8.6308, 53.8989], [8.7017, 53.9057], [8.7946, 53.8527], [8.8054, 53.8289], [9.0283, 53.8368], [9.0498, 53.7831], [9.1221, 53.7117], [9.1234, 53.6518], [9.0838, 53.6156], [9.0847, 53.5737], [9.0457, 53.5135], [9.047, 53.4536], [9.0075, 53.4233], [8.9476, 53.4108], [8.7567, 53.415], [8.2164, 53.3662], [8.1658, 53.3775], [7.9151, 53.3734], [7.8118, 53.4315], [7.3479, 53.4582], [7.2031, 53.365], [7.205, 53.335], [7.1657, 53.3221], [6.9956, 53.318], [6.8969, 53.4354], [6.6797, 53.5136], [6.6339, 53.5843], [6.5067, 53.6587], [6.4994, 53.9943], [8.0269, 53.9985]]]}}, {"type": "Feature", "properties": {"id": "02", "name": "Nordfriesland-Dithmarschen", "region": "Nord", "refAltFt": 100, "center": [54.4488, 8.5956]}, "geometry": {"type": "Polygon", "coordinates": [[[8.0522, 54.9997], [8.0722, 55.018], [8.2998, 55.0632], [8.4042, 55.0646], [8.4375, 55.0111], [8.3548, 54.9921], [8.3069, 54.8896], [8.3799, 54.8845], [8.412, 54.861], [8.494, 54.8919], [8.6189, 54.8874], [8.7703, 54.6913], [8.833, 54.6679], [8.8449, 54.6141], [8.9493, 54.5671], [8.9793, 54.6093], [9.0206, 54.6096], [9.0771, 54.3884], [9.0378, 54.3102], [9.0908, 54.2327], [9.0922, 54.1668], [9.0048, 53.9744], [9.0079, 53.8427], [8.9271, 53.83], [8.7647, 53.8344], [8.6718, 53.8874], [8.5906, 53.8865], [8.028, 53.9746], [8.0272, 53.9925], [7.9964, 53.998], [8.0001, 54.9989], [8.0522, 54.9997]]]}}, {"type": "Feature", "properties": {"id": "03", "name": "Schleswig-Holsteinische Geest", "region": "Nord", "refAltFt": 200, "center": [54.1614, 9.5368]}, "geometry": {"type": "Polygon", "coordinates": [[[9.275, 54.8211], [9.3165, 54.8213], [9.401, 54.7259], [9.4654, 54.5465], [9.7762, 54.2779], [9.8994, 54.1942], [10.1139, 54.1223], [10.2361, 54.0562], [10.2658, 53.9184], [10.3062, 53.8883], [10.3359, 53.7804], [10.3251, 53.6906], [10.1931, 53.5591], [10.1528, 53.5471], [10.1225, 53.5112], [10.0621, 53.5113], [10.0319, 53.4753], [9.9615, 53.4753], [9.9112, 53.5172], [9.8206, 53.5171], [9.75, 53.547], [9.6593, 53.5527], [9.5784, 53.5824], [9.3226, 53.8209], [9.2612, 53.8565], [9.0886, 53.8613], [9.0575, 53.891], [9.0168, 53.8967], [9.0145, 53.9925], [9.0919, 54.1788], [9.091, 54.2207], [9.0599, 54.2385], [9.037, 54.3461], [9.0772, 54.3824], [9.0652, 54.4602], [9.0016, 54.5376], [9.0006, 54.5795], [8.9592, 54.5852], [8.9272, 54.6268], [8.9542, 54.7828], [8.9101, 54.8843], [9.2224, 54.8627], [9.2333, 54.8541], [9.2398, 54.8396], [9.2425, 54.8278], [9.2470, 54.8268], [9.2679, 54.8267], [9.275, 54.8211]]]}}, {"type": "Feature", "properties": {"id": "04", "name": "Schleswig-Holsteinisches H\u00fcgelland", "region": "Nord", "refAltFt": 300, "center": [54.1759, 10.6793]}, "geometry": {"type": "Polygon", "coordinates": [[[9.4721, 54.828], [9.5031, 54.8462], [9.7005, 54.8228], [9.9289, 54.8352], [10.0637, 54.7633], [10.5081, 54.6545], [11.0143, 54.6394], [11.6482, 54.4649], [11.9354, 54.4428], [11.9543, 54.4066], [10.9064, 53.9453], [10.8532, 53.8259], [10.9434, 53.7773], [10.994, 53.7769], [11.0248, 53.7946], [11.4702, 53.7841], [11.8964, 53.8022], [12.0481, 53.7938], [12.1705, 53.8097], [12.2512, 53.8022], [12.2594, 53.7661], [12.1892, 53.7794], [12.0669, 53.7635], [11.652, 53.7698], [11.4793, 53.754], [11.186, 53.7632], [10.9122, 53.7416], [10.8021, 53.8022], [10.7498, 53.7067], [10.7653, 53.443], [10.7349, 53.4252], [10.7341, 53.3773], [10.5633, 53.3602], [10.4832, 53.3726], [10.3432, 53.427], [10.2829, 53.4211], [10.2527, 53.3972], [10.1523, 53.3974], [10.0319, 53.4693], [10.0319, 53.4993], [10.1326, 53.5292], [10.3251, 53.6966], [10.326, 53.8164], [10.3061, 53.8763], [10.2758, 53.8884], [10.2761, 53.9423], [10.2457, 53.9603], [10.236, 54.0442], [10.175, 54.0863], [9.8277, 54.224], [9.5799, 54.4451], [9.5074, 54.4867], [9.4656, 54.5345], [9.4011, 54.7199], [9.3381, 54.7735], [9.3375, 54.8094], [9.3785, 54.8396], [9.4066, 54.8361], [9.4124, 54.8330], [9.4206, 54.8324], [9.4267, 54.8336], [9.4721, 54.828]]]}}, {"type": "Feature", "properties": {"id": "05", "name": "Nordwestliches Niedersachsen", "region": "Nord", "refAltFt": 200, "center": [53.3246, 8.6306]}, "geometry": {"type": "Polygon", "coordinates": [[[9.9012, 53.4933], [9.8208, 53.4692], [9.5908, 53.3428], [9.4332, 53.1325], [9.2855, 53.0179], [9.2275, 52.9217], [8.8798, 52.9309], [8.732, 52.8934], [8.6129, 52.8921], [8.5927, 52.9039], [8.4241, 52.9018], [8.3632, 52.9369], [8.1639, 52.952], [7.5104, 52.9102], [7.3701, 52.9311], [7.201, 52.9333], [7.2083, 52.9754], [7.2648, 53.0247], [7.2312, 53.0839], [7.2358, 53.1679], [7.2842, 53.193], [7.2216, 53.2335], [7.2366, 53.3118], [7.1742, 53.3463], [7.1718, 53.3822], [7.2675, 53.4564], [7.4376, 53.4721], [7.8514, 53.4442], [7.9443, 53.3919], [8.145, 53.3951], [8.2561, 53.3788], [8.2955, 53.3973], [8.9472, 53.4288], [9.0362, 53.4894], [9.0835, 53.6276], [9.1231, 53.6638], [9.1224, 53.6998], [9.0291, 53.8009], [9.028, 53.8488], [9.0683, 53.8611], [9.2916, 53.8566], [9.4151, 53.7315], [9.4864, 53.6899], [9.5275, 53.6301], [9.6996, 53.5468], [9.7701, 53.547], [9.8508, 53.5172], [9.9011, 53.5172], [9.9012, 53.4933]]]}}, {"type": "Feature", "properties": {"id": "06", "name": "L\u00fcneburger Heide", "region": "Nord", "refAltFt": 400, "center": [52.9666, 10.2057]}, "geometry": {"type": "Polygon", "coordinates": [[[9.881, 53.4992], [9.9514, 53.4993], [9.9816, 53.4753], [10.0821, 53.4573], [10.1924, 53.3913], [10.2225, 53.3913], [10.2528, 53.4212], [10.3332, 53.427], [10.3934, 53.4208], [10.5233, 53.3664], [10.754, 53.3712], [10.763, 53.3112], [10.8229, 53.2989], [10.8523, 53.2687], [11.0504, 53.1833], [11.0494, 53.1414], [11.1177, 53.0808], [11.1165, 53.0329], [11.155, 52.9846], [11.1336, 52.9249], [11.1797, 52.7927], [11.0892, 52.7336], [11.0868, 52.6378], [11.0264, 52.5844], [10.9936, 52.4409], [10.9445, 52.4413], [10.9154, 52.4595], [10.807, 52.4363], [10.6993, 52.4609], [10.6305, 52.4553], [10.5915, 52.4735], [10.4538, 52.4621], [10.2087, 52.5706], [10.1102, 52.5767], [10.0807, 52.6247], [10.0315, 52.6247], [9.8538, 52.6845], [9.8144, 52.6665], [9.6958, 52.6782], [9.5968, 52.7138], [9.5966, 52.7378], [9.5369, 52.7735], [9.4578, 52.7672], [9.3485, 52.8026], [9.2777, 52.892], [9.2277, 52.9097], [9.2754, 53.0238], [9.4035, 53.1144], [9.6006, 53.3668], [9.881, 53.4992]]]}}, {"type": "Feature", "properties": {"id": "07", "name": "Westliches Niedersachsen", "region": "Nord", "refAltFt": 300, "center": [52.5734, 8.1214]}, "geometry": {"type": "Polygon", "coordinates": [[[7.0489, 52.2461], [7.0347, 52.3117], [7.0707, 52.3606], [6.9956, 52.4546], [6.8983, 52.4401], [6.8181, 52.462], [6.7494, 52.4601], [6.7088, 52.477], [6.6936, 52.5485], [6.7414, 52.5678], [6.7258, 52.6454], [6.913, 52.6504], [7.0227, 52.6352], [7.0514, 52.6479], [7.0963, 52.8648], [7.1911, 52.933], [7.5699, 52.9114], [8.0944, 52.9509], [8.3731, 52.937], [8.4739, 52.8964], [8.6126, 52.9041], [8.6429, 52.8865], [8.7024, 52.8871], [8.8105, 52.9242], [9.2176, 52.9216], [9.2775, 52.904], [9.3684, 52.7907], [9.4777, 52.7613], [9.5665, 52.7736], [9.5966, 52.7318], [9.5877, 52.6359], [9.4609, 52.5156], [9.4619, 52.4377], [9.4034, 52.4075], [9.3849, 52.3295], [9.2575, 52.3348], [9.141, 52.28], [9.024, 52.2612], [8.8966, 52.272], [8.8856, 52.3198], [8.7859, 52.3847], [8.5502, 52.3941], [8.2183, 52.3536], [8.118, 52.4059], [8.0303, 52.3925], [7.833, 52.413], [7.6225, 52.3131], [7.6052, 52.2708], [7.53, 52.2153], [7.0432, 52.186], [6.9643, 52.196], [6.9709, 52.2365], [6.9767, 52.2388], [7.0489, 52.2461]]]}}, {"type": "Feature", "properties": {"id": "08", "name": "Hannover und Braunschweig", "region": "Nord", "refAltFt": 600, "center": [52.469, 9.9861]}, "geometry": {"type": "Polygon", "coordinates": [[[9.2971, 52.9161], [9.3176, 52.8743], [9.4278, 52.791], [9.5664, 52.7916], [9.6461, 52.72], [9.7847, 52.6844], [9.8735, 52.7025], [9.9327, 52.6906], [10.0315, 52.6486], [10.1202, 52.6366], [10.1497, 52.5887], [10.2481, 52.5825], [10.4932, 52.4739], [10.6212, 52.4913], [10.7384, 52.4487], [10.8364, 52.4361], [10.7658, 52.3287], [10.597, 52.156], [10.4891, 52.0965], [10.4007, 52.019], [10.2452, 52.0434], [10.1286, 52.0975], [9.9825, 52.0975], [9.8946, 52.1574], [9.8556, 52.1573], [9.8164, 52.1872], [9.6893, 52.2169], [9.5519, 52.2764], [9.5128, 52.2762], [9.3947, 52.3296], [9.4033, 52.4135], [9.4617, 52.4557], [9.441, 52.5395], [9.5677, 52.6598], [9.5771, 52.7078], [9.5371, 52.7555], [9.4382, 52.7491], [9.319, 52.7844], [9.2475, 52.9158], [9.2971, 52.9161]]]}}, {"type": "Feature", "properties": {"id": "09", "name": "Teutoburger Wald", "region": "Nord", "refAltFt": 700, "center": [52.1897, 8.3349]}, "geometry": {"type": "Polygon", "coordinates": [[[7.8134, 52.4127], [8.0401, 52.3927], [8.1376, 52.4062], [8.2577, 52.3481], [8.3837, 52.3859], [8.7169, 52.396], [8.7566, 52.3784], [8.8253, 52.3792], [8.8752, 52.3437], [8.9169, 52.2422], [8.8583, 52.2417], [8.82, 52.2113], [8.7615, 52.2047], [8.7434, 52.1566], [8.6765, 52.108], [8.7458, 52.0728], [8.7967, 51.9894], [8.9348, 51.9069], [8.9355, 51.8769], [8.8871, 51.8765], [8.8279, 51.9119], [8.4854, 51.9978], [8.3072, 52.0792], [8.2194, 52.0839], [8.1794, 52.1073], [7.9757, 52.0859], [7.9159, 52.1149], [7.8182, 52.1191], [7.6878, 52.1885], [7.6758, 52.2302], [7.6153, 52.265], [7.631, 52.3372], [7.8134, 52.4127]]]}}, {"type": "Feature", "properties": {"id": "10", "name": "Weser-Leine-Bergland", "region": "Nord", "refAltFt": 1400, "center": [51.8293, 9.6259]}, "geometry": {"type": "Polygon", "coordinates": [[[8.7429, 52.1746], [8.7518, 52.2046], [8.7811, 52.205], [8.8289, 52.2414], [8.8974, 52.2421], [8.9162, 52.2722], [9.0728, 52.2675], [9.2477, 52.3347], [9.4143, 52.3297], [9.5324, 52.2703], [9.5813, 52.2705], [9.7089, 52.2169], [9.7871, 52.2051], [10.0312, 52.0915], [10.1481, 52.0974], [10.2744, 52.0373], [10.3619, 52.0251], [10.3616, 51.9951], [10.3323, 51.9773], [10.2741, 51.9834], [10.1765, 51.8877], [10.2148, 51.7679], [10.3206, 51.6838], [10.3299, 51.6478], [10.4838, 51.6053], [10.5125, 51.5812], [10.5702, 51.575], [10.5601, 51.5391], [10.5018, 51.4914], [10.4538, 51.4916], [10.3774, 51.5518], [10.3291, 51.522], [10.2329, 51.5222], [10.1172, 51.4265], [10.0404, 51.4146], [9.8966, 51.3546], [9.8104, 51.3605], [9.7815, 51.3904], [9.647, 51.42], [9.6466, 51.4679], [9.6079, 51.4918], [9.6268, 51.5398], [9.5588, 51.5994], [9.5585, 51.6294], [9.5006, 51.6351], [9.481, 51.659], [9.4143, 51.5988], [9.4147, 51.5688], [9.2811, 51.4962], [9.0888, 51.4948], [9.0111, 51.5301], [9.0007, 51.566], [8.8935, 51.6189], [8.8333, 51.7082], [8.8498, 51.8162], [8.9167, 51.8528], [8.9351, 51.8949], [8.7773, 51.9892], [8.7562, 52.0489], [8.6767, 52.102], [8.6948, 52.1501], [8.7429, 52.1746]]]}}, {"type": "Feature", "properties": {"id": "11", "name": "Mecklenburgisches Tiefland", "region": "Ost", "refAltFt": 300, "center": [54.1027, 12.268]}, "geometry": {"type": "Polygon", "coordinates": [[[13.108, 54.2932], [13.1667, 54.2557], [13.164, 54.2198], [12.7893, 53.8151], [12.482, 53.7618], [12.2395, 53.7725], [12.21, 53.791], [11.5103, 53.7716], [11.0547, 53.7764], [11.0138, 53.7587], [10.9126, 53.7595], [10.8226, 53.8141], [10.8866, 53.9694], [11.9871, 54.448], [12.0283, 54.4473], [12.0361, 54.1835], [12.1179, 54.1822], [12.1615, 54.2353], [12.3291, 54.3042], [12.38, 54.2973], [12.3985, 54.261], [12.4104, 54.2907], [12.4732, 54.3134], [12.4849, 54.3372], [12.642, 54.3879], [12.8059, 54.3783], [12.8248, 54.3539], [12.8777, 54.3767], [12.89, 54.4063], [12.9426, 54.4231], [13.0042, 54.4216], [13.0333, 54.3969], [13.094, 54.3835], [13.108, 54.2932]]]}}, {"type": "Feature", "properties": {"id": "12", "name": "Vorpommern", "region": "Ost", "refAltFt": 200, "center": [54.0213, 13.5637]}, "geometry": {"type": "Polygon", "coordinates": [[[14.3561, 53.4574], [14.1749, 53.4577], [14.0484, 53.504], [13.9066, 53.4967], [13.84, 53.5408], [13.8326, 53.571], [13.7823, 53.5726], [13.6661, 53.6301], [13.3299, 53.7237], [13.1898, 53.7454], [13.1313, 53.7769], [13.0403, 53.7792], [12.9209, 53.8121], [12.7998, 53.8209], [12.8014, 53.8448], [13.1988, 54.2729], [13.3157, 54.5876], [13.3775, 54.586], [13.3725, 54.6521], [13.4153, 54.6689], [13.3744, 54.676], [13.3768, 54.7059], [13.4977, 54.9125], [14.0187, 54.9149], [14.0193, 54.057], [13.9475, 54.0533], [13.9228, 54.0061], [13.8296, 53.991], [13.9162, 53.9343], [13.9134, 53.9044], [13.8275, 53.8531], [14.0418, 53.7562], [14.172, 53.7399], [14.2147, 53.7624], [14.2652, 53.7606], [14.2848, 53.6519], [14.3203, 53.6027], [14.306, 53.5612], [14.3215, 53.5430], [14.3218, 53.5338], [14.3257, 53.5227], [14.3484, 53.5011], [14.3595, 53.4800], [14.3640, 53.4754], [14.3561, 53.4574]]]}}, {"type": "Feature", "properties": {"id": "13", "name": "Westliche Mecklenburgische Seenplatte und Prignitz", "region": "Ost", "refAltFt": 400, "center": [53.2812, 11.7746]}, "geometry": {"type": "Polygon", "coordinates": [[[10.8428, 53.814], [10.9227, 53.7595], [10.9936, 53.7589], [11.0345, 53.7765], [12.027, 53.7762], [12.2303, 53.7906], [12.2781, 53.7358], [12.2516, 53.6164], [12.278, 53.544], [12.2463, 53.3228], [12.3452, 53.297], [12.4322, 53.2413], [12.4874, 53.1563], [12.5644, 53.1067], [12.5399, 53.0293], [12.4984, 53.0002], [12.5152, 52.9459], [12.4513, 52.8693], [12.3336, 52.8956], [12.2438, 52.8854], [12.1053, 52.8939], [11.92, 52.9689], [11.8504, 52.97], [11.8316, 52.9942], [11.6818, 52.9784], [11.6628, 53.0027], [11.623, 53.0032], [11.6144, 53.0393], [11.4952, 53.0468], [11.4464, 53.0774], [11.3164, 53.0609], [11.219, 53.1398], [11.1691, 53.1403], [11.1397, 53.1585], [11.1192, 53.1407], [11.0494, 53.1414], [10.9905, 53.1838], [10.8121, 53.257], [10.7826, 53.2872], [10.7327, 53.2935], [10.7241, 53.3834], [10.7656, 53.461], [10.7604, 53.7366], [10.7922, 53.8143], [10.8428, 53.814]]]}}, {"type": "Feature", "properties": {"id": "14", "name": "\u00d6stliche Mecklenburgische Seenplatte und Uckermark", "region": "Ost", "refAltFt": 400, "center": [52.7106, 12.2698]}, "geometry": {"type": "Polygon", "coordinates": [[[14.4343, 53.2385], [14.3689, 53.1868], [14.3687, 53.0848], [14.3446, 53.0437], [14.1362, 52.949], [14.1486, 52.8706], [13.9782, 52.8524], [13.8599, 52.8622], [13.3917, 52.8404], [13.2882, 52.7833], [13.1602, 52.7928], [13.0106, 52.7787], [12.9723, 52.7976], [12.8429, 52.7888], [12.8045, 52.8076], [12.6062, 52.8061], [12.479, 52.8328], [12.3971, 52.7865], [12.353, 52.5177], [12.1699, 52.3953], [12.137, 52.324], [12.282, 52.2853], [12.4978, 52.2929], [12.6033, 52.2547], [12.6681, 52.1933], [12.7754, 52.1908], [12.8305, 52.1356], [12.8286, 52.1057], [12.799, 52.1004], [12.8271, 52.0817], [12.824, 52.0338], [12.8035, 52.0163], [12.7063, 52.0186], [12.6876, 52.031], [12.693, 52.1208], [12.7627, 52.1432], [12.7345, 52.1618], [12.6175, 52.1645], [12.5338, 52.2382], [12.457, 52.2638], [12.2414, 52.2561], [12.1057, 52.2826], [12.0735, 52.2232], [12.0983, 52.1269], [12.3165, 52.0089], [12.4754, 51.8918], [12.6976, 51.8749], [12.9451, 51.803], [13.0422, 51.8065], [13.0305, 51.7769], [12.9045, 51.7741], [12.6571, 51.8459], [12.4341, 51.8447], [12.3231, 51.9489], [12.1716, 52.0297], [12.0247, 52.0083], [12.0357, 52.0381], [12.1147, 52.0607], [12.0485, 52.1038], [12.0242, 52.2121], [12.0378, 52.2957], [11.8127, 52.2994], [11.7214, 52.2169], [11.5359, 52.2194], [11.3713, 52.2694], [11.286, 52.3662], [11.2186, 52.4088], [11.1108, 52.4159], [11.072, 52.4342], [10.9343, 52.4234], [10.9151, 52.4415], [10.8855, 52.4357], [10.6164, 52.1439], [10.5673, 52.1202], [10.5186, 52.1204], [10.5189, 52.1503], [10.5778, 52.18], [10.7967, 52.4124], [10.6599, 52.4492], [10.6602, 52.4731], [10.7193, 52.4788], [10.8171, 52.4542], [10.9846, 52.4769], [10.9864, 52.5608], [11.0575, 52.65], [11.07, 52.7577], [11.1505, 52.8109], [11.1327, 52.889], [11.1034, 52.9072], [11.1251, 52.9789], [11.0863, 53.0212], [11.0972, 53.0571], [11.0289, 53.1176], [11.0202, 53.1716], [11.0898, 53.159], [11.1102, 53.1768], [11.1801, 53.1761], [11.2094, 53.1519], [11.2592, 53.1513], [11.3468, 53.0785], [11.4867, 53.0889], [11.5157, 53.0645], [11.6547, 53.0507], [11.6538, 53.0268], [11.7125, 53.002], [11.8718, 53.0056], [11.891, 52.9873], [11.9603, 52.9802], [12.1455, 52.9051], [12.3739, 52.9068], [12.4328, 52.8937], [12.4861, 52.9585], [12.4799, 53.0246], [12.5334, 53.0894], [12.4661, 53.1328], [12.4109, 53.2178], [12.3045, 53.2858], [12.2154, 53.3054], [12.2491, 53.5685], [12.2333, 53.6527], [12.2566, 53.7122], [12.2275, 53.7367], [12.23, 53.7846], [12.4422, 53.7746], [12.4938, 53.7915], [12.5849, 53.7897], [12.7495, 53.828], [12.7928, 53.869], [12.8334, 53.8681], [12.8512, 53.8317], [12.9623, 53.8231], [13.0816, 53.7902], [13.1727, 53.7878], [13.2311, 53.7563], [13.3713, 53.7346], [13.7075, 53.6409], [13.8141, 53.5896], [13.8353, 53.6009], [13.9355, 53.5917], [13.9327, 53.5618], [13.8702, 53.5398], [13.9267, 53.496], [14.0484, 53.504], [14.195, 53.457], [14.3755, 53.4507], [14.4343, 53.2385]], [[11.1087, 53.1169], [11.1847, 52.9783], [11.1635, 52.9306], [11.2092, 52.7864], [11.119, 52.7393], [11.1165, 52.6435], [11.0459, 52.5782], [11.0435, 52.4764], [11.1023, 52.4699], [11.1703, 52.4393], [11.2781, 52.4322], [11.4307, 52.2926], [11.6051, 52.2425], [11.654, 52.2418], [11.714, 52.2769], [11.7452, 52.3244], [12.0587, 52.3254], [12.122, 52.4201], [12.3051, 52.5426], [12.3123, 52.6803], [12.3432, 52.7037], [12.3145, 52.7222], [12.3167, 52.7641], [12.347, 52.7755], [12.3697, 52.829], [12.4103, 52.8462], [12.3327, 52.8777], [12.1143, 52.8757], [12.0554, 52.8887], [11.8606, 52.9758], [11.6712, 52.9606], [11.6325, 52.9911], [11.6027, 52.9915], [11.5839, 53.0217], [11.4946, 53.0288], [11.4359, 53.0595], [11.3256, 53.0368], [11.2472, 53.0796], [11.2185, 53.1218], [11.139, 53.1346], [11.1087, 53.1169]]]}}, {"type": "Feature", "properties": {"id": "15", "name": "Altmark", "region": "Ost", "refAltFt": 400, "center": [52.7009, 11.648]}, "geometry": {"type": "Polygon", "coordinates": [[[11.1696, 53.1582], [11.1989, 53.134], [11.2587, 53.1334], [11.2678, 53.1033], [11.3461, 53.0545], [11.3964, 53.072], [11.4761, 53.071], [11.5151, 53.0466], [11.6242, 53.0332], [11.6235, 53.0152], [11.7016, 52.9782], [11.881, 52.9875], [12.1545, 52.887], [12.373, 52.8889], [12.441, 52.8635], [12.439, 52.8276], [12.3882, 52.8047], [12.3454, 52.7456], [12.3617, 52.6793], [12.3308, 52.656], [12.3235, 52.5182], [12.1405, 52.3958], [12.0973, 52.3127], [11.7839, 52.3118], [11.6926, 52.2293], [11.5656, 52.231], [11.3912, 52.2811], [11.2385, 52.4206], [11.0037, 52.4528], [11.0268, 52.6024], [11.0871, 52.6498], [11.0998, 52.7635], [11.18, 52.8046], [11.1624, 52.8887], [11.1333, 52.9129], [11.1549, 52.9786], [11.1162, 53.0209], [11.1174, 53.0689], [11.0685, 53.1052], [11.0692, 53.1352], [11.1197, 53.1587], [11.1696, 53.1582]]]}}, {"type": "Feature", "properties": {"id": "16", "name": "Fl\u00e4ming", "region": "Ost", "refAltFt": 600, "center": [52.0169, 12.777]}, "geometry": {"type": "Polygon", "coordinates": [[[12.1457, 52.2998], [12.2811, 52.2673], [12.4968, 52.275], [12.5736, 52.2494], [12.6572, 52.1756], [12.7743, 52.1729], [12.7904, 52.1186], [12.8668, 52.0927], [13.2348, 52.0592], [13.2534, 52.0467], [13.4969, 52.0457], [13.4239, 51.856], [13.3737, 51.8334], [13.2567, 51.8248], [13.2062, 51.7962], [13.1204, 51.8165], [12.9729, 51.7843], [12.8674, 51.799], [12.6868, 51.8572], [12.4454, 51.8745], [12.277, 51.9977], [12.0777, 52.1033], [12.0529, 52.1996], [12.0772, 52.3011], [12.1457, 52.2998]]]}}, {"type": "Feature", "properties": {"id": "17", "name": "Havelland", "region": "Ost", "refAltFt": 300, "center": [52.424, 12.9499]}, "geometry": {"type": "Polygon", "coordinates": [[[12.549, 52.8433], [12.6465, 52.8172], [12.8152, 52.8194], [12.8627, 52.7883], [12.992, 52.7971], [13.0304, 52.7782], [13.2784, 52.7836], [13.2972, 52.7711], [13.3116, 52.6987], [13.4178, 52.6658], [13.5485, 52.572], [13.5781, 52.4511], [13.663, 52.4066], [13.661, 52.3826], [13.6306, 52.3716], [13.6595, 52.3647], [13.657, 52.3348], [13.5339, 52.2665], [13.485, 52.268], [13.4571, 52.2868], [13.4502, 52.197], [13.5071, 52.0514], [13.3118, 52.0451], [12.8473, 52.0932], [12.7356, 52.1798], [12.6283, 52.1822], [12.5635, 52.2436], [12.458, 52.2818], [12.2423, 52.2741], [12.1068, 52.3065], [12.1515, 52.4196], [12.3245, 52.5362], [12.3305, 52.65], [12.3728, 52.7031], [12.3461, 52.7576], [12.3787, 52.8109], [12.44, 52.8456], [12.549, 52.8433]]]}}, {"type": "Feature", "properties": {"id": "18", "name": "Barnim und Oderbruch", "region": "Ost", "refAltFt": 400, "center": [52.5935, 13.9794]}, "geometry": {"type": "Polygon", "coordinates": [[[13.3517, 52.8356], [13.412, 52.8458], [13.5209, 52.8427], [13.6812, 52.8619], [13.938, 52.8477], [14.1283, 52.8653], [14.1441, 52.8228], [14.2325, 52.8137], [14.484, 52.6544], [14.5892, 52.6204], [14.6346, 52.5827], [14.6087, 52.5236], [14.6233, 52.475], [14.5387, 52.4183], [14.5576, 52.3155], [14.2644, 52.3265], [13.964, 52.3669], [13.8439, 52.3409], [13.7656, 52.3434], [13.6507, 52.377], [13.5566, 52.4278], [13.5269, 52.5486], [13.3774, 52.6549], [13.2901, 52.6754], [13.2645, 52.73], [13.2896, 52.8013], [13.3517, 52.8356]]]}}, {"type": "Feature", "properties": {"id": "19", "name": "Dahme-Spree-Gebiet und Gubener Waldland", "region": "Ost", "refAltFt": 400, "center": [51.8876, 13.6646]}, "geometry": {"type": "Polygon", "coordinates": [[[14.6872, 51.6861], [14.2977, 51.6591], [14.1822, 51.6633], [14.0414, 51.7103], [13.983, 51.7063], [13.7132, 51.8352], [13.452, 51.8432], [13.4019, 51.6947], [13.2483, 51.4412], [13.2719, 51.3686], [13.3184, 51.3493], [13.3162, 51.3194], [13.2219, 51.34], [13.2012, 51.4545], [13.3917, 51.8149], [13.2752, 51.8122], [13.215, 51.7839], [13.157, 51.7855], [13.1293, 51.8042], [13.012, 51.7893], [13.0136, 51.8133], [13.0439, 51.8305], [13.1982, 51.8204], [13.2386, 51.8432], [13.3755, 51.8574], [13.4063, 51.8805], [13.4663, 52.0286], [13.2137, 52.0358], [13.1951, 52.0483], [12.8656, 52.0748], [12.7694, 52.0951], [12.7709, 52.119], [12.8492, 52.1231], [12.887, 52.1042], [13.2645, 52.0644], [13.4691, 52.0645], [13.42, 52.1859], [13.4446, 52.2512], [13.4297, 52.3116], [13.527, 52.3027], [13.588, 52.3309], [13.6003, 52.3605], [13.5748, 52.4093], [13.6238, 52.4078], [13.6703, 52.3764], [13.7852, 52.3427], [13.9542, 52.3672], [14.052, 52.3639], [14.3127, 52.3187], [14.5772, 52.3148], [14.6119, 52.2714], [14.6985, 52.256], [14.6839, 52.1185], [14.7488, 52.0859], [14.6911, 51.9081], [14.5947, 51.8219], [14.6115, 51.8140], [14.6162, 51.8095], [14.6344, 51.8012], [14.6502, 51.7882], [14.6541, 51.7840], [14.6596, 51.7677], [14.6624, 51.7493], [14.6689, 51.7332], [14.6721, 51.7309], [14.6872, 51.6861]]]}}, {"type": "Feature", "properties": {"id": "20", "name": "Magdeburger B\u00f6rde und N\u00f6rdliches Harzvorland", "region": "Ost", "refAltFt": 700, "center": [52.1014, 11.2073]}, "geometry": {"type": "Polygon", "coordinates": [[[11.1019, 52.4519], [11.1504, 52.4275], [11.2582, 52.4204], [11.4108, 52.2809], [11.5754, 52.2309], [11.6828, 52.2294], [11.7741, 52.312], [12.0774, 52.307], [12.0448, 52.2357], [12.0691, 52.1274], [12.1447, 52.0781], [12.143, 52.0422], [12.0047, 51.9967], [11.9939, 51.9729], [11.8671, 51.963], [11.7875, 51.9163], [11.7658, 51.8567], [11.783, 51.8025], [11.7045, 51.7737], [11.5949, 51.6854], [11.5563, 51.6859], [11.4525, 51.7591], [11.3275, 51.7846], [11.0474, 51.8054], [10.7685, 51.9153], [10.5361, 51.9526], [10.4006, 52.001], [10.4008, 52.031], [10.4598, 52.0907], [10.5972, 52.1679], [10.8465, 52.448], [11.1019, 52.4519]]]}}, {"type": "Feature", "properties": {"id": "21", "name": "Harz", "region": "Ost", "refAltFt": 2300, "center": [51.7315, 10.8764]}, "geometry": {"type": "Polygon", "coordinates": [[[10.4492, 52.0008], [10.5555, 51.9525], [10.7589, 51.9214], [10.9229, 51.8723], [11.0667, 51.8052], [11.1534, 51.7864], [11.3372, 51.7844], [11.4813, 51.7528], [11.632, 51.6429], [11.6474, 51.5348], [11.5963, 51.4516], [11.3557, 51.4367], [11.3083, 51.4552], [11.107, 51.4753], [11.0012, 51.4703], [10.9256, 51.5308], [10.8299, 51.5615], [10.724, 51.5562], [10.657, 51.5865], [10.4932, 51.5813], [10.4549, 51.6054], [10.3299, 51.6358], [10.33, 51.6598], [10.2243, 51.7439], [10.1859, 51.8038], [10.1766, 51.8997], [10.2449, 51.9835], [10.4492, 52.0008]]]}}, {"type": "Feature", "properties": {"id": "22", "name": "Leipziger Tieflandsbucht und Elbe-Elster-Niederung", "region": "Ost", "refAltFt": 600, "center": [51.5833, 12.3549]}, "geometry": {"type": "Polygon", "coordinates": [[[11.4051, 51.7896], [11.4915, 51.7706], [11.5765, 51.7096], [11.686, 51.7979], [11.7547, 51.8209], [11.7691, 51.9405], [11.8584, 51.9871], [11.9459, 51.9857], [11.9566, 52.0095], [12.006, 52.0266], [12.0644, 52.0256], [12.1436, 52.0542], [12.2017, 52.0471], [12.3344, 51.9786], [12.4641, 51.8621], [12.6965, 51.857], [12.9536, 51.7848], [13.0426, 51.8125], [13.1688, 51.8152], [13.1969, 51.8024], [13.2374, 51.8253], [13.4128, 51.8383], [13.3954, 51.7369], [13.23, 51.4537], [13.2427, 51.3634], [13.2984, 51.3379], [13.2967, 51.3139], [13.1332, 51.3065], [12.9626, 51.3349], [12.7264, 51.2328], [12.6197, 51.2053], [12.5104, 51.1298], [12.3563, 51.1031], [12.1852, 51.1125], [12.1193, 51.1317], [11.9848, 51.1101], [11.7978, 51.203], [11.715, 51.2882], [11.7268, 51.3479], [11.6609, 51.3788], [11.6526, 51.4149], [11.6055, 51.4395], [11.6275, 51.5171], [11.6662, 51.5226], [11.6281, 51.5351], [11.6119, 51.6192], [11.5456, 51.6561], [11.5368, 51.6801], [11.4231, 51.7475], [11.2691, 51.7732], [11.1144, 51.7748], [11.115, 51.7987], [11.4051, 51.7896]]]}}, {"type": "Feature", "properties": {"id": "23", "name": "Niederlausitzer Heiden", "region": "Ost", "refAltFt": 600, "center": [51.5164, 13.9917]}, "geometry": {"type": "Polygon", "coordinates": [[[14.7299, 51.5403], [14.9626, 51.4646], [14.9686, 51.3442], [14.6143, 51.3529], [14.5592, 51.283], [14.4924, 51.2857], [14.4368, 51.3058], [14.3317, 51.3098], [14.079, 51.379], [13.8985, 51.2892], [13.7306, 51.2288], [13.5029, 51.2539], [13.3996, 51.281], [13.3445, 51.3125], [13.2871, 51.3142], [13.2888, 51.3381], [13.2419, 51.3514], [13.2308, 51.4657], [13.4074, 51.7665], [13.4147, 51.8622], [13.5202, 51.8471], [13.7529, 51.8459], [14.0318, 51.7106], [14.2201, 51.656], [14.736, 51.6902], [14.7496, 51.6356], [14.7299, 51.5403]]]}}, {"type": "Feature", "properties": {"id": "24", "name": "Th\u00fcringer Becken", "region": "Ost", "refAltFt": 1400, "center": [51.0619, 11.2244]}, "geometry": {"type": "Polygon", "coordinates": [[[10.5991, 51.5748], [10.6954, 51.5743], [10.7335, 51.5501], [10.849, 51.5493], [10.9256, 51.5308], [11.0203, 51.4641], [11.1069, 51.4693], [11.3652, 51.4306], [11.6151, 51.4394], [11.8644, 51.196], [12.0327, 51.1152], [12.1753, 51.1066], [12.182, 51.0466], [12.0757, 51.0126], [12.0168, 50.9717], [12.0901, 50.9105], [12.1228, 50.796], [12.1689, 50.7711], [12.1572, 50.7234], [12.1927, 50.6748], [12.1708, 50.6093], [12.1045, 50.6045], [12.0496, 50.6415], [11.9642, 50.631], [11.6541, 50.6659], [11.6266, 50.6902], [11.3441, 50.7179], [11.2791, 50.7606], [11.2031, 50.7494], [11.1758, 50.7916], [11.1198, 50.8221], [11.0156, 50.8231], [10.6376, 50.8857], [10.3536, 50.9648], [10.3444, 51.0068], [10.4022, 51.0904], [10.4219, 51.1623], [10.3274, 51.2884], [10.3277, 51.3363], [10.3565, 51.3422], [10.4729, 51.4796], [10.5991, 51.5748]]]}}, {"type": "Feature", "properties": {"id": "25", "name": "Mittels\u00e4chsisches H\u00fcgelland", "region": "Ost", "refAltFt": 1300, "center": [51.0233, 12.775]}, "geometry": {"type": "Polygon", "coordinates": [[[13.6766, 51.1525], [13.6218, 51.0643], [13.3831, 51.0595], [13.2958, 51.0381], [13.2362, 51.0038], [13.1408, 51.0005], [13.0781, 50.9182], [12.8737, 50.8396], [12.8707, 50.7917], [12.6423, 50.7732], [12.5542, 50.7212], [12.4588, 50.7054], [12.3613, 50.6475], [12.1919, 50.6568], [12.1581, 50.7414], [12.0849, 50.7967], [12.07, 50.8868], [11.9968, 50.9481], [11.9991, 51.002], [12.1445, 51.0593], [12.1944, 51.1063], [12.337, 51.0975], [12.5008, 51.13], [12.6002, 51.1998], [12.707, 51.2273], [12.9431, 51.3294], [13.152, 51.3], [13.3632, 51.306], [13.5024, 51.2479], [13.6442, 51.2255], [13.6766, 51.1525]]]}}, {"type": "Feature", "properties": {"id": "26", "name": "Oberlausitz und Lausitzer Gebirge", "region": "Ost", "refAltFt": 1500, "center": [51.0605, 14.2404]}, "geometry": {"type": "Polygon", "coordinates": [[[14.9773, 51.0736], [14.8852, 50.9275], [14.8233, 50.8821], [14.7981, 50.8231], [14.621, 50.8544], [14.6466, 50.9194], [14.5708, 50.9224], [14.5869, 50.9878], [14.5115, 50.9968], [14.5038, 51.0151], [14.381, 51.0259], [14.3637, 51.0445], [14.3168, 51.0523], [14.2771, 51.0358], [14.2637, 50.9943], [14.3267, 50.9559], [14.3919, 50.9414], [14.3784, 50.8999], [14.2542, 50.8926], [14.2225, 50.8578], [14.1646, 50.8479], [14.0946, 50.8084], [14.0568, 50.8098], [14.0311, 50.8407], [13.7351, 50.9347], [13.6208, 51.0523], [13.3827, 51.0536], [13.3845, 51.0775], [13.5847, 51.0774], [13.649, 51.1654], [13.6132, 51.1965], [13.6151, 51.2204], [13.7105, 51.2174], [14.0493, 51.368], [14.1827, 51.3573], [14.3407, 51.3035], [14.4458, 51.2995], [14.4918, 51.2797], [14.5586, 51.2771], [14.6232, 51.3465], [14.9898, 51.3369], [14.9991, 51.3266], [15.0217, 51.3098], [15.0363, 51.2909], [14.9773, 51.0736]]]}}, {"type": "Feature", "properties": {"id": "27", "name": "Th\u00fcringer Wald", "region": "Ost", "refAltFt": 2800, "center": [50.6448, 10.7965]}, "geometry": {"type": "Polygon", "coordinates": [[[10.2493, 51.001], [10.2777, 50.983], [10.3443, 50.9828], [10.5808, 50.898], [10.9684, 50.8295], [11.1387, 50.8219], [11.2413, 50.761], [11.3167, 50.7541], [11.3336, 50.682], [11.3615, 50.6697], [11.3792, 50.6276], [11.4354, 50.6149], [11.4154, 50.5792], [11.3207, 50.5624], [11.3767, 50.5437], [11.3836, 50.4598], [11.3728, 50.412], [11.2764, 50.3232], [11.3126, 50.2749], [11.3115, 50.2389], [11.1809, 50.2523], [11.0508, 50.2896], [10.9289, 50.2786], [10.7615, 50.3458], [10.5367, 50.365], [10.5471, 50.4488], [10.4069, 50.5393], [10.4074, 50.5992], [10.3514, 50.6653], [10.3426, 50.7492], [10.3048, 50.7612], [10.2955, 50.7912], [10.2578, 50.8153], [10.1537, 50.8394], [9.9926, 50.8395], [10.0211, 50.9294], [10.1067, 51.0012], [10.2493, 51.001]]]}}, {"type": "Feature", "properties": {"id": "28", "name": "Erzgebirge", "region": "Ost", "refAltFt": 2800, "center": [50.6875, 13.0192]}, "geometry": {"type": "Polygon", "coordinates": [[[12.8784, 50.4617], [12.8026, 50.4517], [12.725, 50.4116], [12.6875, 50.4125], [12.6618, 50.455], [12.596, 50.4566], [12.5558, 50.4095], [12.5083, 50.3986], [12.4869, 50.3511], [12.4005, 50.311], [12.3307, 50.2285], [12.3283, 50.1806], [12.2816, 50.1816], [12.2834, 50.2175], [12.2483, 50.2662], [12.2606, 50.3259], [12.1524, 50.4179], [12.0591, 50.4316], [12.08, 50.4791], [12.1668, 50.5255], [12.1716, 50.6273], [12.201, 50.6507], [12.2576, 50.6496], [12.2944, 50.6309], [12.4208, 50.7002], [12.5354, 50.7217], [12.6136, 50.7679], [12.8336, 50.8046], [12.8563, 50.864], [13.0608, 50.9427], [13.0941, 51.0137], [13.199, 51.0168], [13.2586, 51.0511], [13.346, 51.0726], [13.4687, 51.057], [13.6508, 51.0694], [13.774, 50.9454], [14.0789, 50.845], [14.0762, 50.8151], [13.9911, 50.8181], [13.9513, 50.7955], [13.9134, 50.7968], [13.8895, 50.7376], [13.8403, 50.7153], [13.7752, 50.7294], [13.5656, 50.7122], [13.5022, 50.6242], [13.4631, 50.6074], [13.3793, 50.6219], [13.3103, 50.5819], [13.2637, 50.5893], [13.1818, 50.4956], [13.0408, 50.4995], [13.0335, 50.4694], [13.0314, 50.4703], [13.0274, 50.4460], [12.8784, 50.4617]]]}}, {"type": "Feature", "properties": {"id": "31", "name": "Niederrheinisches Tiefland", "region": "West", "refAltFt": 400, "center": [51.487, 7.1421]}, "geometry": {"type": "Polygon", "coordinates": [[[6.3081, 51.8593], [6.4073, 51.8324], [6.4093, 51.8085], [6.4503, 51.7798], [6.5796, 51.7356], [6.6613, 51.678], [6.8437, 51.6951], [6.9666, 51.7344], [7.2073, 51.7524], [7.3157, 51.719], [7.4702, 51.7225], [7.5784, 51.6888], [7.6559, 51.6844], [7.6481, 51.6483], [7.6096, 51.6475], [7.4333, 51.6917], [7.2886, 51.6884], [7.142, 51.7149], [6.9976, 51.7052], [6.9032, 51.6728], [6.6732, 51.6484], [6.6946, 51.619], [6.835, 51.545], [6.8484, 51.4914], [6.8246, 51.4188], [6.8763, 51.3662], [7.2782, 51.3824], [7.395, 51.3551], [7.4904, 51.3632], [7.534, 51.4421], [7.5714, 51.4609], [7.9259, 51.4858], [8.0398, 51.5177], [8.2701, 51.5334], [8.5279, 51.5969], [8.6342, 51.5862], [8.6349, 51.5622], [8.3493, 51.4746], [8.0128, 51.4753], [7.9371, 51.45], [7.6303, 51.4381], [7.5475, 51.3705], [7.532, 51.3042], [7.4937, 51.3034], [7.4732, 51.3269], [7.3779, 51.3188], [7.2417, 51.3516], [6.9258, 51.3436], [6.9327, 51.2418], [6.9729, 51.2129], [6.9956, 51.1596], [6.9786, 51.1291], [6.9921, 51.0695], [6.8254, 50.9991], [6.0069, 50.9974], [5.9984, 51.0931], [6.1646, 51.1588], [6.1526, 51.1884], [6.0773, 51.1738], [6.0801, 51.2519], [6.2234, 51.3707], [6.2113, 51.5143], [6.108, 51.5948], [6.113, 51.649], [6.0338, 51.6703], [6.0296, 51.7182], [5.9996, 51.7291], [5.9614, 51.8298], [6.0469, 51.8507], [6.1441, 51.848], [6.14, 51.8959], [6.2193, 51.8898], [6.2266, 51.8880], [6.2328, 51.8888], [6.2818, 51.8851], [6.2886, 51.8804], [6.2979, 51.8703], [6.3073, 51.8694], [6.3081, 51.8593]]]}}, {"type": "Feature", "properties": {"id": "32", "name": "M\u00fcnsterland", "region": "West", "refAltFt": 500, "center": [52.0993, 8.0413]}, "geometry": {"type": "Polygon", "coordinates": [[[9.2579, 52.3108], [9.1802, 52.2743], [9.0438, 52.2493], [8.9459, 52.2545], [8.9367, 52.2304], [8.8683, 52.2298], [8.772, 52.1809], [8.7631, 52.1508], [8.7056, 52.1143], [8.775, 52.0731], [8.7967, 51.9894], [8.7579, 51.989], [8.727, 52.0486], [8.6578, 52.0838], [8.656, 52.1437], [8.7232, 52.1804], [8.7221, 52.2163], [8.7806, 52.2229], [8.8285, 52.2594], [8.8772, 52.2658], [8.8562, 52.3195], [8.7864, 52.3668], [8.4234, 52.3745], [8.3071, 52.3369], [8.219, 52.3356], [8.1188, 52.388], [8.0014, 52.38], [7.8532, 52.4014], [7.6518, 52.3137], [7.6436, 52.2835], [7.6941, 52.2546], [7.706, 52.2128], [7.8566, 52.1318], [7.9543, 52.1275], [7.9944, 52.1042], [8.2079, 52.1257], [8.2579, 52.0965], [8.3457, 52.0918], [8.5239, 52.0103], [8.8079, 51.9356], [8.7896, 51.8935], [8.8192, 51.8758], [8.83, 51.834], [8.6745, 51.8503], [8.646, 51.832], [8.5685, 51.8311], [8.5114, 51.8004], [8.4147, 51.7991], [8.2337, 51.7246], [7.9842, 51.6846], [7.8486, 51.6941], [7.6379, 51.6601], [7.4323, 51.7096], [7.2779, 51.7061], [7.1795, 51.7338], [7.0061, 51.7234], [6.8831, 51.6842], [6.6337, 51.6593], [6.4102, 51.7965], [6.4049, 51.8623], [6.4828, 51.8587], [6.6438, 51.9114], [6.7319, 51.9019], [6.7967, 51.9457], [6.8233, 51.9824], [6.7319, 52.0339], [6.6926, 52.0388], [6.6904, 52.0687], [6.7563, 52.1005], [6.755, 52.1185], [6.8426, 52.1208], [6.8786, 52.1638], [6.9635, 52.208], [7.1399, 52.2004], [7.4902, 52.2264], [7.5843, 52.2943], [7.63, 52.3552], [7.8125, 52.4306], [8.0197, 52.4103], [8.1567, 52.4185], [8.257, 52.3661], [8.3929, 52.404], [8.8248, 52.3971], [8.9046, 52.344], [8.9156, 52.2961], [9.0041, 52.279], [9.1016, 52.2917], [9.2084, 52.3404], [9.2575, 52.3348], [9.2579, 52.3108]]]}}, {"type": "Feature", "properties": {"id": "33", "name": "Ruhrgebiet und Ostwestfalen", "region": "West", "refAltFt": 800, "center": [51.6148, 7.8315]}, "geometry": {"type": "Polygon", "coordinates": [[[8.8229, 51.7381], [8.8341, 51.6783], [8.7679, 51.6296], [8.6346, 51.5742], [8.5483, 51.5612], [8.5094, 51.5727], [8.309, 51.522], [8.0788, 51.5064], [7.9363, 51.468], [7.6105, 51.4497], [7.5545, 51.4186], [7.5201, 51.3459], [7.3864, 51.337], [7.2406, 51.3695], [6.8388, 51.3532], [6.8072, 51.3943], [6.8174, 51.5205], [6.6772, 51.5945], [6.6355, 51.6353], [6.6337, 51.6593], [6.8638, 51.6837], [6.9582, 51.7162], [7.1891, 51.734], [7.3265, 51.7013], [7.4712, 51.7045], [7.6575, 51.6545], [7.8293, 51.6938], [7.9746, 51.6844], [8.2241, 51.7244], [8.3857, 51.7987], [8.473, 51.7939], [8.5395, 51.8307], [8.617, 51.8316], [8.6551, 51.8501], [8.7423, 51.851], [8.8497, 51.8222], [8.8229, 51.7381]]]}}, {"type": "Feature", "properties": {"id": "34", "name": "Niederrheinische Bucht", "region": "West", "refAltFt": 700, "center": [50.8755, 6.7533]}, "geometry": {"type": "Polygon", "coordinates": [[[7.2965, 50.7594], [7.2496, 50.7523], [7.251, 50.7283], [7.1965, 50.691], [7.1991, 50.6491], [6.9642, 50.6311], [6.8774, 50.6587], [6.7257, 50.6664], [6.6103, 50.693], [6.5407, 50.7389], [6.4884, 50.8033], [6.4123, 50.8069], [6.3536, 50.8291], [6.2401, 50.8254], [6.1296, 50.7857], [6.0163, 50.7818], [6.02, 50.8479], [6.0668, 50.8555], [6.0626, 50.9034], [6.1164, 50.9412], [6.1638, 50.9428], [6.1943, 50.9198], [6.2516, 50.9157], [6.5997, 50.9626], [6.7775, 51.0037], [6.9627, 51.0807], [6.9488, 51.1463], [7.0341, 51.1546], [7.019, 51.0942], [7.1333, 51.0971], [7.1469, 51.0315], [7.2358, 50.9797], [7.2303, 50.9137], [7.2795, 50.8849], [7.2627, 50.8485], [7.3048, 50.7776], [7.2965, 50.7594]]]}}, {"type": "Feature", "properties": {"id": "35", "name": "Bergisches Land", "region": "West", "refAltFt": 1400, "center": [51.0729, 7.4215]}, "geometry": {"type": "Polygon", "coordinates": [[[7.2793, 51.3645], [7.4155, 51.3316], [7.4914, 51.3453], [7.5498, 51.3286], [7.5438, 51.2625], [7.583, 51.2453], [7.646, 51.1388], [7.7351, 51.0746], [7.8118, 51.0641], [7.8513, 51.0349], [7.8538, 50.981], [7.9326, 50.9226], [7.9361, 50.8447], [7.8715, 50.8076], [7.7399, 50.787], [7.6261, 50.7907], [7.6062, 50.8083], [7.5305, 50.8067], [7.5129, 50.7823], [7.2856, 50.7831], [7.235, 50.8358], [7.2084, 50.9611], [7.1294, 51.0071], [7.1157, 51.0727], [7.0959, 51.0842], [6.9917, 51.0755], [6.9877, 51.1354], [6.9153, 51.2174], [6.8771, 51.3543], [7.2793, 51.3645]]]}}, {"type": "Feature", "properties": {"id": "36", "name": "Sauerland", "region": "West", "refAltFt": 2400, "center": [51.2507, 8.3661]}, "geometry": {"type": "Polygon", "coordinates": [[[8.8933, 51.6249], [9.0004, 51.578], [9.0115, 51.5122], [8.8346, 51.2888], [8.7033, 51.1975], [8.6199, 51.1127], [8.6614, 50.9993], [8.608, 50.8789], [8.373, 50.8218], [8.3161, 50.821], [8.1336, 50.8841], [8.0846, 50.9192], [8.0467, 50.9186], [8.0019, 50.8579], [7.9358, 50.8507], [7.9326, 50.9226], [7.8348, 50.9807], [7.8233, 51.0224], [7.7743, 51.0514], [7.6976, 51.0619], [7.6282, 51.1144], [7.5652, 51.221], [7.526, 51.2381], [7.5185, 51.3758], [7.5539, 51.4305], [7.5913, 51.4493], [7.7164, 51.4459], [7.9267, 51.4678], [7.9739, 51.4866], [8.3104, 51.486], [8.5391, 51.5491], [8.7581, 51.6355], [8.8243, 51.6841], [8.8629, 51.6845], [8.8933, 51.6249]]]}}, {"type": "Feature", "properties": {"id": "37", "name": "Eifel", "region": "West", "refAltFt": 2000, "center": [50.308, 6.658]}, "geometry": {"type": "Polygon", "coordinates": [[[6.373, 50.8237], [6.4988, 50.7916], [6.5807, 50.7101], [6.7548, 50.6553], [6.8966, 50.6533], [6.9839, 50.6196], [7.2089, 50.6434], [7.2118, 50.5955], [7.2694, 50.5789], [7.3113, 50.508], [7.3701, 50.4674], [7.3725, 50.4255], [7.3186, 50.3822], [7.2717, 50.3811], [7.2094, 50.3256], [7.2414, 50.2605], [7.356, 50.2213], [7.4211, 50.2288], [7.4224, 50.2048], [7.3868, 50.174], [7.3038, 50.1541], [7.1822, 50.1571], [7.1926, 50.1394], [7.2299, 50.1403], [7.2317, 50.1104], [7.1959, 50.0855], [7.1307, 50.0839], [7.1095, 49.9754], [7.0254, 49.9792], [7.0076, 49.9667], [7.0653, 49.9383], [7.0668, 49.9143], [7.0107, 49.9188], [6.9477, 49.8872], [6.9106, 49.8861], [6.8949, 49.8437], [6.8401, 49.8302], [6.8518, 49.7946], [6.8055, 49.7932], [6.7201, 49.8207], [6.6861, 49.7778], [6.6231, 49.7519], [6.6252, 49.722], [6.543, 49.7074], [6.5043, 49.7302], [6.5072, 49.8143], [6.405, 49.817], [6.3559, 49.8514], [6.3188, 49.8502], [6.2984, 49.8735], [6.233, 49.8773], [6.2282, 49.9372], [6.1701, 49.9652], [6.1264, 50.0417], [6.1527, 50.1746], [6.1886, 50.1938], [6.1753, 50.2413], [6.2667, 50.2684], [6.3003, 50.3175], [6.3662, 50.3136], [6.4023, 50.3328], [6.3339, 50.3666], [6.3516, 50.4991], [6.2196, 50.5008], [6.1884, 50.5357], [6.1859, 50.5656], [6.2662, 50.6223], [6.1626, 50.6188], [6.1268, 50.7076], [6.0398, 50.7286], [6.0367, 50.7645], [6.0839, 50.7661], [6.2217, 50.8188], [6.373, 50.8237]]]}}, {"type": "Feature", "properties": {"id": "38", "name": "Neuwieder Becken", "region": "West", "refAltFt": 1000, "center": [50.353, 7.427]}, "geometry": {"type": "Polygon", "coordinates": [[[7.5886, 50.4243], [7.6561, 50.3898], [7.6574, 50.3658], [7.6217, 50.3291], [7.4822, 50.3081], [7.4594, 50.2117], [7.329, 50.2027], [7.2047, 50.2476], [7.1802, 50.3429], [7.2335, 50.3922], [7.2894, 50.3995], [7.3158, 50.4301], [7.3631, 50.4253], [7.4097, 50.4323], [7.418, 50.4505], [7.4838, 50.452], [7.4877, 50.3801], [7.5258, 50.369], [7.5439, 50.3814], [7.5404, 50.4472], [7.5874, 50.4483], [7.5886, 50.4243]]]}}, {"type": "Feature", "properties": {"id": "39", "name": "Westerwald", "region": "West", "refAltFt": 1900, "center": [50.6389, 8.001]}, "geometry": {"type": "Polygon", "coordinates": [[[8.7715, 50.7969], [8.7171, 50.7124], [8.7093, 50.6524], [8.6435, 50.6456], [8.6257, 50.6095], [8.533, 50.5604], [8.3451, 50.5458], [8.2987, 50.5271], [8.2443, 50.4724], [8.2468, 50.4065], [8.1059, 50.4102], [8.0972, 50.3921], [8.0224, 50.3848], [7.9862, 50.3542], [7.9488, 50.3535], [7.9126, 50.3229], [7.8008, 50.3088], [7.6964, 50.3367], [7.6692, 50.3181], [7.6223, 50.3171], [7.6208, 50.3471], [7.6571, 50.3718], [7.608, 50.4127], [7.6158, 50.4429], [7.3614, 50.4552], [7.2918, 50.5195], [7.2701, 50.5669], [7.222, 50.5837], [7.2052, 50.7032], [7.243, 50.7042], [7.251, 50.7283], [7.308, 50.7237], [7.3245, 50.766], [7.4099, 50.762], [7.4416, 50.7028], [7.4881, 50.7158], [7.4862, 50.7518], [7.5334, 50.7528], [7.5832, 50.7059], [7.6197, 50.7306], [7.6179, 50.7666], [7.8253, 50.7827], [7.9188, 50.8084], [7.9929, 50.8457], [8.0377, 50.9064], [8.1136, 50.9077], [8.1528, 50.8784], [8.2776, 50.8384], [8.2974, 50.8147], [8.4203, 50.8225], [8.4121, 50.7864], [8.4982, 50.7576], [8.5063, 50.7997], [8.4676, 50.8231], [8.4668, 50.8471], [8.5705, 50.8664], [8.6368, 50.8672], [8.6753, 50.8497], [8.7602, 50.8627], [8.7715, 50.7969]]]}}, {"type": "Feature", "properties": {"id": "41", "name": "Hunsr\u00fcck", "region": "Mitte", "refAltFt": 2300, "center": [49.8449, 7.1417]}, "geometry": {"type": "Polygon", "coordinates": [[[7.6444, 50.2517], [7.589, 50.2385], [7.6173, 50.2331], [7.6671, 50.1742], [7.724, 50.1574], [7.7257, 50.1215], [7.7752, 50.0625], [7.8615, 50.0103], [7.864, 49.9564], [7.5554, 49.8122], [7.3366, 49.7472], [7.194, 49.6538], [7.139, 49.6464], [7.0583, 49.6083], [6.9665, 49.5999], [6.706, 49.4965], [6.6048, 49.4934], [6.5431, 49.4556], [6.3764, 49.4682], [6.3764, 49.5882], [6.4284, 49.6318], [6.4515, 49.6926], [6.4871, 49.7117], [6.5887, 49.7148], [6.631, 49.7701], [6.7033, 49.7963], [6.7021, 49.8142], [6.7761, 49.8164], [6.8425, 49.7943], [6.8393, 49.8422], [6.8945, 49.8497], [6.8921, 49.8856], [6.9392, 49.8749], [6.974, 49.9119], [7.0664, 49.9203], [7.0088, 49.9488], [7.0069, 49.9787], [7.1288, 49.9639], [7.1299, 50.0958], [7.1758, 50.109], [7.1531, 50.1744], [7.2841, 50.1716], [7.3487, 50.1851], [7.4484, 50.2414], [7.4632, 50.3137], [7.5939, 50.3225], [7.6444, 50.2517]]]}}, {"type": "Feature", "properties": {"id": "42", "name": "Taunus", "region": "Mitte", "refAltFt": 2000, "center": [50.2499, 8.1756]}, "geometry": {"type": "Polygon", "coordinates": [[[8.6683, 50.4422], [8.7544, 50.3833], [8.7557, 50.3354], [8.6639, 50.2684], [8.6657, 50.2085], [8.5625, 50.2192], [8.4617, 50.158], [8.4728, 50.1042], [8.437, 50.0617], [8.3811, 50.061], [8.3235, 50.108], [8.2764, 50.1193], [8.1934, 50.094], [8.1759, 50.0638], [7.8632, 49.9744], [7.8621, 49.9983], [7.7758, 50.0506], [7.7747, 50.0745], [7.7362, 50.0977], [7.7246, 50.1454], [7.6481, 50.1798], [7.6182, 50.2152], [7.6167, 50.2451], [7.6438, 50.2636], [7.6148, 50.281], [7.6133, 50.3109], [7.7151, 50.337], [7.8102, 50.309], [7.8942, 50.3165], [8.0222, 50.3908], [8.0967, 50.404], [8.2283, 50.4002], [8.2558, 50.4186], [8.2533, 50.4845], [8.2799, 50.5268], [8.3263, 50.5455], [8.5237, 50.5543], [8.6665, 50.5021], [8.6683, 50.4422]]]}}, {"type": "Feature", "properties": {"id": "43", "name": "Nordhessisches Bergland und Vogelsberg", "region": "Mitte", "refAltFt": 2000, "center": [51.0722, 9.5263]}, "geometry": {"type": "Polygon", "coordinates": [[[10.4634, 51.4916], [10.463, 51.4496], [10.318, 51.3123], [10.4127, 51.1922], [10.4121, 51.1323], [10.3443, 50.9828], [10.1352, 50.9832], [10.0685, 50.9174], [10.0116, 50.9114], [9.9737, 50.8575], [9.9927, 50.8215], [9.9171, 50.7197], [9.7661, 50.6715], [9.7007, 50.5695], [9.6825, 50.4796], [9.589, 50.4314], [9.5052, 50.3591], [9.2708, 50.3579], [8.9787, 50.4215], [8.9658, 50.5771], [8.7092, 50.6584], [8.7166, 50.7304], [8.7625, 50.7788], [8.7888, 50.857], [8.7411, 50.8684], [8.6372, 50.8553], [8.6181, 50.861], [8.6168, 50.9029], [8.6705, 51.0114], [8.6406, 51.059], [8.6384, 51.1309], [8.8531, 51.313], [9.002, 51.5061], [9.0692, 51.5126], [9.1372, 51.4772], [9.2428, 51.484], [9.4242, 51.5749], [9.4621, 51.629], [9.5007, 51.6292], [9.5878, 51.5936], [9.6076, 51.5277], [9.5885, 51.5157], [9.6273, 51.4739], [9.6276, 51.4379], [9.7335, 51.3903], [9.7911, 51.3844], [9.8583, 51.3426], [9.9829, 51.3787], [10.0212, 51.4086], [10.1076, 51.4205], [10.204, 51.5103], [10.2905, 51.5101], [10.3484, 51.5399], [10.4062, 51.5397], [10.4634, 51.4916]]]}}, {"type": "Feature", "properties": {"id": "44", "name": "Rheinpfalz und Saarland", "region": "Mitte", "refAltFt": 1900, "center": [49.4724, 7.4579]}, "geometry": {"type": "Polygon", "coordinates": [[[8.2464, 49.9271], [8.2504, 49.8193], [8.2016, 49.6447], [8.1582, 49.5721], [8.1742, 49.3986], [8.1305, 49.3439], [8.0986, 49.2235], [8.0536, 49.2048], [8.0642, 49.169], [8.0284, 49.1504], [7.9777, 49.0536], [7.6402, 49.0528], [7.6023, 49.082], [7.5287, 49.0923], [7.4978, 49.1576], [7.4326, 49.18], [7.3961, 49.1792], [7.3078, 49.1231], [7.1337, 49.1307], [7.1224, 49.1664], [7.1845, 49.198], [7.1919, 49.2281], [7.1059, 49.2858], [7.0097, 49.2113], [6.8627, 49.2192], [6.8484, 49.1589], [6.7198, 49.1671], [6.726, 49.2093], [6.6977, 49.2204], [6.6665, 49.2734], [6.5999, 49.3074], [6.5955, 49.3672], [6.5479, 49.3897], [6.533, 49.4672], [6.5864, 49.4929], [6.6788, 49.4897], [6.8214, 49.5598], [7.1756, 49.6534], [7.2818, 49.7339], [7.5005, 49.799], [7.8452, 49.962], [7.9288, 49.9636], [7.976, 49.9465], [8.0584, 49.9779], [8.1981, 49.9743], [8.2464, 49.9271]]]}}, {"type": "Feature", "properties": {"id": "45", "name": "Rhein-Main-Gebiet und Wetterau", "region": "Mitte", "refAltFt": 800, "center": [50.1698, 8.4448]}, "geometry": {"type": "Polygon", "coordinates": [[[8.7999, 50.7972], [8.7361, 50.7066], [8.737, 50.6767], [8.9841, 50.6013], [8.9763, 50.5293], [9.0076, 50.3918], [8.9895, 50.3617], [9.0461, 50.3442], [9.0845, 50.2966], [9.1312, 50.303], [9.1604, 50.2433], [9.2356, 50.2198], [9.2361, 50.1899], [9.1075, 50.0811], [9.1179, 50.0213], [9.1833, 50.0098], [9.2022, 49.992], [9.2038, 49.9021], [9.0836, 49.8772], [8.9906, 49.8824], [8.964, 49.8282], [8.8903, 49.8095], [8.8725, 49.7794], [8.7984, 49.7786], [8.7978, 49.8026], [8.7503, 49.844], [8.6949, 49.8374], [8.6518, 49.723], [8.6801, 49.7054], [8.7064, 49.4241], [8.6516, 49.4115], [8.5761, 49.4764], [8.3166, 49.5267], [8.141, 49.5419], [8.1299, 49.5896], [8.2154, 49.7648], [8.2287, 49.9028], [8.1518, 49.9675], [8.0961, 49.9666], [8.0137, 49.9352], [7.9394, 49.9338], [7.8829, 49.9508], [7.756, 49.8824], [7.7189, 49.8816], [7.7081, 49.9113], [7.844, 49.986], [7.7578, 50.0382], [7.7083, 50.0972], [7.7065, 50.1331], [7.6304, 50.1615], [7.5999, 50.2088], [7.5619, 50.2199], [7.5597, 50.2618], [7.6061, 50.2688], [7.5571, 50.3097], [7.539, 50.2974], [7.4548, 50.2955], [7.4528, 50.3314], [7.5836, 50.3403], [7.6274, 50.4012], [7.6843, 50.3903], [7.6955, 50.3546], [7.8374, 50.3275], [7.9107, 50.3648], [7.9482, 50.3655], [7.9844, 50.3961], [8.0683, 50.4096], [8.077, 50.4277], [8.2088, 50.4179], [8.2272, 50.4301], [8.2154, 50.4899], [8.2606, 50.5385], [8.2888, 50.539], [8.3162, 50.5633], [8.4949, 50.5718], [8.6061, 50.6332], [8.6035, 50.717], [8.6413, 50.7175], [8.6712, 50.6639], [8.6898, 50.6761], [8.6884, 50.724], [8.7341, 50.7785], [8.7419, 50.8385], [8.6377, 50.8373], [8.609, 50.8489], [8.6082, 50.8729], [8.8072, 50.8811], [8.7999, 50.7972]], [[8.4865, 50.5418], [8.3552, 50.528], [8.2996, 50.5032], [8.2663, 50.3888], [8.154, 50.381], [8.1347, 50.3927], [8.0602, 50.3795], [7.9231, 50.2991], [7.8017, 50.2908], [7.6972, 50.3187], [7.6517, 50.2938], [7.671, 50.2822], [7.6656, 50.2042], [7.742, 50.1698], [7.7933, 50.0749], [7.8796, 50.0226], [7.89, 49.9988], [8.0365, 50.0554], [8.1382, 50.0752], [8.1557, 50.1054], [8.2477, 50.1368], [8.3603, 50.1206], [8.4084, 50.0793], [8.4445, 50.1158], [8.4422, 50.1817], [8.5339, 50.2368], [8.6371, 50.2261], [8.6535, 50.3042], [8.7363, 50.3591], [8.6502, 50.418], [8.6484, 50.4779], [8.4865, 50.5418]]]}}, {"type": "Feature", "properties": {"id": "46", "name": "Odenwald und Spessart", "region": "Mitte", "refAltFt": 1800, "center": [49.637, 9.8336]}, "geometry": {"type": "Polygon", "coordinates": [[[9.0636, 50.4043], [9.3178, 50.3522], [9.5146, 50.3592], [9.6557, 50.3058], [9.6097, 50.2098], [9.6474, 50.168], [9.6762, 50.0603], [9.5837, 49.9881], [9.5934, 49.9402], [9.5749, 49.9281], [9.6034, 49.8563], [9.5759, 49.8263], [9.6408, 49.8205], [9.6411, 49.7786], [9.5857, 49.7664], [9.5859, 49.7365], [9.5304, 49.7422], [9.4212, 49.5919], [9.5416, 49.5446], [9.7353, 49.5033], [9.8642, 49.4915], [9.8826, 49.5095], [10.0023, 49.5336], [10.0576, 49.5755], [10.1591, 49.5874], [10.2796, 49.707], [10.3266, 49.8087], [10.318, 49.9105], [10.4303, 50.006], [10.4217, 50.0839], [10.4589, 50.0838], [10.4774, 50.0658], [10.4767, 49.9999], [10.4952, 49.9878], [10.7184, 49.9866], [10.8106, 49.9381], [10.8386, 49.9438], [10.8494, 50.0276], [10.8958, 50.0213], [10.8846, 49.9195], [11.0217, 49.8165], [11.0665, 49.7502], [11.1947, 49.695], [11.1941, 49.671], [11.1387, 49.6716], [11.0379, 49.7085], [11.0112, 49.7567], [10.8744, 49.8717], [10.8193, 49.9021], [10.7267, 49.9207], [10.6808, 49.9569], [10.4484, 49.958], [10.3643, 49.8924], [10.3539, 49.7487], [10.3164, 49.6709], [10.2328, 49.5873], [10.4535, 49.5207], [10.433, 49.2812], [10.3311, 49.1198], [10.3491, 49.0838], [10.4397, 49.0175], [10.4303, 48.9876], [10.3939, 48.9878], [10.2852, 49.0899], [10.3041, 49.1797], [10.3968, 49.3352], [10.4073, 49.4969], [10.1866, 49.5574], [10.0944, 49.5455], [10.0483, 49.5036], [9.9379, 49.4796], [9.9103, 49.4557], [9.7908, 49.4615], [9.7726, 49.4135], [9.6359, 49.2754], [9.4451, 49.1368], [9.3724, 49.1124], [9.3191, 49.0102], [9.3287, 48.9744], [9.2739, 48.986], [9.2732, 49.0279], [9.3353, 49.1541], [9.39, 49.1604], [9.4443, 49.2086], [9.5081, 49.2329], [9.7265, 49.4434], [9.7263, 49.4733], [9.5051, 49.5145], [9.394, 49.5558], [9.3396, 49.4956], [9.1024, 49.3861], [9.1214, 49.3503], [9.1677, 49.3267], [9.1595, 49.2727], [9.1229, 49.2724], [9.0662, 49.3558], [8.9928, 49.3552], [8.8926, 49.3243], [8.6999, 49.3282], [8.6974, 49.418], [8.6683, 49.4716], [8.6843, 49.5557], [8.655, 49.6152], [8.6529, 49.6871], [8.6245, 49.7107], [8.6666, 49.855], [8.7871, 49.8564], [8.8351, 49.791], [8.8529, 49.8211], [8.9449, 49.852], [8.9714, 49.9122], [9.0086, 49.9125], [9.0462, 49.8889], [9.1572, 49.9077], [9.1848, 49.9259], [9.1745, 49.9798], [9.1463, 49.9975], [9.0998, 49.9972], [9.0791, 50.0988], [9.1892, 50.2015], [9.1422, 50.2192], [9.113, 50.2788], [9.0658, 50.2964], [9.0463, 50.3322], [8.9991, 50.3498], [8.9979, 50.4037], [9.0636, 50.4043]]]}}, {"type": "Feature", "properties": {"id": "47", "name": "Rh\u00f6n", "region": "Mitte", "refAltFt": 2800, "center": [50.45, 9.9583]}, "geometry": {"type": "Polygon", "coordinates": [[[10.352, 50.7431], [10.3515, 50.6772], [10.4075, 50.6052], [10.4438, 50.4553], [10.3404, 50.4496], [10.3026, 50.4138], [10.049, 50.3123], [10.0022, 50.2824], [9.9089, 50.1565], [9.8436, 50.1265], [9.7504, 50.1144], [9.7133, 50.0783], [9.676, 50.0782], [9.6569, 50.1441], [9.6193, 50.1739], [9.6186, 50.2578], [9.6558, 50.2938], [9.5146, 50.3592], [9.5142, 50.3951], [9.6918, 50.5036], [9.7006, 50.5875], [9.7661, 50.6835], [9.8887, 50.7196], [9.9359, 50.7496], [9.9926, 50.8335], [10.1158, 50.8395], [10.2767, 50.8152], [10.352, 50.7431]]]}}, {"type": "Feature", "properties": {"id": "50", "name": "S\u00fcdlicher Oberrheingraben", "region": "Mitte", "refAltFt": 1100, "center": [48.2944, 7.701]}, "geometry": {"type": "Polygon", "coordinates": [[[8.2671, 48.8728], [8.251, 48.8186], [8.1714, 48.7634], [8.1551, 48.7151], [7.998, 48.5745], [7.95, 48.4298], [7.9056, 48.417], [7.8889, 48.3867], [7.8773, 48.2426], [7.827, 48.1637], [7.8734, 48.1287], [7.8936, 48.0751], [7.8624, 47.9726], [7.8089, 47.9715], [7.697, 47.8853], [7.5552, 47.6963], [7.6198, 47.6438], [7.6302, 47.6141], [7.6755, 47.5911], [7.6698, 47.5251], [7.6477, 47.5246], [7.5991, 47.5421], [7.5949, 47.5446], [7.5898, 47.5497], [7.5873, 47.5538], [7.5853, 47.5597], [7.5789, 47.5607], [7.5744, 47.5625], [7.5703, 47.5652], [7.5654, 47.5706], [7.5622, 47.5771], [7.5610, 47.5844], [7.5615, 47.5892], [7.5639, 47.5967], [7.5544, 47.6049], [7.5313, 47.6358], [7.5233, 47.6434], [7.5110, 47.6479], [7.5066, 47.6506], [7.4973, 47.6609], [7.4948, 47.6654], [7.4902, 47.6806], [7.4871, 47.7041], [7.4872, 47.7111], [7.4883, 47.7157], [7.4953, 47.7281], [7.4988, 47.7320], [7.5131, 47.7425], [7.5132, 47.7442], [7.5016, 47.7774], [7.5009, 47.7826], [7.5014, 47.7879], [7.5048, 47.8045], [7.5210, 47.8415], [7.5249, 47.8469], [7.5321, 47.8532], [7.5366, 47.8562], [7.5343, 47.8649], [7.5329, 47.8782], [7.5332, 47.8828], [7.5358, 47.8919], [7.5384, 47.8969], [7.5429, 47.9032], [7.5464, 47.9066], [7.5517, 47.9102], [7.5554, 47.9158], [7.5546, 47.9274], [7.5551, 47.9320], [7.5617, 47.9497], [7.5639, 47.9539], [7.5686, 47.9593], [7.5942, 47.9777], [7.5955, 47.9793], [7.5946, 47.9928], [7.5567, 48.0376], [7.5526, 48.0442], [7.5508, 48.0518], [7.5477, 48.0931], [7.5482, 48.1003], [7.5552, 48.1222], [7.5628, 48.1398], [7.5649, 48.1437], [7.5735, 48.1544], [7.5808, 48.1614], [7.5830, 48.1747], [7.5928, 48.1934], [7.5963, 48.1975], [7.6578, 48.2550], [7.6649, 48.2648], [7.6657, 48.2668], [7.67, 48.2623], [7.7137, 48.2872], [7.7496, 48.288], [7.7686, 48.2644], [7.8037, 48.2831], [7.7931, 48.3188], [7.7381, 48.3417], [7.728, 48.3654], [7.7527, 48.4139], [7.7414, 48.4616], [7.7343, 48.4643], [7.7387, 48.4702], [7.7438, 48.4754], [7.7449, 48.4774], [7.7475, 48.4968], [7.7496, 48.5015], [7.7559, 48.5125], [7.7589, 48.5160], [7.7624, 48.5188], [7.7744, 48.5270], [7.7821, 48.5313], [7.7787, 48.5377], [7.7768, 48.5451], [7.7769, 48.5845], [7.7861, 48.6213], [7.7878, 48.6261], [7.7923, 48.6324], [7.8379, 48.6790], [7.8561, 48.6878], [7.8716, 48.6913], [7.8819, 48.6973], [7.9096, 48.7191], [7.9234, 48.7255], [7.9333, 48.7318], [7.9391, 48.7370], [7.9402, 48.7523], [7.9413, 48.7568], [7.9500, 48.7721], [7.9555, 48.7775], [7.9623, 48.7810], [7.9787, 48.7846], [8.0028, 48.7850], [8.0045, 48.7903], [8.0085, 48.7965], [8.0148, 48.8035], [8.0258, 48.8122], [8.0329, 48.8151], [8.0429, 48.8159], [8.0745, 48.8272], [8.0822, 48.8359], [8.0911, 48.8520], [8.2671, 48.8728]]]}}, {"type": "Feature", "properties": {"id": "51", "name": "Mittlerer Oberrheingraben", "region": "Mitte", "refAltFt": 800, "center": [49.202, 8.3146]}, "geometry": {"type": "Polygon", "coordinates": [[[8.6596, 49.4535], [8.6605, 49.4236], [8.6975, 49.412], [8.6997, 49.3341], [8.7467, 49.2928], [8.7483, 49.2329], [8.7125, 49.2025], [8.7138, 49.1546], [8.6683, 49.148], [8.6693, 49.1121], [8.5873, 49.1051], [8.5086, 48.9962], [8.3664, 48.8923], [8.1493, 48.8649], [8.1388, 48.9006], [8.209, 48.9677], [8.1811, 48.9852], [8.1264, 48.9843], [7.979, 49.0236], [7.9681, 49.0654], [8.0279, 49.1624], [8.0734, 49.1692], [8.062, 49.2229], [8.0981, 49.2355], [8.1387, 49.368], [8.1738, 49.4106], [8.1589, 49.5542], [8.3436, 49.5451], [8.3719, 49.5275], [8.6126, 49.4889], [8.6596, 49.4535]]]}}, {"type": "Feature", "properties": {"id": "52", "name": "Kraichgau", "region": "Mitte", "refAltFt": 1100, "center": [49.2706, 8.9277]}, "geometry": {"type": "Polygon", "coordinates": [[[8.7151, 49.4422], [8.7176, 49.3523], [8.7639, 49.3349], [8.8556, 49.3359], [8.9833, 49.3731], [9.1027, 49.3681], [9.1033, 49.3382], [9.1403, 49.3205], [9.1406, 49.3025], [9.1774, 49.2968], [9.178, 49.2609], [9.215, 49.2432], [9.2155, 49.2132], [9.07, 49.1642], [8.924, 49.1568], [8.897, 49.1386], [8.8513, 49.1381], [8.8234, 49.1558], [8.7965, 49.1375], [8.7979, 49.0836], [8.7524, 49.0771], [8.7507, 49.143], [8.6954, 49.1603], [8.6935, 49.2262], [8.729, 49.2686], [8.682, 49.31], [8.6798, 49.3878], [8.6334, 49.4052], [8.6324, 49.4412], [8.7151, 49.4422]]]}}, {"type": "Feature", "properties": {"id": "53", "name": "Oberer und mittlerer Neckarraum", "region": "Mitte", "refAltFt": 1700, "center": [48.6128, 8.9399]}, "geometry": {"type": "Polygon", "coordinates": [[[9.7632, 49.4494], [9.6994, 49.3654], [9.5266, 49.209], [9.481, 49.1968], [9.4267, 49.1486], [9.3539, 49.1303], [9.3007, 49.0221], [9.3193, 48.9923], [9.4013, 48.9928], [9.4564, 48.9511], [9.4481, 48.8852], [9.367, 48.8368], [9.323, 48.7407], [9.4411, 48.7054], [9.4863, 48.7176], [9.6402, 48.7123], [9.7128, 48.6945], [9.722, 48.6646], [9.5145, 48.6099], [9.3618, 48.5492], [9.2368, 48.4645], [9.147, 48.4519], [9.1115, 48.4216], [9.004, 48.3967], [8.9954, 48.3787], [8.7984, 48.3467], [8.6025, 48.2844], [8.4468, 48.1025], [8.4332, 47.9705], [8.2303, 47.6677], [8.1949, 47.6671], [8.1935, 47.7031], [8.3964, 48.0059], [8.4099, 48.1379], [8.5569, 48.3078], [8.5733, 48.3619], [8.6265, 48.3866], [8.6161, 48.4344], [8.7943, 48.5084], [8.8369, 48.6107], [8.8901, 48.6532], [8.8798, 48.707], [8.8142, 48.7962], [8.7125, 48.867], [8.7273, 48.993], [8.7078, 49.0407], [8.7795, 49.0894], [8.7776, 49.1613], [9.0514, 49.182], [9.1787, 49.2249], [9.1498, 49.3026], [9.1035, 49.3262], [9.0752, 49.3679], [9.0835, 49.4099], [9.3026, 49.5074], [9.3661, 49.5737], [9.4214, 49.574], [9.5418, 49.5266], [9.763, 49.4854], [9.7632, 49.4494]]]}}, {"type": "Feature", "properties": {"id": "54", "name": "Mainfranken und N\u00f6rdliches Unterfranken", "region": "Sued", "refAltFt": 1400, "center": [50.186, 9.9114]}, "geometry": {"type": "Polygon", "coordinates": [[[10.0305, 50.8515], [10.1727, 50.8574], [10.3146, 50.8151], [10.3239, 50.7852], [10.3616, 50.7731], [10.3803, 50.7431], [10.3704, 50.6892], [10.4265, 50.6231], [10.4353, 50.5512], [10.5568, 50.4788], [10.5369, 50.383], [10.5835, 50.3588], [10.7988, 50.3395], [10.9476, 50.2785], [11.0508, 50.2896], [11.0676, 50.2055], [10.8604, 50.1174], [10.877, 50.0095], [10.8568, 49.9197], [10.7733, 49.9263], [10.6811, 49.9749], [10.4487, 49.982], [10.3364, 49.8865], [10.3449, 49.7847], [10.298, 49.683], [10.2051, 49.5813], [10.0945, 49.5635], [10.0391, 49.5216], [9.9195, 49.4976], [9.8919, 49.4736], [9.8367, 49.4735], [9.7998, 49.4914], [9.7354, 49.4853], [9.5049, 49.5324], [9.3938, 49.5738], [9.3934, 49.6038], [9.4932, 49.754], [9.5487, 49.7603], [9.5577, 49.7843], [9.6132, 49.7965], [9.5576, 49.8022], [9.5754, 49.8802], [9.5561, 49.952], [9.5648, 50.0119], [9.6204, 50.0421], [9.6388, 50.0781], [9.6289, 50.144], [9.5817, 50.2037], [9.5905, 50.2577], [9.6277, 50.2877], [9.4772, 50.347], [9.2805, 50.34], [9.0265, 50.386], [9.0173, 50.3739], [9.0646, 50.3563], [9.1124, 50.3088], [9.113, 50.2788], [9.0662, 50.2785], [9.0089, 50.3319], [8.9617, 50.3434], [8.9877, 50.4395], [9.0253, 50.4399], [9.0634, 50.4162], [9.3082, 50.3701], [9.4676, 50.371], [9.57, 50.4553], [9.6636, 50.5035], [9.6724, 50.5874], [9.7471, 50.6954], [9.8981, 50.7436], [9.9642, 50.8275], [9.9357, 50.8754], [9.9737, 50.8874], [9.9926, 50.9354], [10.0401, 50.9354], [10.0305, 50.8515]], [[10.0779, 50.8275], [10.0305, 50.8215], [9.9737, 50.7736], [9.9549, 50.7257], [9.7851, 50.6596], [9.7196, 50.5636], [9.7107, 50.4797], [9.5426, 50.3773], [9.6743, 50.3178], [9.6747, 50.2579], [9.6375, 50.2339], [9.6378, 50.1979], [9.6754, 50.1681], [9.6945, 50.1022], [9.7316, 50.1383], [9.8249, 50.1445], [9.8901, 50.1805], [10.0116, 50.3243], [10.2651, 50.4259], [10.3029, 50.4617], [10.4158, 50.4793], [10.3884, 50.5813], [10.323, 50.6594], [10.3329, 50.7192], [10.2388, 50.8033], [10.0779, 50.8275]]]}}, {"type": "Feature", "properties": {"id": "55", "name": "Kocher-Jagst-Gebiet und Frankenh\u00f6he", "region": "Sued", "refAltFt": 1900, "center": [48.8119, 9.8839]}, "geometry": {"type": "Polygon", "coordinates": [[[10.4149, 49.3112], [10.3222, 49.1557], [10.3127, 49.1018], [10.4213, 48.9996], [10.4759, 48.9874], [10.4931, 48.8915], [10.4746, 48.8557], [10.5557, 48.8014], [10.7462, 48.8002], [10.7458, 48.7763], [10.7185, 48.7705], [10.7813, 48.7281], [10.7807, 48.6922], [10.5895, 48.5975], [10.436, 48.6042], [10.3182, 48.5447], [10.1556, 48.4911], [10.1015, 48.4433], [9.9844, 48.4014], [9.9755, 48.3714], [9.8857, 48.3234], [9.8228, 48.3233], [9.8227, 48.3473], [9.9125, 48.4013], [9.9214, 48.4313], [10.0024, 48.4553], [10.1016, 48.5211], [10.2642, 48.5748], [10.4002, 48.6403], [10.5447, 48.6337], [10.7086, 48.7106], [10.6097, 48.7711], [10.501, 48.7777], [10.438, 48.8259], [10.3745, 48.8261], [10.1568, 48.8745], [10.1204, 48.8266], [10.0477, 48.7967], [9.6944, 48.7364], [9.6855, 48.7124], [9.7671, 48.6946], [9.7582, 48.6587], [9.5868, 48.6162], [9.4069, 48.5495], [9.255, 48.4527], [9.0671, 48.3913], [8.9683, 48.3844], [8.9678, 48.4084], [9.0753, 48.4333], [9.1196, 48.4696], [9.2006, 48.4762], [9.3255, 48.561], [9.6677, 48.6764], [9.6041, 48.7001], [9.4051, 48.6932], [9.3052, 48.7166], [9.3217, 48.8245], [9.3485, 48.8607], [9.4207, 48.897], [9.4293, 48.933], [9.365, 48.9806], [9.3012, 48.9862], [9.3005, 49.0341], [9.3538, 49.1363], [9.4084, 49.1486], [9.6173, 49.2993], [9.7541, 49.4374], [9.7722, 49.4914], [9.8827, 49.4736], [9.9102, 49.4976], [10.0115, 49.5156], [10.0945, 49.5695], [10.2235, 49.5693], [10.4259, 49.5208], [10.4149, 49.3112]]]}}, {"type": "Feature", "properties": {"id": "56", "name": "Mittelfranken", "region": "Sued", "refAltFt": 1700, "center": [49.3964, 10.7828]}, "geometry": {"type": "Polygon", "coordinates": [[[10.6904, 49.9748], [10.7641, 49.9324], [10.8751, 49.9076], [11.0302, 49.7805], [11.0751, 49.7202], [11.2495, 49.6704], [11.3513, 49.6753], [11.3506, 49.6513], [11.2951, 49.646], [11.3764, 49.5851], [11.3757, 49.5611], [11.4207, 49.5246], [11.4198, 49.4947], [11.3173, 49.448], [11.4513, 49.3205], [11.4467, 49.1708], [11.3073, 49.0886], [11.125, 49.0966], [10.9683, 49.0202], [10.9307, 48.9606], [10.8852, 48.961], [10.7233, 49.088], [10.6762, 48.9864], [10.7119, 48.9383], [10.7462, 48.8002], [10.6553, 48.7888], [10.5193, 48.7896], [10.4472, 48.8378], [10.4574, 48.9636], [10.4029, 48.9757], [10.4032, 49.0117], [10.3126, 49.0899], [10.3315, 49.1857], [10.4148, 49.3052], [10.4258, 49.5088], [10.2051, 49.5693], [10.2052, 49.5993], [10.2981, 49.6949], [10.3356, 49.7727], [10.3459, 49.9165], [10.4113, 49.9702], [10.6904, 49.9748]]]}}, {"type": "Feature", "properties": {"id": "57", "name": "Oberfranken", "region": "Sued", "refAltFt": 1900, "center": [49.8846, 11.4584]}, "geometry": {"type": "Polygon", "coordinates": [[[11.2741, 50.2394], [11.4052, 50.2438], [11.6064, 50.1093], [11.605, 50.0674], [11.6786, 50.0423], [11.7314, 49.9577], [11.8952, 49.8711], [11.9201, 49.7988], [11.9559, 49.7682], [12.1676, 49.7403], [12.1738, 49.6743], [12.1339, 49.6091], [12.141, 49.5611], [12.1125, 49.5436], [12.0301, 49.5571], [11.9465, 49.5407], [11.7805, 49.5374], [11.6963, 49.5028], [11.4294, 49.5065], [11.2669, 49.6283], [11.2583, 49.6524], [11.0475, 49.7264], [11.0027, 49.7927], [10.8564, 49.9018], [10.8777, 50.0454], [10.8606, 50.1294], [11.0679, 50.2175], [11.0507, 50.2836], [11.2741, 50.2394]]]}}, {"type": "Feature", "properties": {"id": "58", "name": "Frankenwald und Fichtelgebirge", "region": "Sued", "refAltFt": 2700, "center": [50.2954, 11.8346]}, "geometry": {"type": "Polygon", "coordinates": [[[12.3197, 50.007], [12.2227, 49.9251], [12.2111, 49.8773], [12.1538, 49.8425], [11.996, 49.8394], [11.9416, 49.8703], [11.84, 49.884], [11.7398, 49.9336], [11.6782, 50.0304], [11.6139, 50.0553], [11.6058, 50.0913], [11.5233, 50.1344], [11.4783, 50.1889], [11.3959, 50.2439], [11.3209, 50.2388], [11.2848, 50.2872], [11.2863, 50.3411], [11.3829, 50.4358], [11.3854, 50.5197], [11.3577, 50.538], [11.3587, 50.5739], [11.4158, 50.5912], [11.4259, 50.615], [11.379, 50.6216], [11.3334, 50.6761], [11.3346, 50.718], [11.9463, 50.6553], [12.1042, 50.5986], [12.161, 50.6035], [12.1665, 50.5195], [12.1463, 50.4899], [12.0698, 50.4613], [12.0593, 50.4376], [12.1803, 50.4113], [12.2521, 50.344], [12.2393, 50.2723], [12.2019, 50.2731], [12.203, 50.297], [12.1667, 50.3217], [12.1292, 50.3224], [12.1267, 50.2685], [12.0981, 50.2571], [12.1833, 50.2097], [12.1945, 50.1984], [12.1991, 50.1914], [12.2038, 50.1172], [12.2536, 50.0945], [12.2617, 50.0853], [12.2643, 50.0807], [12.2659, 50.0756], [12.2682, 50.0641], [12.3215, 50.0456], [12.3197, 50.007]]]}}, {"type": "Feature", "properties": {"id": "61", "name": "Schwarzwald", "region": "Mitte", "refAltFt": 4000, "center": [48.3009, 8.2705]}, "geometry": {"type": "Polygon", "coordinates": [[[8.7611, 49.0952], [8.8523, 49.0962], [8.8529, 49.0722], [8.8073, 49.0717], [8.7355, 49.029], [8.7554, 48.9633], [8.73, 48.8911], [8.841, 48.8145], [8.8974, 48.7312], [8.9175, 48.6415], [8.8556, 48.587], [8.8129, 48.4847], [8.7502, 48.472], [8.6436, 48.4168], [8.6711, 48.3991], [8.672, 48.3692], [8.592, 48.3382], [8.5756, 48.2841], [8.4286, 48.1142], [8.415, 47.9822], [8.196, 47.6372], [8.0125, 47.574], [7.9153, 47.5721], [7.7792, 47.6473], [7.6998, 47.6396], [7.6567, 47.6147], [7.6578, 47.5907], [7.6136, 47.5898], [7.6033, 47.6195], [7.5298, 47.6718], [7.528, 47.7077], [7.6781, 47.9089], [7.7727, 47.9828], [7.8262, 47.9839], [7.8603, 48.0205], [7.8565, 48.1044], [7.7921, 48.145], [7.7907, 48.1749], [7.8422, 48.2239], [7.8728, 48.3444], [7.8614, 48.3981], [7.8778, 48.4344], [7.931, 48.4534], [7.979, 48.5981], [8.0578, 48.6595], [8.1006, 48.7202], [8.1633, 48.7392], [8.1795, 48.7875], [8.2594, 48.8367], [8.2764, 48.8669], [8.3123, 48.8795], [8.4306, 48.8753], [8.41, 48.9469], [8.5171, 49.0143], [8.5607, 49.0808], [8.588, 49.0811], [8.6145, 49.1114], [8.6693, 49.1121], [8.6867, 49.1423], [8.7415, 49.1429], [8.7611, 49.0952]]]}}, {"type": "Feature", "properties": {"id": "62", "name": "Schw\u00e4bische Alb", "region": "Sued", "refAltFt": 3000, "center": [48.302, 9.2682]}, "geometry": {"type": "Polygon", "coordinates": [[[10.7354, 48.6925], [10.5807, 48.6215], [10.4181, 48.6222], [10.3002, 48.5627], [10.1376, 48.5091], [10.0024, 48.4253], [9.9574, 48.4193], [9.9305, 48.3774], [9.8497, 48.3294], [9.76, 48.3172], [9.7511, 48.2992], [9.1627, 48.0686], [9.1011, 48.0201], [9.0752, 47.972], [8.7663, 47.849], [8.7687, 47.7532], [8.7156, 47.7466], [8.6431, 47.7996], [8.5454, 47.7983], [8.5266, 47.834], [8.2396, 47.6559], [8.1865, 47.655], [8.1853, 47.6849], [8.2203, 47.6975], [8.4146, 47.9942], [8.4196, 48.1141], [8.5575, 48.2898], [8.789, 48.3646], [9.0309, 48.403], [9.2188, 48.4644], [9.3706, 48.5612], [9.5505, 48.628], [9.722, 48.6706], [9.7128, 48.6885], [9.6494, 48.7003], [9.6581, 48.7483], [10.0115, 48.8087], [10.1023, 48.8506], [10.1296, 48.8985], [10.2385, 48.8684], [10.4654, 48.8437], [10.5374, 48.7895], [10.6461, 48.7829], [10.736, 48.7284], [10.7354, 48.6925]]]}}, {"type": "Feature", "properties": {"id": "63", "name": "Fr\u00e4nkische Alb", "region": "Sued", "refAltFt": 2000, "center": [49.0817, 11.3188]}, "geometry": {"type": "Polygon", "coordinates": [[[11.8306, 49.4048], [11.9205, 49.1276], [11.9974, 49.0004], [11.8764, 48.9366], [11.7673, 48.9384], [11.6861, 48.9577], [11.6755, 48.9159], [11.6119, 48.9168], [11.5645, 48.8576], [11.5005, 48.8465], [11.3462, 48.8485], [11.3193, 48.8608], [11.2825, 48.8432], [11.2191, 48.85], [11.1818, 48.8084], [11.0908, 48.7974], [10.9447, 48.7508], [10.782, 48.776], [10.7462, 48.8002], [10.7206, 48.9082], [10.6671, 48.9865], [10.6951, 49.0342], [10.6962, 49.1121], [10.7871, 49.0875], [10.9129, 48.9847], [10.9598, 49.0502], [11.0146, 49.0557], [11.1251, 49.1026], [11.28, 49.0889], [11.4285, 49.171], [11.465, 49.1705], [11.4729, 49.1285], [11.5178, 49.1039], [11.5556, 49.1453], [11.4922, 49.1642], [11.4839, 49.1882], [11.4564, 49.1886], [11.4597, 49.2964], [11.3258, 49.4239], [11.3269, 49.4658], [11.4108, 49.5008], [11.6871, 49.5029], [11.8306, 49.4048]]]}}, {"type": "Feature", "properties": {"id": "64", "name": "Oberpf\u00e4lzer Wald", "region": "Sued", "refAltFt": 2400, "center": [49.6469, 12.378]}, "geometry": {"type": "Polygon", "coordinates": [[[12.8287, 49.3419], [12.8167, 49.2943], [12.6743, 49.2079], [12.4646, 49.2247], [12.0809, 49.4543], [12.0844, 49.5322], [12.1415, 49.573], [12.1342, 49.6151], [12.1842, 49.6981], [12.1491, 49.7407], [11.9281, 49.7687], [11.9043, 49.865], [11.9692, 49.8639], [12.0421, 49.8326], [12.1353, 49.8428], [12.2215, 49.9011], [12.2232, 49.937], [12.2612, 49.9543], [12.2624, 49.9782], [12.3208, 50.031], [12.4861, 49.9855], [12.4749, 49.9498], [12.5373, 49.9279], [12.5451, 49.9184], [12.5165, 49.8589], [12.4603, 49.8482], [12.4568, 49.7823], [12.3815, 49.76], [12.4228, 49.7314], [12.4346, 49.7204], [12.4454, 49.7141], [12.4521, 49.7111], [12.4709, 49.6981], [12.4927, 49.6976], [12.5067, 49.6928], [12.5109, 49.6904], [12.5145, 49.6872], [12.5258, 49.6727], [12.5290, 49.6650], [12.5231, 49.637], [12.5323, 49.6322], [12.5324, 49.6310], [12.5393, 49.6285], [12.5551, 49.6202], [12.5595, 49.6171], [12.592, 49.5455], [12.5972, 49.5433], [12.6036, 49.5386], [12.6091, 49.5383], [12.637, 49.5265], [12.6510, 49.4747], [12.6519, 49.4650], [12.6547, 49.4557], [12.6569, 49.4529], [12.6599, 49.442], [12.7423, 49.4125], [12.7485, 49.4071], [12.7593, 49.3916], [12.7748, 49.3613], [12.7860, 49.3573], [12.7881, 49.3558], [12.7937, 49.3545], [12.8287, 49.3419]]]}}, {"type": "Feature", "properties": {"id": "71", "name": "Bodenseeraum", "region": "Sued", "refAltFt": 2100, "center": [47.7523, 9.3935]}, "geometry": {"type": "Polygon", "coordinates": [[[9.5425, 47.5916], [9.471, 47.6572], [9.3203, 47.6683], [9.2757, 47.686], [9.2127, 47.7454], [9.0695, 47.8042], [9.0691, 47.8282], [9.0866, 47.8403], [9.1579, 47.8349], [9.4169, 47.7348], [9.5583, 47.8014], [9.5841, 47.8973], [9.6375, 47.9035], [9.6733, 47.8677], [9.6739, 47.7898], [9.621, 47.7357], [9.5949, 47.6697], [9.6044, 47.5919], [9.5425, 47.5916]]]}}, {"type": "Feature", "properties": {"id": "72", "name": "Schw\u00e4bische Hochebene", "region": "Sued", "refAltFt": 2400, "center": [48.0492, 9.8726]}, "geometry": {"type": "Polygon", "coordinates": [[[11.036, 48.3606], [10.88, 48.1822], [10.8598, 48.0506], [10.734, 48.0035], [10.6626, 47.998], [10.6534, 47.9741], [10.4302, 47.9393], [10.2784, 47.8799], [9.9405, 47.6405], [9.8167, 47.5925], [9.6664, 47.5801], [9.5954, 47.6098], [9.577, 47.6936], [9.6471, 47.8077], [9.6467, 47.8556], [9.6198, 47.8795], [9.6021, 47.8734], [9.5763, 47.7775], [9.4525, 47.723], [9.3727, 47.7226], [9.1762, 47.8051], [9.0064, 47.8516], [8.8284, 47.8557], [8.8278, 47.8797], [9.0664, 47.9659], [9.1449, 48.0624], [9.1895, 48.0688], [9.2248, 48.099], [9.6974, 48.2811], [9.7871, 48.2753], [10.1013, 48.3834], [10.2903, 48.413], [10.3537, 48.4667], [10.4442, 48.5083], [10.814, 48.5182], [10.8134, 48.4823], [10.84, 48.4581], [10.9748, 48.445], [11.0368, 48.3965], [11.036, 48.3606]]]}}, {"type": "Feature", "properties": {"id": "73", "name": "Westliche Donauniederung", "region": "Sued", "refAltFt": 1700, "center": [48.6305, 10.9169]}, "geometry": {"type": "Polygon", "coordinates": [[[12.0767, 48.939], [11.9111, 48.8941], [11.9097, 48.8581], [11.8622, 48.805], [11.697, 48.7538], [11.6404, 48.6887], [11.4853, 48.649], [11.4021, 48.5842], [11.3114, 48.5733], [11.1919, 48.4848], [11.1197, 48.4796], [11.068, 48.5879], [10.914, 48.5653], [10.9569, 48.4511], [10.822, 48.4582], [10.7959, 48.5183], [10.4803, 48.5142], [10.3083, 48.4129], [10.1193, 48.3833], [9.8678, 48.2934], [9.805, 48.2933], [9.778, 48.3113], [9.7779, 48.3352], [9.8856, 48.3534], [9.9485, 48.3894], [9.9484, 48.4133], [10.0655, 48.4553], [10.1196, 48.5031], [10.2822, 48.5568], [10.4, 48.6163], [10.5535, 48.6097], [10.7538, 48.7103], [10.6731, 48.7648], [10.6734, 48.7887], [10.7642, 48.7941], [10.8179, 48.7518], [10.981, 48.7505], [11.3008, 48.849], [11.4729, 48.8349], [11.5098, 48.8524], [11.5643, 48.8516], [11.5921, 48.8692], [11.5935, 48.9111], [11.666, 48.904], [11.6949, 48.9515], [11.8032, 48.9258], [11.858, 48.9309], [11.9883, 49.0006], [12.0522, 49.0054], [12.0767, 48.939]]]}}, {"type": "Feature", "properties": {"id": "74", "name": "S\u00fcdbayerisches H\u00fcgelland", "region": "Sued", "refAltFt": 1800, "center": [48.4514, 12.0549]}, "geometry": {"type": "Polygon", "coordinates": [[[12.7635, 48.0667], [12.7006, 48.0622], [12.5514, 48.1138], [12.3857, 48.2015], [12.1284, 48.2608], [11.8847, 48.2234], [11.334, 48.0817], [10.9757, 48.0436], [10.8686, 48.0445], [10.851, 48.0566], [10.8346, 48.1466], [10.8625, 48.2063], [10.9081, 48.2479], [10.9087, 48.2778], [10.9995, 48.3309], [11.0364, 48.3785], [10.9569, 48.4511], [10.9143, 48.5773], [11.0859, 48.5817], [11.1464, 48.4673], [11.2476, 48.5501], [11.384, 48.5844], [11.4582, 48.6493], [11.5034, 48.6487], [11.6223, 48.689], [11.6789, 48.754], [11.8347, 48.7995], [11.9197, 48.8819], [11.9207, 48.9059], [12.0219, 48.934], [12.0949, 48.9387], [12.2637, 48.8514], [12.6334, 48.8012], [12.6007, 48.7001], [12.5086, 48.6723], [12.5435, 48.6475], [12.791, 48.7014], [12.8543, 48.6998], [12.97, 48.6667], [13.2029, 48.6302], [13.439, 48.515], [13.4108, 48.372], [13.2798, 48.2981], [13.1991, 48.3005], [13.0257, 48.2575], [12.969, 48.2111], [12.888, 48.2073], [12.7665, 48.1205], [12.7635, 48.0667]]]}}, {"type": "Feature", "properties": {"id": "75", "name": "\u00d6stliche Donau- und Naabniederung", "region": "Sued", "refAltFt": 1600, "center": [48.9219, 12.6018]}, "geometry": {"type": "Polygon", "coordinates": [[[11.8355, 49.5305], [11.8421, 49.4645], [11.878, 49.44], [12.1172, 49.4417], [12.2774, 49.3306], [12.4917, 49.2181], [12.4898, 49.1822], [12.3345, 49.1856], [12.1805, 49.2187], [12.139, 49.1116], [12.2023, 49.0984], [12.2012, 49.0744], [12.1546, 49.0514], [12.1722, 49.0391], [12.4085, 49.0222], [12.5071, 48.99], [12.6797, 48.9799], [12.6986, 48.9915], [12.7805, 48.9894], [12.778, 48.9475], [12.8326, 48.9461], [12.9478, 48.8952], [12.9841, 48.8942], [12.9804, 48.8343], [13.0065, 48.8156], [13.1066, 48.8188], [13.2023, 48.7561], [13.3791, 48.6908], [13.5255, 48.7102], [13.5821, 48.6184], [13.5785, 48.5705], [13.5167, 48.5905], [13.4875, 48.5615], [13.4415, 48.551], [13.4394, 48.521], [13.3944, 48.5224], [13.1672, 48.6372], [12.8362, 48.7002], [12.5255, 48.6479], [12.5183, 48.684], [12.6013, 48.7121], [12.6331, 48.7952], [12.5528, 48.8211], [12.3535, 48.8316], [12.2276, 48.8581], [12.1743, 48.8832], [12.1574, 48.9135], [12.0855, 48.9328], [12.0431, 49.0056], [11.9632, 49.0549], [11.9291, 49.1155], [11.8568, 49.3684], [11.7316, 49.4603], [11.7524, 49.5259], [11.8355, 49.5305]]]}}, {"type": "Feature", "properties": {"id": "76", "name": "Bayerischer Wald", "region": "Sued", "refAltFt": 3300, "center": [48.9486, 13.096]}, "geometry": {"type": "Polygon", "coordinates": [[[13.82, 48.6523], [13.7953, 48.5692], [13.7488, 48.5528], [13.7375, 48.5232], [13.6659, 48.5316], [13.5789, 48.5765], [13.5816, 48.6124], [13.5169, 48.7165], [13.361, 48.6914], [13.1842, 48.7566], [13.1145, 48.8006], [13.0983, 48.8311], [13.079, 48.8136], [12.9793, 48.8164], [12.9558, 48.877], [12.9195, 48.8779], [12.8581, 48.9155], [12.7497, 48.9303], [12.7434, 48.9784], [12.6423, 48.9629], [12.4158, 48.986], [12.3715, 49.011], [12.1353, 49.0278], [12.1622, 49.219], [12.4621, 49.1768], [12.528, 49.2113], [12.6648, 49.2021], [12.7396, 49.2302], [12.7509, 49.2659], [12.8841, 49.3465], [12.9574, 49.3446], [12.9799, 49.3318], [12.9931, 49.3226], [12.9986, 49.3211], [13.0017, 49.3194], [13.0054, 49.3193], [13.0087, 49.3183], [13.0132, 49.3160], [13.0172, 49.3129], [13.0272, 49.2989], [13.0297, 49.2925], [13.0309, 49.2845], [13.0359, 49.2803], [13.0357, 49.2765], [13.1326, 49.2033], [13.1661, 49.1735], [13.1703, 49.1687], [13.1831, 49.1498], [13.1825, 49.1405], [13.2086, 49.1217], [13.2725, 49.1198], [13.28, 49.0956], [13.3247, 49.0823], [13.3321, 49.0581], [13.3851, 49.0325], [13.3916, 48.9963], [13.3631, 48.9792], [13.4532, 48.9644], [13.496, 48.9271], [13.5328, 48.9319], [13.5345, 48.9558], [13.6159, 48.9472], [13.6835, 48.879], [13.747, 48.8768], [13.7743, 48.8500], [13.8078, 48.8059], [13.821, 48.7783], [13.8206, 48.7304], [13.8153, 48.7229], [13.8160, 48.7221], [13.8205, 48.7206], [13.82, 48.6523]]]}}, {"type": "Feature", "properties": {"id": "81", "name": "Westliches Alpenvorland", "region": "Sued", "refAltFt": 3300, "center": [47.7697, 10.4867]}, "geometry": {"type": "Polygon", "coordinates": [[[10.8669, 47.9487], [10.9197, 47.9123], [10.9268, 47.8164], [10.8997, 47.7926], [10.9438, 47.7743], [11.0037, 47.6659], [10.8437, 47.6373], [10.7543, 47.5781], [10.5951, 47.5791], [10.4186, 47.6278], [10.3475, 47.5861], [10.0909, 47.5447], [9.8079, 47.5805], [9.8078, 47.6164], [9.9051, 47.6525], [10.2161, 47.88], [10.3946, 47.9514], [10.6089, 47.9863], [10.6181, 48.0103], [10.6985, 48.0158], [10.8423, 48.0747], [10.8869, 48.0683], [10.8669, 47.9487]]]}}, {"type": "Feature", "properties": {"id": "82", "name": "\u00d6stliches Alpenvorland", "region": "Sued", "refAltFt": 2500, "center": [47.8662, 11.7532]}, "geometry": {"type": "Polygon", "coordinates": [[[12.993, 47.8747], [12.9801, 47.8091], [12.9332, 47.7684], [12.8715, 47.7761], [12.7947, 47.832], [12.7236, 47.8339], [12.5076, 47.7852], [12.4366, 47.7868], [12.3667, 47.8123], [12.3131, 47.8075], [12.1238, 47.7455], [12.0794, 47.7464], [12.0008, 47.7778], [11.9387, 47.7789], [11.9202, 47.7613], [11.8583, 47.7684], [11.8219, 47.745], [11.6536, 47.7537], [11.511, 47.7379], [11.3764, 47.6857], [11.4114, 47.6673], [11.4085, 47.5655], [11.3816, 47.5539], [11.2934, 47.5609], [11.2777, 47.639], [11.2064, 47.6219], [11.0653, 47.6473], [11.056, 47.6235], [11.1522, 47.5745], [11.1418, 47.5087], [11.0791, 47.4675], [10.9909, 47.4683], [10.9813, 47.4324], [10.92, 47.451], [10.9119, 47.493], [11.0445, 47.4978], [11.0984, 47.5392], [11.0198, 47.5879], [11.0033, 47.6479], [10.8612, 47.6252], [10.754, 47.5601], [10.6658, 47.5726], [10.6661, 47.5966], [10.7369, 47.5962], [10.8085, 47.6496], [10.9686, 47.6842], [10.9163, 47.7326], [10.9168, 47.7565], [10.8727, 47.7749], [10.9015, 47.8885], [10.8487, 47.9248], [10.86, 48.0625], [10.9403, 48.0559], [11.2986, 48.0941], [11.8493, 48.2359], [12.0931, 48.2735], [12.1917, 48.2715], [12.4221, 48.2127], [12.5878, 48.1249], [12.7988, 48.0597], [12.8722, 47.9898], [12.8744, 47.9855], [12.8760, 47.9839], [12.8801, 47.9822], [12.993, 47.8747]]]}}, {"type": "Feature", "properties": {"id": "83", "name": "Allg\u00e4uer Alpen", "region": "Sued", "refAltFt": 6500, "center": [47.4881, 10.2958]}, "geometry": {"type": "Polygon", "coordinates": [[[10.4698, 47.4239], [10.3368, 47.3046], [10.2486, 47.2689], [10.1608, 47.269], [10.1609, 47.305], [10.1873, 47.3109], [10.2051, 47.3768], [10.1699, 47.3829], [10.1611, 47.3649], [10.073, 47.359], [10.0731, 47.4429], [10.0202, 47.4848], [9.9849, 47.4848], [9.9495, 47.5207], [9.9495, 47.5447], [9.9848, 47.5687], [10.1086, 47.5626], [10.144, 47.5806], [10.259, 47.5864], [10.3299, 47.6041], [10.41, 47.6518], [10.4454, 47.6517], [10.4629, 47.6276], [10.5426, 47.6273], [10.6306, 47.5908], [10.6925, 47.5905], [10.6922, 47.5665], [10.6126, 47.567], [10.5504, 47.5374], [10.4886, 47.5376], [10.4445, 47.5558], [10.4353, 47.5139], [10.4635, 47.4945], [10.4703, 47.4830], [10.4698, 47.4239]]]}}, {"type": "Feature", "properties": {"id": "84", "name": "\u00d6stliche Bayerische Alpen", "region": "Sued", "refAltFt": 6500, "center": [47.6456, 12.021]}, "geometry": {"type": "Polygon", "coordinates": [[[13.093, 47.626], [13.0455, 47.5734], [13.0307, 47.4779], [12.9252, 47.4868], [12.8405, 47.5491], [12.7963, 47.5502], [12.7902, 47.5984], [12.8089, 47.6159], [12.7415, 47.6775], [12.6172, 47.6747], [12.5799, 47.6396], [12.4908, 47.6297], [12.4233, 47.6972], [12.2543, 47.6889], [12.238, 47.7192], [12.1926, 47.6962], [12.198, 47.6181], [12.1706, 47.6007], [11.9323, 47.6173], [11.8515, 47.5887], [11.6481, 47.592], [11.5941, 47.5629], [11.5837, 47.5151], [11.4422, 47.5111], [11.3876, 47.4519], [11.3165, 47.4348], [11.2891, 47.3992], [11.2363, 47.3999], [11.2195, 47.436], [11.0952, 47.3954], [11.0159, 47.3962], [11.0164, 47.4201], [10.9637, 47.4326], [10.9377, 47.4568], [10.9382, 47.4808], [11.0441, 47.4798], [11.1247, 47.5329], [11.1253, 47.5568], [11.0813, 47.5693], [11.0292, 47.6117], [11.0303, 47.6656], [11.2246, 47.6396], [11.2695, 47.6631], [11.3049, 47.6627], [11.3218, 47.6325], [11.3117, 47.5847], [11.3644, 47.5721], [11.3914, 47.5897], [11.3749, 47.6318], [11.393, 47.6436], [11.3316, 47.6683], [11.3323, 47.6923], [11.4491, 47.7447], [11.6453, 47.7718], [11.831, 47.7509], [12.0361, 47.7712], [12.106, 47.7458], [12.3043, 47.8077], [12.402, 47.8056], [12.4718, 47.78], [12.6789, 47.829], [12.8299, 47.8251], [12.9066, 47.7691], [12.9332, 47.7684], [12.913, 47.727], [12.9651, 47.7076], [12.9935, 47.7368], [13.0289, 47.7358], [13.0949, 47.6559], [13.093, 47.626]]]}}], "updated": "2026-08-25"}