{"type":"FeatureCollection","name":"Deutschland","source":"https://github.com/isellsoap/deutschlandGeoJSON (3_mittel), vereinfacht","features":[{"type":"Feature","properties":{"name":"Deutschland"},"geometry":{"type":"MultiPolygon","coordinates":[[[[6.7597,53.5618],[6.7408,53.5565],[6.7342,53.5696],[6.7208,53.5649],[6.7225,53.5582],[6.6631,53.5776],[6.6531,53.5921],[6.6564,53.5996],[6.6308,53.5979],[6.6358,53.6132],[6.6697,53.6037],[6.7619,53.6188],[6.8114,53.6026],[6.7508,53.5954],[6.7214,53.5838],[6.7558,53.569],[6.7597,53.5618]]],[[[6.8647,53.6446],[6.9014,53.6538],[6.9092,53.6493],[6.9014,53.6479],[6.8975,53.6263],[6.8769,53.6279],[6.8647,53.6446]]],[[[6.8297,53.6365],[6.8203,53.6415],[6.8236,53.6479],[6.8481,53.6421],[6.8297,53.6365]]],[[[6.8136,53.6404],[6.8247,53.6563],[6.8414,53.6571],[6.8236,53.6479],[6.8136,53.6404]]],[[[6.8547,53.6613],[6.8742,53.6726],[7.0586,53.6846],[7.0958,53.6807],[6.8547,53.6613]]],[[[7.1653,53.6976],[7.1508,53.6974],[7.1381,53.7051],[7.1842,53.721],[7.2836,53.7163],[7.3164,53.7235],[7.3425,53.7207],[7.2714,53.7038],[7.2086,53.7062],[7.1936,53.6987],[7.1697,53.7076],[7.1653,53.6976]]],[[[8.1619,53.7296],[8.1736,53.7238],[8.1542,53.7121],[8.1342,53.7146],[8.1336,53.7232],[8.1619,53.7296]]],[[[7.3881,53.7201],[7.3603,53.7268],[7.3942,53.7346],[7.4297,53.7251],[7.3881,53.7201]]],[[[7.4847,53.7549],[7.5736,53.7574],[7.6275,53.7485],[7.5136,53.7435],[7.4947,53.7226],[7.4675,53.7271],[7.4697,53.7457],[7.4847,53.7549]]],[[[8.0092,53.7857],[8.0308,53.759],[8.0219,53.7546],[8.0225,53.7449],[7.9875,53.7701],[8.0092,53.7857]]],[[[7.6853,53.7765],[7.7064,53.7796],[7.8058,53.7746],[7.7408,53.7612],[7.6969,53.7651],[7.6808,53.7535],[7.6669,53.7588],[7.6853,53.7765]]],[[[7.9681,53.7749],[7.8758,53.7882],[7.8658,53.7738],[7.8464,53.7868],[7.8958,53.794],[7.9681,53.7749]]],[[[8.3508,53.8301],[8.3769,53.836],[8.3725,53.8285],[8.3508,53.8301]]],[[[7.8625,54.194],[7.8853,54.1888],[7.8975,54.176],[7.8914,54.1701],[7.8997,54.1701],[7.8892,54.1699],[7.8625,54.194]]],[[[7.9186,54.1899],[7.9181,54.1807],[7.9003,54.1846],[7.9186,54.1899]]],[[[8.3819,54.641],[8.3858,54.6276],[8.4036,54.6263],[8.3858,54.6237],[8.3908,54.6162],[8.4003,54.6185],[8.3953,54.6121],[8.3625,54.6085],[8.2925,54.6671],[8.3053,54.6826],[8.3569,54.7115],[8.3403,54.6987],[8.3392,54.6893],[8.3542,54.6735],[8.3614,54.6496],[8.3819,54.641]]],[[[8.3792,54.9968],[8.3536,54.9674],[8.3619,54.9568],[8.3592,54.9307],[8.3669,54.9024],[8.3814,54.8907],[8.4297,54.8776],[8.5096,54.8818],[8.4164,54.8471],[8.3775,54.8587],[8.3658,54.8754],[8.3403,54.8807],[8.3292,54.8674],[8.3297,54.8796],[8.3103,54.8743],[8.3031,54.859],[8.3325,54.8632],[8.3047,54.8582],[8.3003,54.8507],[8.2942,54.8276],[8.3003,54.8035],[8.2925,54.7885],[8.3003,54.776],[8.2942,54.7557],[8.2986,54.7421],[8.2797,54.7518],[8.2892,54.8821],[8.2981,54.9093],[8.3986,55.0529],[8.4175,55.0565],[8.4631,55.0457],[8.3992,55.0504],[8.3969,55.036],[8.4225,55.0343],[8.4425,55.016],[8.3792,54.9968]]],[[[8.6672,47.717],[8.7084,47.7156],[8.7225,47.6965],[8.6921,47.6993],[8.6743,47.6902],[8.6613,47.6952],[8.6765,47.7036],[8.6672,47.717]]],[[[8.4986,53.9313],[8.5175,53.9232],[8.5153,53.9171],[8.4875,53.914],[8.4881,53.9254],[8.4986,53.9313]]],[[[8.6825,54.0482],[8.6764,54.059],[8.6897,54.0668],[8.7014,54.0579],[8.6825,54.0482]]],[[[8.9775,54.0679],[8.9825,54.0638],[8.9664,54.0635],[8.9775,54.0679]]],[[[8.6003,54.0757],[8.5864,54.0796],[8.6119,54.0887],[8.6153,54.0838],[8.6003,54.0757]]],[[[8.4703,54.4218],[8.4497,54.4526],[8.4592,54.4685],[8.4764,54.4765],[8.4747,54.466],[8.4881,54.4538],[8.4819,54.4515],[8.5258,54.4335],[8.4897,54.4126],[8.4703,54.4218]]],[[[8.5503,54.4596],[8.5447,54.4649],[8.5503,54.4682],[8.5631,54.464],[8.5503,54.4596]]],[[[8.4692,54.5449],[8.4775,54.5462],[8.5047,54.531],[8.4919,54.5251],[8.4986,54.5057],[8.4719,54.496],[8.4647,54.5268],[8.4692,54.5449]]],[[[8.5892,54.5118],[8.5925,54.5335],[8.6253,54.5351],[8.6919,54.5571],[8.7069,54.5537],[8.7064,54.5382],[8.6719,54.4946],[8.6231,54.489],[8.5892,54.5118]]],[[[8.8236,54.5426],[8.7903,54.5515],[8.8086,54.556],[8.8369,54.5515],[8.8236,54.5426]]],[[[8.5753,54.5657],[8.5731,54.5588],[8.5492,54.5565],[8.5092,54.574],[8.5514,54.5796],[8.5753,54.5657]]],[[[8.4614,54.5743],[8.4831,54.5846],[8.4792,54.5774],[8.4914,54.576],[8.5014,54.5582],[8.4553,54.5588],[8.4614,54.5743]]],[[[8.7397,54.6354],[8.7297,54.6287],[8.7097,54.6318],[8.7136,54.6396],[8.7331,54.6443],[8.7397,54.6354]]],[[[8.5386,54.6362],[8.6075,54.6426],[8.6636,54.6618],[8.6631,54.6493],[8.6486,54.6396],[8.5842,54.6338],[8.5486,54.6171],[8.5292,54.6265],[8.5386,54.6362]]],[[[8.7219,54.6851],[8.7097,54.6721],[8.6814,54.6726],[8.7125,54.6921],[8.7219,54.6851]]],[[[8.4803,54.681],[8.3969,54.7057],[8.4003,54.724],[8.4214,54.7432],[8.5397,54.7557],[8.5836,54.7443],[8.5808,54.7299],[8.5953,54.7196],[8.5803,54.7099],[8.5669,54.6799],[8.4803,54.681]]],[[[9.5725,54.8851],[9.5519,54.8771],[9.5764,54.8888],[9.5725,54.8851]]],[[[8.7619,54.8982],[8.7658,54.9122],[8.812,54.9167],[8.8287,54.9138],[8.8314,54.9043],[8.8504,54.8931],[8.9024,54.9052],[8.9751,54.9006],[9.0472,54.8691],[9.1432,54.8708],[9.1964,54.8559],[9.2248,54.856],[9.273,54.8241],[9.2826,54.8022],[9.3163,54.8099],[9.3456,54.8035],[9.3876,54.8383],[9.4087,54.8412],[9.4397,54.8085],[9.4292,54.801],[9.4353,54.7885],[9.4381,54.8032],[9.4531,54.8076],[9.4647,54.8226],[9.4964,54.8221],[9.5158,54.8385],[9.5847,54.8649],[9.5892,54.876],[9.6136,54.876],[9.5897,54.8524],[9.6031,54.8315],[9.7714,54.7954],[9.7919,54.7974],[9.8431,54.7562],[9.8758,54.7524],[9.8931,54.7704],[9.9058,54.7637],[9.9075,54.7974],[9.9553,54.7801],[9.9769,54.7568],[9.9892,54.7165],[10.0364,54.6901],[10.0347,54.6724],[10.0225,54.6921],[9.9908,54.6815],[9.9931,54.699],[9.9831,54.7012],[9.9742,54.6935],[9.9775,54.6826],[9.9381,54.6729],[9.9331,54.6276],[9.9081,54.6346],[9.9092,54.6282],[9.8592,54.6024],[9.8364,54.5985],[9.8186,54.5849],[9.8125,54.5882],[9.8247,54.5938],[9.8047,54.5885],[9.8019,54.5796],[9.8097,54.5874],[9.8103,54.579],[9.7853,54.5732],[9.7703,54.5807],[9.7636,54.5693],[9.7686,54.5651],[9.7536,54.5585],[9.7347,54.5324],[9.7147,54.5332],[9.7197,54.5299],[9.7125,54.5196],[9.6953,54.5274],[9.6464,54.524],[9.6331,54.5143],[9.6269,54.531],[9.6042,54.5268],[9.5997,54.5229],[9.6058,54.5201],[9.5869,54.5101],[9.5453,54.5093],[9.5775,54.5004],[9.5669,54.4951],[9.5764,54.4863],[9.5742,54.4751],[9.5825,54.4779],[9.5808,54.501],[9.6242,54.5115],[9.6653,54.5062],[9.6919,54.4901],[9.7147,54.4912],[9.7003,54.5149],[9.7158,54.5174],[9.7208,54.529],[9.7264,54.5282],[9.7236,54.5204],[9.7369,54.5249],[9.7486,54.5465],[9.7708,54.5579],[9.7769,54.5529],[9.8219,54.5815],[9.8408,54.584],[9.8419,54.591],[9.9381,54.6235],[9.9453,54.6371],[9.9364,54.6507],[9.9481,54.6738],[9.9975,54.666],[10.0025,54.674],[10.0097,54.6618],[10.0342,54.6699],[10.0325,54.6621],[10.0147,54.6607],[10.0336,54.6579],[10.0275,54.5504],[9.9981,54.521],[9.9658,54.5029],[9.8647,54.4699],[9.8397,54.4762],[9.8403,54.4674],[9.8481,54.4557],[9.8686,54.4474],[9.9342,54.4607],[9.9253,54.4618],[10.1275,54.4851],[10.1992,54.456],[10.1686,54.434],[10.1903,54.4099],[10.1919,54.3899],[10.1608,54.3857],[10.1658,54.3776],[10.1481,54.3693],[10.1514,54.3629],[10.1408,54.3529],[10.1575,54.3368],[10.1319,54.3112],[10.1514,54.324],[10.1842,54.3279],[10.1703,54.3332],[10.1769,54.3343],[10.1781,54.361],[10.1958,54.3662],[10.1936,54.379],[10.2086,54.3868],[10.2281,54.4135],[10.2792,54.4176],[10.2936,54.4224],[10.2769,54.4201],[10.2903,54.4287],[10.3186,54.4357],[10.3908,54.4257],[10.4769,54.3918],[10.6036,54.3626],[10.6386,54.3476],[10.6503,54.3318],[10.6819,54.3185],[10.6831,54.3104],[10.7047,54.3049],[10.7886,54.3115],[10.9286,54.3818],[11.0225,54.3807],[10.9986,54.3749],[10.9825,54.3793],[10.9931,54.3707],[11.0258,54.3676],[11.0797,54.3774],[11.0964,54.3937],[11.1281,54.3907],[11.1264,54.3737],[11.0864,54.3565],[11.0786,54.3451],[11.0731,54.3568],[11.0586,54.3543],[11.0631,54.344],[11.0753,54.3462],[11.0747,54.3112],[11.0847,54.2818],[11.0814,54.2474],[11.0936,54.1979],[10.9536,54.1404],[10.8792,54.0885],[10.8292,54.0879],[10.8047,54.096],[10.7919,54.0749],[10.7542,54.0549],[10.7525,54.0335],[10.7853,53.9974],[10.8736,53.9893],[10.8853,53.9785],[10.8814,53.9651],[10.8908,53.9557],[10.9347,53.9646],[11.0403,54.0065],[11.1792,54.0157],[11.2147,53.9849],[11.2586,53.9849],[11.2547,53.9735],[11.2453,53.9715],[11.2408,53.9524],[11.2586,53.934],[11.2869,53.9304],[11.3353,53.9585],[11.3647,53.9351],[11.4053,53.9354],[11.4031,53.9215],[11.4381,53.9107],[11.4342,53.9015],[11.4547,53.9004],[11.4436,53.9104],[11.4814,53.9274],[11.4836,53.9685],[11.4714,53.9635],[11.4758,53.9696],[11.4669,53.9707],[11.4547,53.9574],[11.4436,53.9604],[11.4447,53.9971],[11.4281,53.9865],[11.4281,53.961],[11.3947,53.9746],[11.3864,53.9685],[11.4108,53.9663],[11.3881,53.9654],[11.3753,53.9815],[11.3781,53.9974],[11.4447,54.0213],[11.4925,54.0229],[11.4931,54.0037],[11.4786,53.9987],[11.4803,53.9815],[11.4675,53.974],[11.4869,53.9749],[11.4903,53.9682],[11.4997,53.9854],[11.4914,53.9935],[11.5108,54.0129],[11.5347,54.021],[11.5175,54.0251],[11.5192,54.0321],[11.5469,54.0251],[11.5725,54.0326],[11.5864,54.0465],[11.5814,54.0635],[11.6225,54.076],[11.6258,54.0896],[11.6131,54.1029],[11.6036,54.1026],[11.5325,54.049],[11.5347,54.0737],[11.5253,54.0718],[11.5564,54.0954],[11.6169,54.1107],[11.6825,54.1532],[11.7614,54.1546],[11.8536,54.1451],[12.0103,54.1782],[12.0875,54.1832],[12.0969,54.1699],[12.0919,54.1521],[12.1031,54.1479],[12.1069,54.156],[12.1131,54.1463],[12.1086,54.1554],[12.1164,54.1562],[12.1247,54.1501],[12.1214,54.1585],[12.1419,54.1601],[12.1364,54.1688],[12.1425,54.1724],[12.1092,54.1757],[12.1008,54.169],[12.0953,54.181],[12.1092,54.1779],[12.1281,54.1857],[12.1958,54.2429],[12.3392,54.2979],[12.4075,54.3776],[12.4519,54.404],[12.4964,54.4699],[12.5197,54.4843],[12.5303,54.4824],[12.5264,54.471],[12.5481,54.456],[12.6553,54.4426],[12.9203,54.4449],[12.9214,54.4324],[12.9292,54.4429],[12.9625,54.4376],[12.9381,54.4382],[12.9225,54.4232],[12.8758,54.4132],[12.8214,54.421],[12.8025,54.4082],[12.7886,54.4171],[12.7619,54.4129],[12.7308,54.4224],[12.7286,54.4151],[12.6742,54.4182],[12.6914,54.4246],[12.6875,54.4287],[12.6708,54.4226],[12.6639,54.4087],[12.7064,54.4121],[12.7153,54.4043],[12.6886,54.3999],[12.6936,54.3857],[12.6856,54.3777],[12.6958,54.3849],[12.6997,54.3988],[12.7153,54.3988],[12.7203,54.3729],[12.7347,54.3707],[12.7436,54.3838],[12.7542,54.3715],[12.7675,54.371],[12.7747,54.3893],[12.7869,54.3963],[12.7853,54.3796],[12.8036,54.3724],[12.8103,54.3451],[12.8786,54.3654],[12.8975,54.4018],[13.0197,54.439],[13.0353,54.4313],[13.0225,54.4174],[13.0253,54.3965],[13.0497,54.3796],[13.0803,54.3807],[13.0936,54.3668],[13.0758,54.3454],[13.0881,54.3201],[13.1119,54.3046],[13.1058,54.2818],[13.1325,54.269],[13.1531,54.2685],[13.1653,54.2776],[13.1792,54.2701],[13.1581,54.2665],[13.1431,54.2537],[13.1847,54.2665],[13.2164,54.2496],[13.2114,54.2451],[13.2164,54.241],[13.2864,54.2351],[13.3275,54.1838],[13.3464,54.1804],[13.3181,54.1599],[13.3769,54.1768],[13.4014,54.1701],[13.3953,54.181],[13.4158,54.1751],[13.4225,54.1662],[13.3814,54.1515],[13.3825,54.1424],[13.4114,54.1565],[13.4064,54.1468],[13.4364,54.1293],[13.4381,54.1113],[13.4575,54.0979],[13.4569,54.0907],[13.5008,54.0851],[13.4764,54.116],[13.4892,54.1237],[13.6281,54.1401],[13.6964,54.1718],[13.7186,54.164],[13.6953,54.1579],[13.6964,54.149],[13.7342,54.1363],[13.7497,54.1393],[13.7475,54.134],[13.7625,54.1279],[13.7575,54.119],[13.8069,54.1032],[13.7936,54.0857],[13.7903,54.0643],[13.7747,54.0604],[13.7836,54.0593],[13.7853,54.0493],[13.7442,54.0293],[13.7586,54.0279],[13.7597,54.0151],[13.7964,53.9951],[13.8347,53.9843],[13.8547,53.9643],[13.8519,53.9529],[13.8797,53.9512],[13.9142,53.9224],[13.9014,53.9099],[13.8647,53.9007],[13.8458,53.8774],[13.8236,53.8774],[13.8247,53.8662],[13.8931,53.8765],[13.9219,53.8879],[13.9375,53.9085],[13.9231,53.9504],[13.8953,53.9665],[13.9058,53.9899],[13.9653,53.9901],[13.9636,53.9732],[13.9736,53.9704],[13.9503,53.959],[13.9586,53.9532],[13.9531,53.9346],[13.9597,53.934],[13.9708,53.9499],[13.9631,53.9574],[13.9836,53.9626],[14.0253,53.9621],[14.0125,53.9493],[14.0425,53.9421],[14.0347,53.9501],[14.0464,53.9738],[14.0469,53.9965],[14.0297,54.0176],[14.0036,54.0107],[13.9969,54.0412],[13.9686,54.0593],[13.9742,54.0638],[13.9492,54.0588],[13.9108,54.0643],[13.9175,54.0596],[13.9086,54.0429],[13.9153,54.0474],[13.9242,54.0354],[13.8997,54.0121],[13.8669,54.0074],[13.8625,53.9993],[13.8531,54.004],[13.8531,54.0137],[13.8792,54.0401],[13.8581,54.0485],[13.8203,54.0368],[13.8014,54.0185],[13.7692,54.019],[13.7636,54.031],[13.7903,54.0488],[13.7875,54.0565],[13.7975,54.0621],[13.8125,54.099],[13.8058,54.1096],[13.7782,54.1182],[13.7875,54.1101],[13.7719,54.1146],[13.7686,54.1265],[13.7745,54.1214],[13.7736,54.1321],[13.7575,54.1346],[13.7492,54.159],[13.7653,54.1701],[13.8097,54.1743],[13.8036,54.1785],[13.8125,54.1774],[13.8358,54.1282],[13.8708,54.1015],[13.9319,54.0754],[14.0142,54.0543],[14.1831,53.9463],[14.2214,53.9301],[14.1863,53.9156],[14.2095,53.9032],[14.2173,53.8654],[14.1892,53.8726],[14.0386,53.8735],[13.9908,53.8479],[13.8986,53.8396],[13.8264,53.8496],[13.8219,53.8571],[13.8292,53.8568],[13.8308,53.8651],[13.8064,53.8582],[13.8186,53.8418],[13.8486,53.8438],[13.8681,53.836],[13.8736,53.821],[13.9008,53.8026],[13.9169,53.8063],[13.9725,53.7721],[14.0386,53.7551],[14.0614,53.7551],[14.1014,53.7401],[14.1636,53.7429],[14.1758,53.7354],[14.2336,53.7618],[14.2831,53.7388],[14.2681,53.7365],[14.2531,53.7201],[14.2153,53.7026],[14.2447,53.6937],[14.2732,53.6993],[14.2847,53.6726],[14.2709,53.6628],[14.2916,53.6595],[14.2893,53.6338],[14.3249,53.6186],[14.3185,53.593],[14.311,53.5927],[14.3153,53.5613],[14.3078,53.5609],[14.3027,53.5426],[14.3184,53.5389],[14.3252,53.53],[14.3182,53.5228],[14.3354,53.5004],[14.3481,53.5002],[14.3597,53.489],[14.3637,53.4595],[14.3756,53.4594],[14.3736,53.4262],[14.4009,53.378],[14.3997,53.3595],[14.3931,53.3559],[14.4108,53.3482],[14.4202,53.3256],[14.4141,53.3113],[14.4233,53.2779],[14.4441,53.2766],[14.4489,53.2616],[14.4065,53.2229],[14.4077,53.214],[14.3789,53.2042],[14.3747,53.1807],[14.3671,53.1803],[14.3702,53.1579],[14.3863,53.1497],[14.3881,53.1363],[14.3807,53.1359],[14.3825,53.1148],[14.3693,53.1082],[14.3745,53.0965],[14.3643,53.0899],[14.3661,53.0765],[14.3587,53.0761],[14.3599,53.0671],[14.3457,53.0529],[14.3115,53.0376],[14.2984,53.0235],[14.2835,53.0226],[14.2705,53.0084],[14.2036,52.9892],[14.1425,52.9611],[14.1559,52.8796],[14.1226,52.8549],[14.1213,52.8403],[14.1389,52.8255],[14.2141,52.8204],[14.2727,52.7783],[14.3414,52.7593],[14.3815,52.7252],[14.3984,52.7215],[14.4211,52.687],[14.4559,52.6793],[14.4662,52.6573],[14.4809,52.658],[14.5519,52.6254],[14.5666,52.6261],[14.6062,52.6055],[14.6084,52.5888],[14.6164,52.5834],[14.6391,52.58],[14.6334,52.5662],[14.6125,52.5562],[14.608,52.5334],[14.6006,52.533],[14.6085,52.5289],[14.6108,52.511],[14.6312,52.4991],[14.6204,52.4934],[14.6215,52.4844],[14.6055,52.4818],[14.6046,52.4667],[14.5925,52.463],[14.592,52.4555],[14.5432,52.4375],[14.5417,52.4112],[14.5289,52.3964],[14.5517,52.377],[14.55,52.35],[14.5601,52.3283],[14.5844,52.3111],[14.5855,52.3021],[14.5713,52.2971],[14.5709,52.2896],[14.6419,52.2633],[14.6847,52.2597],[14.6996,52.2411],[14.692,52.2112],[14.6753,52.2037],[14.6947,52.1739],[14.6715,52.1514],[14.675,52.1253],[14.6693,52.1216],[14.6893,52.0993],[14.7159,52.0957],[14.7413,52.0734],[14.7297,52.0621],[14.734,52.0472],[14.7216,52.0248],[14.7097,52.0098],[14.6989,52.0098],[14.7027,51.9874],[14.6916,51.9836],[14.6905,51.9687],[14.7059,51.9576],[14.7048,51.9427],[14.6881,51.9351],[14.6926,51.9239],[14.6805,51.9052],[14.6518,51.8855],[14.6529,51.8765],[14.6045,51.8561],[14.6056,51.8471],[14.585,51.8371],[14.5928,51.8329],[14.5867,51.8236],[14.5939,51.824],[14.5962,51.806],[14.6484,51.7951],[14.655,51.7412],[14.6622,51.7416],[14.6561,51.7322],[14.6788,51.7243],[14.6804,51.7108],[14.7239,51.6892],[14.718,51.6817],[14.7288,51.6817],[14.7387,51.6669],[14.7324,51.6556],[14.746,51.611],[14.7108,51.5847],[14.716,51.581],[14.6981,51.5585],[14.7287,51.5507],[14.7314,51.5282],[14.7391,51.5241],[14.7866,51.5219],[14.8503,51.4926],[14.9104,51.4932],[14.91,51.4857],[14.9339,51.4823],[14.9566,51.4532],[14.9638,51.4535],[14.9653,51.4401],[14.9725,51.4404],[14.9591,51.4308],[14.9622,51.4038],[14.9695,51.4032],[14.9627,51.3993],[14.9648,51.3814],[14.9796,51.3775],[14.9678,51.3544],[14.9993,51.3315],[15.0046,51.3168],[15.0285,51.3098],[15.0223,51.306],[15.0339,51.2951],[15.0381,51.2403],[15.0177,51.2303],[15.0126,51.212],[15.0055,51.2117],[15.0029,51.1709],[14.9898,51.16],[14.9967,51.1354],[14.986,51.1295],[14.9875,51.116],[14.9738,51.1109],[14.9753,51.0974],[14.9828,51.0945],[14.9758,51.0929],[14.9773,51.0794],[14.9507,51.057],[14.9501,51.0422],[14.9377,51.0383],[14.9435,51.031],[14.9332,51.0277],[14.9301,50.9914],[14.9164,50.9862],[14.918,50.9728],[14.9038,50.9721],[14.9048,50.9631],[14.8977,50.9628],[14.9033,50.9527],[14.8784,50.9448],[14.8714,50.9262],[14.8527,50.9222],[14.8524,50.9148],[14.8204,50.892],[14.8257,50.8735],[14.8057,50.8437],[14.8051,50.8289],[14.7109,50.8268],[14.7175,50.8343],[14.7124,50.8408],[14.6119,50.8548],[14.6065,50.8621],[14.6254,50.8841],[14.6263,50.8988],[14.6538,50.9147],[14.6517,50.9326],[14.6299,50.9361],[14.6239,50.9267],[14.6032,50.9212],[14.5601,50.9235],[14.5912,50.9612],[14.5901,50.9702],[14.5972,50.9706],[14.5951,50.9885],[14.5614,51.0062],[14.5298,51.0017],[14.5399,51.0143],[14.5024,51.0168],[14.4968,51.0332],[14.5039,51.0335],[14.5017,51.0515],[14.4922,51.0465],[14.4976,51.0413],[14.4907,51.0204],[14.4709,51.0194],[14.4619,51.0313],[14.4488,51.0307],[14.3974,51.0083],[14.3675,51.0151],[14.3699,51.0269],[14.3529,51.0343],[14.3193,51.0253],[14.303,51.0401],[14.3054,51.0523],[14.294,51.0542],[14.281,51.0444],[14.2773,51.0171],[14.2566,51.0115],[14.2654,50.9984],[14.2477,50.9947],[14.253,50.9837],[14.2469,50.9732],[14.2813,50.965],[14.3111,50.9719],[14.3213,50.9517],[14.4009,50.9423],[14.4026,50.9289],[14.3896,50.9192],[14.3913,50.9057],[14.3723,50.8886],[14.3369,50.8889],[14.2949,50.8748],[14.2545,50.8864],[14.2424,50.8758],[14.225,50.8762],[14.2242,50.8617],[14.2119,50.8474],[14.1416,50.8347],[14.0767,50.8146],[14.0585,50.8005],[14.0414,50.8047],[14.0234,50.7942],[13.9839,50.8102],[13.9546,50.8037],[13.9477,50.7855],[13.8955,50.7835],[13.8825,50.7616],[13.8987,50.743],[13.8648,50.741],[13.8508,50.7182],[13.8216,50.7154],[13.7934,50.7274],[13.7587,50.7285],[13.6905,50.7172],[13.6668,50.7339],[13.62,50.713],[13.549,50.7132],[13.5481,50.7057],[13.5363,50.7024],[13.5458,50.6722],[13.5144,50.6568],[13.5151,50.6471],[13.5267,50.6467],[13.526,50.6355],[13.4903,50.6255],[13.4652,50.5965],[13.4137,50.6131],[13.4039,50.6364],[13.3749,50.6437],[13.3795,50.6254],[13.3238,50.6024],[13.3268,50.5818],[13.2923,50.5751],[13.2836,50.5911],[13.2486,50.5923],[13.2352,50.5669],[13.223,50.5595],[13.2268,50.5392],[13.1968,50.5155],[13.196,50.5006],[13.1373,50.5024],[13.1339,50.5151],[13.0914,50.4988],[13.0333,50.5085],[13.0311,50.4767],[13.0241,50.4762],[13.0282,50.4494],[12.9953,50.4336],[12.9966,50.4246],[12.977,50.4143],[12.9358,50.407],[12.8288,50.4586],[12.8099,50.4437],[12.8124,50.4326],[12.7916,50.447],[12.7614,50.4404],[12.7185,50.4199],[12.7061,50.409],[12.7051,50.3978],[12.678,50.4173],[12.6545,50.4105],[12.6151,50.4192],[12.6028,50.4085],[12.5161,50.4001],[12.4919,50.3823],[12.4851,50.3675],[12.4931,50.3492],[12.4582,50.3467],[12.445,50.3412],[12.4411,50.3229],[12.4061,50.3203],[12.4076,50.3113],[12.4007,50.3108],[12.4098,50.2979],[12.3641,50.2764],[12.3655,50.2675],[12.3586,50.267],[12.3638,50.2357],[12.3352,50.2381],[12.3397,50.2113],[12.3266,50.2057],[12.3345,50.2017],[12.3285,50.1945],[12.3169,50.1945],[12.3276,50.1797],[12.2827,50.1827],[12.2829,50.1941],[12.2663,50.2051],[12.2779,50.2089],[12.2844,50.2274],[12.2731,50.2275],[12.2792,50.2349],[12.2342,50.2533],[12.2405,50.2645],[12.2575,50.2571],[12.2529,50.2757],[12.1949,50.2791],[12.1902,50.2983],[12.1972,50.3163],[12.1877,50.3179],[12.1941,50.3229],[12.1312,50.3182],[12.125,50.3132],[12.1296,50.2863],[12.1372,50.2821],[12.1088,50.2743],[12.0859,50.2554],[12.1004,50.2516],[12.1018,50.2434],[12.1157,50.2445],[12.1172,50.2355],[12.1605,50.2297],[12.1625,50.218],[12.1989,50.1956],[12.2103,50.1652],[12.1934,50.146],[12.1991,50.1118],[12.2612,50.0921],[12.2727,50.078],[12.256,50.0623],[12.3158,50.0599],[12.3257,50.0425],[12.3472,50.0395],[12.3472,50.0319],[12.3644,50.0204],[12.437,50.0053],[12.4323,49.9913],[12.4683,49.9959],[12.4753,49.9854],[12.4891,49.9864],[12.4972,49.9725],[12.4866,49.959],[12.4728,49.958],[12.4757,49.9401],[12.5477,49.9271],[12.5513,49.9047],[12.5197,49.8843],[12.5193,49.864],[12.5026,49.8605],[12.5015,49.8388],[12.4842,49.8429],[12.4726,49.8358],[12.4783,49.832],[12.4781,49.8173],[12.4683,49.8138],[12.4721,49.7903],[12.4087,49.7662],[12.4029,49.7552],[12.4198,49.7329],[12.4312,49.7328],[12.4438,49.7069],[12.4797,49.7002],[12.4993,49.6881],[12.5279,49.6878],[12.5336,49.6678],[12.5205,49.6487],[12.5316,49.6434],[12.5254,49.6324],[12.5367,49.6286],[12.5339,49.6225],[12.5648,49.6245],[12.5588,49.6172],[12.5804,49.591],[12.5739,49.5727],[12.5881,49.544],[12.5962,49.5363],[12.6458,49.5311],[12.6458,49.4855],[12.6328,49.48],[12.654,49.4634],[12.6611,49.4322],[12.7104,49.4266],[12.7118,49.4176],[12.7597,49.4003],[12.7591,49.3818],[12.7823,49.3637],[12.7841,49.3519],[12.8483,49.3474],[12.8763,49.3359],[12.8827,49.3395],[12.8767,49.3545],[12.9529,49.3483],[12.9932,49.3285],[12.9986,49.3172],[13.0104,49.3168],[13.0101,49.3094],[13.0336,49.3086],[13.0379,49.2677],[13.0614,49.267],[13.061,49.2559],[13.0958,49.2436],[13.0925,49.2263],[13.1143,49.2187],[13.1175,49.1963],[13.1386,49.1932],[13.1623,49.1721],[13.1805,49.1743],[13.1862,49.1554],[13.1802,49.1444],[13.2143,49.1212],[13.2441,49.1141],[13.2959,49.1202],[13.3394,49.0972],[13.3605,49.0747],[13.3769,49.0707],[13.382,49.0596],[13.4037,49.0518],[13.4072,49.0111],[13.4128,49.0111],[13.4068,48.9888],[13.4224,48.9814],[13.4016,48.9839],[13.4226,48.9807],[13.4238,48.9718],[13.4374,48.9726],[13.4454,48.9641],[13.459,48.9649],[13.4676,48.9519],[13.4812,48.9528],[13.4966,48.9402],[13.5095,48.9455],[13.5102,48.9682],[13.5885,48.9686],[13.5981,48.9478],[13.6313,48.9506],[13.625,48.9397],[13.653,48.8956],[13.6665,48.8965],[13.6713,48.8831],[13.7231,48.8818],[13.7329,48.8888],[13.7324,48.8814],[13.7513,48.8745],[13.7628,48.839],[13.79,48.8316],[13.7947,48.8205],[13.7889,48.817],[13.81,48.8016],[13.8042,48.7826],[13.836,48.7751],[13.8179,48.76],[13.8104,48.7354],[13.7987,48.7285],[13.8043,48.7283],[13.7871,48.7215],[13.8145,48.7028],[13.8163,48.6603],[13.8101,48.6538],[13.8257,48.6412],[13.8158,48.611],[13.8013,48.5967],[13.8099,48.5909],[13.8021,48.5769],[13.7804,48.5717],[13.7633,48.5568],[13.7579,48.5671],[13.7509,48.5621],[13.7518,48.5515],[13.7424,48.5489],[13.746,48.5356],[13.7211,48.5168],[13.6616,48.538],[13.6476,48.554],[13.5944,48.5761],[13.5672,48.5657],[13.5195,48.5962],[13.5032,48.5965],[13.497,48.5856],[13.502,48.5781],[13.485,48.5674],[13.4743,48.5713],[13.4738,48.5639],[13.4573,48.5606],[13.4471,48.5718],[13.4357,48.5647],[13.4351,48.5536],[13.4507,48.5422],[13.4444,48.5276],[13.4545,48.5163],[13.4239,48.4608],[13.4367,48.4294],[13.4106,48.3777],[13.2857,48.3052],[13.2471,48.2961],[13.1849,48.2986],[13.1413,48.2855],[13.0906,48.2814],[13.0209,48.2604],[12.9632,48.2169],[12.8682,48.2037],[12.856,48.1768],[12.8389,48.1694],[12.8386,48.1619],[12.8035,48.1516],[12.7871,48.1285],[12.7649,48.1359],[12.7645,48.1247],[12.753,48.1173],[12.7575,48.0876],[12.8597,48.0205],[12.8813,47.961],[12.9115,47.959],[12.922,47.9399],[12.9389,47.9428],[13.0011,47.8522],[12.9657,47.8027],[12.9377,47.7855],[12.9493,47.775],[12.9364,47.7565],[12.9238,47.7534],[12.9113,47.7312],[12.9307,47.719],[12.9515,47.7216],[12.9565,47.7137],[12.9888,47.7129],[13.0096,47.7299],[13.0435,47.721],[13.063,47.6994],[13.0816,47.6914],[13.0781,47.6717],[13.1056,47.6392],[13.0661,47.6075],[13.0765,47.5875],[13.0479,47.5848],[13.0534,47.5657],[13.0648,47.5652],[13.0364,47.5366],[13.0533,47.517],[13.0538,47.4949],[13.0241,47.4801],[13.0135,47.4658],[12.9791,47.4887],[12.9792,47.477],[12.9699,47.4771],[12.9131,47.4967],[12.8848,47.5244],[12.8516,47.5323],[12.8459,47.5523],[12.8229,47.5504],[12.7998,47.5615],[12.7813,47.5815],[12.7989,47.6068],[12.8267,47.6163],[12.7711,47.6451],[12.7646,47.6576],[12.7791,47.6622],[12.7828,47.6759],[12.761,47.6654],[12.7367,47.6822],[12.674,47.6848],[12.653,47.6742],[12.6277,47.683],[12.6053,47.6792],[12.5773,47.6345],[12.5324,47.639],[12.5061,47.6289],[12.4667,47.6541],[12.4403,47.6814],[12.436,47.7007],[12.3655,47.6863],[12.3297,47.6954],[12.2588,47.6762],[12.248,47.6912],[12.2705,47.7287],[12.2543,47.74],[12.2319,47.7138],[12.2098,47.7026],[12.1744,47.6989],[12.2166,47.6246],[12.2209,47.6099],[12.2093,47.6012],[12.1875,47.6013],[12.1876,47.6087],[12.1489,47.6017],[12.0884,47.6061],[12.0719,47.6138],[12.0388,47.6141],[12.0388,47.6067],[12.0278,47.6068],[12.0168,47.6218],[11.9837,47.611],[11.9231,47.6116],[11.8625,47.5975],[11.8569,47.5791],[11.7963,47.5834],[11.7792,47.5872],[11.7769,47.5949],[11.6677,47.5863],[11.6363,47.5983],[11.6254,47.5779],[11.6143,47.578],[11.6088,47.5633],[11.593,47.5529],[11.5976,47.5227],[11.581,47.5118],[11.5259,47.5087],[11.5148,47.5014],[11.4872,47.5091],[11.454,47.5057],[11.4485,47.5168],[11.4374,47.5133],[11.388,47.4719],[11.4139,47.4655],[11.4241,47.4456],[11.3416,47.4518],[11.3245,47.4361],[11.2939,47.4302],[11.2906,47.3988],[11.2739,47.391],[11.2241,47.3913],[11.2574,47.4261],[11.2461,47.4348],[11.1512,47.4236],[11.1105,47.3972],[10.9775,47.3961],[10.9649,47.406],[10.9787,47.4141],[10.9785,47.4221],[10.9219,47.4621],[10.9265,47.4781],[10.863,47.478],[10.8704,47.5021],[10.9186,47.5161],[10.8977,47.5201],[10.8831,47.5381],[10.8453,47.5358],[10.772,47.5161],[10.7464,47.5394],[10.6914,47.5458],[10.6862,47.5601],[10.6268,47.5617],[10.6001,47.5737],[10.5814,47.5587],[10.5753,47.5415],[10.5614,47.5359],[10.4911,47.545],[10.4534,47.561],[10.4777,47.5885],[10.4322,47.5856],[10.4334,47.572],[10.4518,47.5576],[10.4364,47.5269],[10.4332,47.4977],[10.4384,47.4882],[10.4628,47.4872],[10.4716,47.4331],[10.4358,47.4155],[10.4229,47.3905],[10.4336,47.3787],[10.4173,47.3828],[10.39,47.3754],[10.3842,47.3561],[10.3511,47.3333],[10.3453,47.3139],[10.3232,47.3026],[10.285,47.2954],[10.2747,47.2845],[10.2632,47.2881],[10.2316,47.2699],[10.1976,47.2773],[10.1702,47.2699],[10.1647,47.2736],[10.1707,47.2924],[10.1925,47.2965],[10.2091,47.3117],[10.1931,47.3267],[10.2317,47.3725],[10.2269,47.3929],[10.2098,47.3795],[10.1785,47.3935],[10.1607,47.3672],[10.1173,47.3739],[10.096,47.3549],[10.0807,47.3916],[10.0843,47.3997],[10.0688,47.4117],[10.0948,47.4185],[10.1008,47.4317],[10.0908,47.4566],[10.0666,47.4557],[10.0499,47.4669],[10.0439,47.4893],[9.9973,47.4862],[9.9922,47.5068],[9.9612,47.523],[9.9712,47.5505],[9.9551,47.5369],[9.9206,47.532],[9.9061,47.5456],[9.881,47.5485],[9.8737,47.5307],[9.8131,47.5507],[9.8239,47.5631],[9.8181,47.5889],[9.8015,47.5972],[9.7742,47.5968],[9.7472,47.5742],[9.7474,47.559],[9.7356,47.5414],[9.7146,47.5517],[9.6887,47.544],[9.6892,47.5572],[9.6199,47.5719],[9.6057,47.5884],[9.5573,47.5892],[9.5373,47.6056],[9.5205,47.6397],[9.4987,47.6528],[9.4697,47.6518],[9.418,47.6699],[9.3562,47.664],[9.3152,47.677],[9.2524,47.7084],[9.2339,47.7251],[9.2244,47.7482],[9.1411,47.7765],[9.0672,47.8199],[9.044,47.8237],[9.032,47.8127],[9.0714,47.7835],[9.177,47.7378],[9.184,47.7096],[9.2129,47.69],[9.2211,47.6682],[9.1876,47.6693],[9.1858,47.6577],[9.1673,47.6622],[9.1641,47.6536],[9.1044,47.6899],[9.1117,47.695],[9.1038,47.7049],[8.9916,47.748],[8.9863,47.7425],[9.0101,47.7302],[8.9613,47.742],[8.9414,47.7318],[8.9967,47.7103],[9.0064,47.6951],[8.9419,47.662],[8.8918,47.6552],[8.8789,47.6587],[8.8704,47.6791],[8.8539,47.6838],[8.8559,47.6999],[8.8757,47.6974],[8.8741,47.7076],[8.8487,47.7059],[8.8447,47.7163],[8.8234,47.7156],[8.8244,47.7215],[8.8082,47.7292],[8.8082,47.7417],[8.7712,47.7198],[8.7728,47.7115],[8.8081,47.6992],[8.7974,47.6904],[8.7981,47.6799],[8.7279,47.6968],[8.7375,47.7212],[8.7134,47.7356],[8.7247,47.7498],[8.7423,47.7528],[8.7304,47.7661],[8.7141,47.7708],[8.6903,47.7629],[8.683,47.7915],[8.6563,47.8058],[8.6461,47.7965],[8.6487,47.771],[8.6298,47.766],[8.6168,47.7895],[8.6198,47.804],[8.5778,47.8068],[8.568,47.8144],[8.5623,47.8],[8.5762,47.7891],[8.4877,47.7797],[8.4727,47.7701],[8.4526,47.7462],[8.4543,47.7297],[8.4057,47.7063],[8.4196,47.6894],[8.4044,47.68],[8.4455,47.6594],[8.4667,47.6616],[8.4662,47.6487],[8.4737,47.6434],[8.4763,47.6547],[8.4919,47.6475],[8.5338,47.651],[8.5288,47.6647],[8.5516,47.6734],[8.579,47.6676],[8.6071,47.676],[8.6295,47.6523],[8.6172,47.6418],[8.6043,47.6432],[8.6152,47.6493],[8.6089,47.6566],[8.5968,47.6472],[8.6059,47.6169],[8.5847,47.6003],[8.5615,47.6037],[8.5728,47.6163],[8.5591,47.6276],[8.5209,47.6381],[8.5057,47.6215],[8.4585,47.606],[8.4688,47.5882],[8.4916,47.5913],[8.4956,47.5852],[8.4885,47.5814],[8.4234,47.5708],[8.3974,47.5802],[8.3795,47.5703],[8.3246,47.5763],[8.2965,47.5935],[8.2902,47.6141],[8.256,47.6203],[8.225,47.6115],[8.2166,47.6238],[8.2029,47.6262],[8.1656,47.6003],[8.1073,47.5875],[8.0985,47.566],[8.0878,47.5629],[8.0685,47.5705],[8.0206,47.5564],[7.9582,47.5642],[7.9441,47.5497],[7.912,47.5564],[7.9093,47.5783],[7.8907,47.5936],[7.8401,47.5889],[7.8208,47.5947],[7.7931,47.5638],[7.7191,47.5489],[7.696,47.5374],[7.6695,47.5371],[7.6324,47.5624],[7.6798,47.5709],[7.6641,47.5879],[7.6706,47.5933],[7.6392,47.597],[7.6189,47.5809],[7.6078,47.581],[7.5674,47.6317],[7.5247,47.6602],[7.5121,47.6961],[7.5439,47.7226],[7.5486,47.7354],[7.5302,47.7834],[7.5624,47.841],[7.5577,47.8809],[7.5825,47.8983],[7.5826,47.9299],[7.6222,47.9737],[7.6086,48.0003],[7.5686,48.0363],[7.5779,48.1214],[7.5989,48.1354],[7.5995,48.1556],[7.6418,48.204],[7.6662,48.2211],[7.6939,48.3021],[7.7452,48.3298],[7.731,48.3822],[7.7335,48.3987],[7.7662,48.464],[7.7669,48.4868],[7.8052,48.5135],[7.8002,48.5832],[7.8359,48.6337],[7.845,48.6455],[7.8963,48.6672],[7.9617,48.7203],[7.9702,48.7562],[8.0175,48.7628],[8.0319,48.7881],[8.0624,48.7892],[8.087,48.802],[8.1011,48.8158],[8.1416,48.8961],[8.1974,48.9571],[8.2289,48.9706],[8.0914,48.9893],[8.0511,49.0128],[7.9763,49.0283],[7.937,49.0562],[7.9153,49.0419],[7.885,49.0468],[7.8674,49.0335],[7.7999,49.0642],[7.7665,49.0467],[7.7322,49.0444],[7.7306,49.0545],[7.6958,49.0563],[7.6971,49.0498],[7.6711,49.046],[7.6353,49.0542],[7.6274,49.0734],[7.5998,49.083],[7.5685,49.0799],[7.5312,49.0971],[7.5178,49.1188],[7.4896,49.1365],[7.5036,49.1505],[7.4913,49.1685],[7.4373,49.1646],[7.4456,49.184],[7.3662,49.172],[7.3628,49.1452],[7.326,49.1434],[7.2934,49.1152],[7.2454,49.1297],[7.2111,49.1249],[7.1983,49.1152],[7.1849,49.1296],[7.1588,49.1208],[7.1249,49.1412],[7.1042,49.1387],[7.1109,49.1503],[7.0982,49.1543],[7.0832,49.1513],[7.09,49.1323],[7.058,49.1126],[7.0459,49.1182],[7.0458,49.1388],[7.0283,49.1713],[7.0337,49.1883],[7.0131,49.1886],[6.9766,49.2086],[6.9576,49.2038],[6.9243,49.2231],[6.8943,49.2102],[6.8584,49.2216],[6.8404,49.2142],[6.8609,49.1786],[6.8447,49.1729],[6.8477,49.1574],[6.8345,49.1514],[6.7841,49.1681],[6.738,49.1646],[6.7128,49.1896],[6.7306,49.2067],[6.7221,49.2194],[6.6929,49.2175],[6.6843,49.2521],[6.6615,49.2573],[6.6678,49.2804],[6.6532,49.2811],[6.616,49.3027],[6.5889,49.3221],[6.5921,49.3336],[6.5787,49.3351],[6.5654,49.3493],[6.5696,49.3577],[6.5872,49.3517],[6.5993,49.3666],[6.586,49.3713],[6.584,49.3847],[6.5405,49.4011],[6.5384,49.411],[6.5546,49.419],[6.5354,49.4342],[6.4318,49.4745],[6.3676,49.4665],[6.3689,49.4598],[6.3548,49.465],[6.3663,49.4684],[6.3649,49.5069],[6.3725,49.5092],[6.3594,49.5307],[6.3782,49.548],[6.3795,49.5586],[6.3636,49.574],[6.3813,49.5743],[6.3793,49.5965],[6.4174,49.6175],[6.437,49.6523],[6.4241,49.6663],[6.4615,49.6948],[6.4896,49.7035],[6.5032,49.7157],[6.5007,49.729],[6.5165,49.7242],[6.4979,49.7348],[6.5106,49.735],[6.502,49.7485],[6.5188,49.7637],[6.5177,49.7851],[6.5069,49.7901],[6.5283,49.8086],[6.5243,49.8131],[6.5083,49.802],[6.4721,49.8221],[6.448,49.8131],[6.4052,49.82],[6.363,49.854],[6.3424,49.8511],[6.3302,49.8364],[6.3123,49.8355],[6.3167,49.8506],[6.3036,49.8612],[6.3092,49.8652],[6.2863,49.864],[6.2798,49.8749],[6.2566,49.8779],[6.2369,49.8924],[6.2192,49.9516],[6.1984,49.956],[6.1905,49.9712],[6.179,49.9603],[6.1686,49.9651],[6.1757,49.9541],[6.1632,49.954],[6.1546,49.9833],[6.1609,49.9834],[6.1287,49.994],[6.14,50.0089],[6.1207,50.016],[6.1326,50.0235],[6.1195,50.0307],[6.1252,50.0382],[6.1118,50.049],[6.1109,50.0601],[6.0984,50.0599],[6.1163,50.0712],[6.1157,50.0785],[6.11,50.0711],[6.1035,50.0747],[6.1083,50.0932],[6.1264,50.1008],[6.1184,50.1228],[6.1305,50.1266],[6.1299,50.134],[6.1498,50.1374],[6.1535,50.1496],[6.1353,50.1547],[6.1464,50.1739],[6.1574,50.1712],[6.1568,50.1773],[6.1896,50.1895],[6.1704,50.2363],[6.2028,50.2548],[6.2756,50.2654],[6.2793,50.2916],[6.2911,50.2958],[6.29,50.3069],[6.3022,50.3074],[6.3012,50.3185],[6.3414,50.3228],[6.3565,50.3129],[6.4033,50.3219],[6.4083,50.3331],[6.3398,50.3799],[6.3405,50.3907],[6.3621,50.4047],[6.3747,50.4459],[6.3425,50.4643],[6.33,50.4936],[6.3151,50.5026],[6.2648,50.5027],[6.2534,50.4948],[6.2238,50.5023],[6.1808,50.5331],[6.1722,50.5505],[6.1795,50.5625],[6.1975,50.567],[6.1967,50.5744],[6.2516,50.5921],[6.2784,50.6164],[6.2099,50.6309],[6.1731,50.6214],[6.1597,50.6437],[6.178,50.6445],[6.1695,50.6527],[6.1738,50.6584],[6.1187,50.7087],[6.1007,50.7186],[6.0286,50.7252],[6.0071,50.7566],[6.0119,50.7752],[5.9994,50.7746],[5.9632,50.7951],[5.961,50.8025],[5.9753,50.8141],[5.9997,50.8028],[6.0271,50.8148],[6.0311,50.8214],[6.0197,50.8452],[6.0631,50.8516],[6.0738,50.8469],[6.0899,50.8745],[6.0757,50.8951],[6.0829,50.9218],[6.0585,50.9205],[6.0457,50.9311],[6.0152,50.9332],[6.0085,50.9478],[6.0143,50.9519],[6.0022,50.9586],[6.03,50.9834],[5.9669,50.9831],[5.9501,50.9922],[5.9037,50.9783],[5.908,51.001],[5.8964,51.0039],[5.8721,51.0434],[5.8716,51.0508],[5.9248,51.0559],[5.9455,51.0346],[5.9695,51.0345],[5.9665,51.0422],[5.9823,51.0534],[5.9784,51.0632],[5.989,51.0651],[6.0153,51.0941],[6.0387,51.0956],[6.1302,51.1504],[6.1718,51.1529],[6.1785,51.1619],[6.1448,51.1737],[6.1931,51.1917],[6.1683,51.1977],[6.1221,51.1758],[6.0918,51.1753],[6.0783,51.1875],[6.0736,51.2241],[6.0917,51.2254],[6.0782,51.2447],[6.1545,51.3036],[6.1746,51.3378],[6.1989,51.3389],[6.232,51.366],[6.2227,51.3914],[6.2335,51.4029],[6.2153,51.4022],[6.2143,51.4096],[6.2314,51.4693],[6.2204,51.5092],[6.1793,51.5409],[6.1569,51.5692],[6.091,51.6052],[6.095,51.6203],[6.1056,51.6227],[6.1188,51.6605],[6.039,51.6777],[6.0344,51.7109],[6.0506,51.7168],[6.0129,51.7358],[5.964,51.7416],[5.9687,51.7529],[6.0048,51.7682],[5.9941,51.7719],[6.0007,51.782],[5.9928,51.7982],[5.9653,51.8131],[5.9758,51.817],[5.9646,51.8244],[5.9721,51.8319],[6.0012,51.8285],[6.048,51.8436],[6.0682,51.8649],[6.1101,51.847],[6.169,51.845],[6.167,51.8586],[6.1446,51.8705],[6.1383,51.8849],[6.1071,51.889],[6.1181,51.8989],[6.1589,51.9054],[6.2018,51.8842],[6.2131,51.8688],[6.289,51.8766],[6.305,51.8707],[6.3105,51.851],[6.3529,51.8545],[6.3751,51.8364],[6.3871,51.8405],[6.4175,51.8256],[6.4105,51.8359],[6.4175,51.8414],[6.3991,51.86],[6.4023,51.8748],[6.4327,51.872],[6.4398,51.8609],[6.4631,51.869],[6.4803,51.8546],[6.5867,51.8948],[6.6924,51.9202],[6.7311,51.895],[6.7427,51.8991],[6.8054,51.9346],[6.8087,51.961],[6.8384,51.9656],[6.8354,51.9955],[6.8173,51.995],[6.7594,52.0307],[6.6982,52.0401],[6.6962,52.0587],[6.7071,52.0703],[6.7007,52.0738],[6.7428,52.0751],[6.7597,52.0869],[6.7526,52.0979],[6.7646,52.0982],[6.7685,52.1208],[6.853,52.1198],[6.8763,52.128],[6.8866,52.1568],[6.9164,52.178],[6.9689,52.1905],[6.9884,52.2254],[7.0296,52.227],[7.0693,52.2393],[7.0312,52.2757],[7.0367,52.2834],[7.0297,52.2943],[7.0805,52.3572],[7.0791,52.3827],[7.0209,52.4325],[7.0063,52.4695],[6.9876,52.4728],[6.9755,52.4533],[6.9505,52.437],[6.8625,52.454],[6.8542,52.4626],[6.7649,52.4649],[6.7136,52.4844],[6.7104,52.5281],[6.6838,52.5561],[6.7181,52.5522],[6.7302,52.5668],[6.7683,52.5652],[6.7243,52.5906],[6.7326,52.6093],[6.7193,52.6296],[6.7438,52.6471],[6.7866,52.6562],[6.8831,52.6571],[6.9488,52.6426],[6.9879,52.6498],[7.0519,52.6358],[7.0631,52.6472],[7.0804,52.8139],[7.1003,52.8358],[7.0943,52.8465],[7.2122,52.9329],[7.2477,52.9904],[7.2615,52.9975],[7.2549,53.0011],[7.249,53.0443],[7.2566,53.0984],[7.2348,53.1097],[7.227,53.1245],[7.2632,53.16],[7.2927,53.1629],[7.2703,53.1744],[7.2849,53.1886],[7.2846,53.1996],[7.2724,53.2338],[7.2692,53.2287],[7.2053,53.2388],[7.2342,53.2699],[7.2364,53.2868],[7.2297,53.2943],[7.2392,53.301],[7.2492,53.3299],[7.1842,53.3396],[7.1775,53.334],[7.0269,53.3363],[6.9986,53.3613],[6.9981,53.3718],[7.0114,53.3843],[7.0114,53.4307],[7.0253,53.4835],[7.0497,53.5076],[7.0342,53.5332],[7.0397,53.5382],[7.0614,53.5249],[7.0775,53.5326],[7.0953,53.5193],[7.1336,53.5324],[7.1325,53.5399],[7.1425,53.5418],[7.1281,53.5407],[7.1036,53.556],[7.0903,53.5765],[7.1442,53.609],[7.1581,53.6279],[7.2447,53.6688],[7.3169,53.6835],[7.4753,53.6835],[7.5303,53.6715],[7.6931,53.701],[7.7447,53.7001],[7.7936,53.7101],[7.9108,53.7176],[8.0158,53.7107],[8.0314,53.7054],[8.0203,53.6885],[8.0447,53.6418],[8.0869,53.6443],[8.0831,53.6399],[8.0964,53.6335],[8.1119,53.6371],[8.1103,53.6424],[8.1147,53.6365],[8.0964,53.6296],[8.1114,53.6165],[8.1258,53.6221],[8.1131,53.6149],[8.1208,53.5974],[8.1319,53.5824],[8.1569,53.5851],[8.1403,53.5768],[8.1514,53.5604],[8.1669,53.5621],[8.1725,53.5546],[8.1597,53.556],[8.1697,53.5412],[8.1592,53.5313],[8.1719,53.5368],[8.1553,53.5137],[8.0936,53.5021],[8.0647,53.506],[8.0625,53.4835],[8.0736,53.4649],[8.0992,53.4457],[8.1353,53.4529],[8.1525,53.4479],[8.2025,53.404],[8.2525,53.399],[8.2919,53.4229],[8.2964,53.4426],[8.3086,53.4487],[8.3164,53.4663],[8.3164,53.5221],[8.2308,53.5204],[8.2408,53.5788],[8.2742,53.6043],[8.2719,53.6099],[8.3325,53.616],[8.3942,53.5701],[8.4647,53.5529],[8.5164,53.5563],[8.5203,53.5476],[8.5497,53.5385],[8.5569,53.5257],[8.5131,53.5065],[8.5197,53.501],[8.5708,53.5182],[8.5769,53.5393],[8.5247,53.5876],[8.5214,53.6068],[8.4836,53.6557],[8.4836,53.6943],[8.5442,53.7901],[8.5403,53.8018],[8.5558,53.8315],[8.6081,53.8787],[8.6825,53.8918],[8.6892,53.8782],[8.7036,53.8787],[8.7003,53.8726],[8.7108,53.8735],[8.7186,53.8676],[8.7131,53.8649],[8.7569,53.8426],[8.7964,53.8324],[8.8836,53.8279],[8.9781,53.8407],[9.0164,53.836],[9.0531,53.8532],[9.0997,53.8629],[9.0958,53.8882],[9.0514,53.899],[8.9636,53.8946],[8.9064,53.9335],[8.8747,53.9674],[8.8769,53.979],[8.8436,54.0026],[8.8314,54.0187],[8.8353,54.0235],[8.8197,54.0215],[8.8564,54.0432],[8.9242,54.0429],[8.9603,54.0343],[8.9825,54.0465],[8.9831,54.066],[8.9486,54.0915],[8.9275,54.1318],[8.8958,54.134],[8.8592,54.1226],[8.8308,54.1399],[8.8181,54.1671],[8.8075,54.1732],[8.8153,54.2026],[8.8347,54.2179],[8.8381,54.2321],[8.8303,54.2368],[8.8358,54.2518],[8.8442,54.2579],[8.9031,54.2601],[8.9386,54.2837],[8.9519,54.3129],[8.8619,54.2687],[8.8597,54.281],[8.8436,54.2885],[8.8597,54.2785],[8.8586,54.2671],[8.8464,54.2629],[8.8397,54.2663],[8.8408,54.2804],[8.8231,54.2915],[8.7831,54.2807],[8.7436,54.2901],[8.7097,54.2876],[8.6809,54.2679],[8.6569,54.2776],[8.6447,54.2729],[8.6031,54.3101],[8.6119,54.2924],[8.5925,54.3004],[8.6208,54.2821],[8.5931,54.2899],[8.5803,54.304],[8.5875,54.3379],[8.6042,54.3579],[8.6197,54.356],[8.6203,54.3446],[8.6381,54.3401],[8.6331,54.3443],[8.6858,54.3571],[8.6731,54.3601],[8.6808,54.3685],[8.6536,54.3721],[8.6547,54.3657],[8.6458,54.3665],[8.6264,54.3771],[8.6236,54.3696],[8.6064,54.3704],[8.6086,54.3862],[8.7292,54.4065],[8.8153,54.4129],[8.8564,54.4032],[8.8936,54.4121],[8.9614,54.4579],[8.9958,54.4615],[8.9981,54.4707],[9.0108,54.4751],[9.0236,54.4726],[9.0047,54.479],[9.0125,54.4904],[8.9892,54.5193],[8.9669,54.5157],[8.9592,54.4974],[8.9036,54.4607],[8.8281,54.4621],[8.8064,54.4704],[8.8186,54.4871],[8.8053,54.4979],[8.8719,54.5282],[8.8786,54.5426],[8.8697,54.5632],[8.8903,54.5926],[8.8814,54.5901],[8.8792,54.6063],[8.8131,54.5974],[8.8092,54.6035],[8.8419,54.6149],[8.8225,54.646],[8.7514,54.6813],[8.7447,54.7082],[8.6875,54.7299],[8.7064,54.7399],[8.6931,54.7699],[8.6053,54.8413],[8.6058,54.8707],[8.5903,54.8851],[8.5245,54.8826],[8.5881,54.886],[8.6242,54.8957],[8.6375,54.9129],[8.6938,54.9143],[8.731,54.8952],[8.7619,54.8982]],[[12.6825,54.3746],[12.6781,54.3701],[12.6864,54.3707],[12.6825,54.3746]],[[12.6175,54.4071],[12.5769,54.4035],[12.5786,54.3965],[12.5981,54.3913],[12.5931,54.3835],[12.5519,54.3896],[12.5219,54.3774],[12.5247,54.3699],[12.4958,54.3821],[12.4358,54.3787],[12.4147,54.3654],[12.4214,54.3532],[12.4181,54.3363],[12.3892,54.3426],[12.3969,54.3235],[12.3819,54.309],[12.3603,54.3063],[12.3653,54.291],[12.3831,54.2793],[12.3636,54.266],[12.4164,54.2471],[12.4603,54.2485],[12.4181,54.2579],[12.4092,54.2799],[12.4347,54.2971],[12.4792,54.3043],[12.4731,54.3299],[12.5353,54.3387],[12.5386,54.3518],[12.5531,54.359],[12.5342,54.3654],[12.5542,54.3724],[12.5531,54.3796],[12.5631,54.3724],[12.5825,54.3737],[12.5742,54.3582],[12.5919,54.3574],[12.5986,54.371],[12.6697,54.3907],[12.6575,54.4082],[12.663,54.4086],[12.6469,54.4193],[12.6369,54.4157],[12.6369,54.4249],[12.6175,54.4179],[12.6114,54.4121],[12.6175,54.4071]]],[[[14.2647,53.7107],[14.2692,53.7057],[14.2481,53.7046],[14.2647,53.7107]]],[[[13.9347,54.0265],[13.9247,54.0232],[13.9275,54.0163],[13.9175,54.019],[13.9292,54.0312],[13.9347,54.0265]]],[[[11.4958,54.0318],[11.4958,54.0243],[11.4864,54.0243],[11.4958,54.0318]]],[[[11.5125,54.0579],[11.5236,54.0696],[11.5119,54.0385],[11.5125,54.0579]]],[[[13.3669,54.1854],[13.3725,54.1804],[13.3503,54.1818],[13.3669,54.1854]]],[[[13.9231,54.2513],[13.9275,54.2485],[13.9058,54.2412],[13.9231,54.2513]]],[[[13.1303,54.3068],[13.1219,54.3024],[13.1108,54.3107],[13.1236,54.3135],[13.1303,54.3068]]],[[[13.5203,54.3115],[13.5292,54.3265],[13.5425,54.3315],[13.5447,54.3237],[13.5203,54.3115]]],[[[12.5281,54.3615],[12.5358,54.3563],[12.5303,54.3454],[12.5281,54.3615]]],[[[12.5219,54.3685],[12.5286,54.369],[12.5258,54.3621],[12.5219,54.3685]]],[[[12.7353,54.4132],[12.7314,54.4046],[12.7169,54.4049],[12.7353,54.4132]]],[[[11.0864,54.4388],[11.0914,54.4374],[11.0814,54.4382],[11.0864,54.4388]]],[[[12.9853,54.4376],[13.0008,54.4474],[13.0342,54.4465],[13.0497,54.4601],[13.0597,54.4504],[13.0381,54.4412],[13.0108,54.4426],[12.9775,54.4321],[12.9669,54.4376],[12.9853,54.4376]]],[[[13.2258,54.4863],[13.2203,54.4824],[13.2269,54.4724],[13.2153,54.4671],[13.2269,54.4688],[13.2086,54.4604],[13.2375,54.4624],[13.2308,54.4682],[13.2681,54.4793],[13.2275,54.486],[13.2303,54.511],[13.1586,54.504],[13.1597,54.5354],[13.1397,54.5404],[13.1436,54.5468],[13.2553,54.5521],[13.2947,54.5376],[13.2875,54.5218],[13.3053,54.514],[13.3119,54.5235],[13.3025,54.5276],[13.3069,54.5393],[13.2975,54.5524],[13.3536,54.581],[13.3686,54.5793],[13.3547,54.5515],[13.3381,54.5488],[13.3558,54.5454],[13.3631,54.556],[13.3775,54.559],[13.3797,54.5468],[13.4142,54.5196],[13.4069,54.5071],[13.4131,54.4938],[13.4419,54.4871],[13.4508,54.4732],[13.4792,54.4832],[13.5064,54.481],[13.5003,54.4926],[13.5147,54.5157],[13.5019,54.5485],[13.4469,54.5513],[13.4258,54.5685],[13.3958,54.5729],[13.3836,54.5812],[13.3836,54.5957],[13.3703,54.6146],[13.3281,54.5938],[13.3347,54.5826],[13.2431,54.5588],[13.2564,54.5893],[13.2886,54.6274],[13.2831,54.6463],[13.2269,54.6249],[13.2381,54.5996],[13.2286,54.5871],[13.1608,54.559],[13.1664,54.5726],[13.1975,54.5826],[13.2219,54.6024],[13.2275,54.6135],[13.2192,54.6396],[13.2497,54.6599],[13.2864,54.6729],[13.4292,54.6846],[13.4381,54.6768],[13.4314,54.6629],[13.3875,54.6499],[13.3758,54.6351],[13.3892,54.6007],[13.4208,54.5779],[13.4625,54.5696],[13.4669,54.5754],[13.6336,54.5851],[13.6797,54.5626],[13.6819,54.5424],[13.6686,54.5207],[13.6075,54.4979],[13.5742,54.4765],[13.5697,54.4618],[13.5814,54.4335],[13.6097,54.4049],[13.6236,54.3985],[13.6736,54.4007],[13.7041,54.3801],[13.7231,54.3563],[13.7669,54.3415],[13.7369,54.334],[13.7308,54.3176],[13.7169,54.3101],[13.7142,54.2932],[13.7253,54.2735],[13.7086,54.269],[13.6858,54.2815],[13.7075,54.2807],[13.7019,54.2954],[13.6569,54.2879],[13.6464,54.2965],[13.7003,54.316],[13.7042,54.3262],[13.6681,54.3296],[13.6108,54.3162],[13.6775,54.3374],[13.6831,54.3493],[13.6481,54.3482],[13.6136,54.3307],[13.6031,54.3451],[13.5808,54.3529],[13.5519,54.3393],[13.5064,54.344],[13.4636,54.3293],[13.4547,54.3357],[13.4508,54.3315],[13.4664,54.3215],[13.4208,54.3035],[13.3947,54.2713],[13.3853,54.2665],[13.3869,54.2796],[13.3525,54.2696],[13.3597,54.2476],[13.3697,54.2543],[13.3597,54.2568],[13.3658,54.2643],[13.3786,54.2537],[13.3953,54.2651],[13.4181,54.2549],[13.4236,54.2382],[13.3936,54.221],[13.2903,54.2513],[13.2953,54.2554],[13.3214,54.2451],[13.3236,54.2663],[13.3342,54.2699],[13.3353,54.2782],[13.3103,54.2657],[13.3208,54.2576],[13.2697,54.2537],[13.2247,54.269],[13.2181,54.2793],[13.2158,54.2715],[13.1997,54.2701],[13.1958,54.2837],[13.2042,54.2899],[13.1942,54.2968],[13.1808,54.2876],[13.1392,54.2824],[13.1397,54.2965],[13.1547,54.3046],[13.1797,54.2962],[13.1847,54.301],[13.1147,54.3318],[13.1275,54.3713],[13.1975,54.3757],[13.2203,54.3676],[13.2619,54.3829],[13.2369,54.3882],[13.2297,54.4015],[13.2381,54.4099],[13.2197,54.414],[13.2114,54.4299],[13.1586,54.421],[13.1497,54.429],[13.1619,54.4357],[13.1682,54.4512],[13.1208,54.4424],[13.1486,54.4818],[13.1842,54.4943],[13.2003,54.4857],[13.2258,54.4863]],[[13.1886,54.4657],[13.176,54.4539],[13.1931,54.4551],[13.1997,54.4474],[13.2046,54.4585],[13.2008,54.4568],[13.2136,54.4663],[13.1886,54.4657]]],[[[11.3136,54.4021],[11.2453,54.4121],[11.1975,54.406],[11.1936,54.4124],[11.2119,54.4171],[11.1864,54.4201],[11.1658,54.4132],[11.1781,54.4015],[11.1186,54.4026],[11.0947,54.4096],[11.1019,54.4293],[11.0947,54.4457],[11.0742,54.4449],[11.0636,54.4526],[11.0214,54.4432],[11.0464,54.4285],[11.0092,54.4412],[11.0042,54.4501],[11.0175,54.4946],[11.0375,54.5187],[11.0697,54.5347],[11.1714,54.5215],[11.2153,54.5049],[11.2342,54.5068],[11.2525,54.4712],[11.2764,54.4562],[11.3136,54.4021]]],[[[13.1342,54.5879],[13.1392,54.5968],[13.1258,54.5838],[13.1108,54.5838],[13.1181,54.5754],[13.1092,54.5682],[13.1169,54.5376],[13.0925,54.5274],[13.0931,54.5163],[13.0847,54.5182],[13.0892,54.5151],[13.0736,54.5001],[13.0747,54.4688],[13.0636,54.4576],[13.0631,54.491],[13.0975,54.5565],[13.0975,54.5904],[13.1364,54.6051],[13.1469,54.6024],[13.1581,54.5793],[13.1497,54.5751],[13.1458,54.5882],[13.1437,54.5809],[13.1342,54.5879]]]]}}]}